
AGGH 201100Z 00000KT 9999 -DZ FEW005 SCT014 BKN025 24/24 Q1012
AYMH 200900Z 28010KT 9999 -SHRA BKN080 Q1018 RMK
AYPY 201100Z 14015KT 9999 SCT040 OVC120 26/24 Q1012
AZUH 201100Z 33004KT CAVOK 31/05 Q1013
BGBW 201150Z 22005KT 9999 FEW240 03/M01 Q1008
BGGH 201150Z 16020G34KT 9999 BKN100 08/M03 Q1000
BGJN 201150Z 11020KT 9999 BKN170 03/M08 Q1000
BGKK 201150Z 06009KT 020V090 9999 -SHRA BKN035 04/01 Q1010
BGSF 201150Z AUTO 08010KT 9999NDV -SHSN FEW130/// BKN140/// 05/M07 Q1000
BGTL 201056Z AUTO 12009KT 9999 CLR M06/M12 A2967 RMK AO2 SLP034 T10611118 TSNO $
BIAR 201100Z 13012KT 9999 -RA SCT065 13/11 Q1004 RMK WIND VADLAHEIDI 16011KT
BIBD 201200Z 02005KT 9999 RA FEW014 OVC020 11/10 Q1001
BIEG 201100Z 22006KT 9999 FEW028 SCT059 14/10 Q1005 RMK WIND GAGNHEIDI 23023KT
BIHN 201124Z 18007KT 6000 -RA SCT002 BKN005 OVC011 11/10 Q1009
BIIS 201200Z 05007KT 9999 RA FEW005 FEW018 OVC025 08/06 Q1004
BIKF 201130Z 16019KT 3100 -DZ BR SCT002 OVC004 11/11 Q1000
BIRK 201100Z 16014KT 8000 -DZ SCT005 BKN010 BKN016 11/10 Q1001
BIVM 201100Z 17014G27KT 2500 RA BR VV001 11/11 Q1003
BKPR 201200Z 03008KT 9999 FEW040 17/M01 Q1023 NOSIG
CAHR 201100Z AUTO 22004KT 10/08 RMK AO1 SLP174 T00990083 58007
CBBC 201119Z AUTO 00000KT 9SM OVC008 13/13 A3007 RMK SLP185
CERM 201100Z AUTO 00000KT 06/06 RMK AO1 SLP193 T00550062 55002
CMFM 201100Z AUTO 10004KT 11/09 RMK AO1 SLP210 T01050092 58005
CMGB 201145Z AUTO 21001KT 13/ RMK AO1 SLP231 T0127 53006
CPBT 201100Z AUTO 25009KT 07/03 RMK AO1 T00670032
CPEH 201100Z AUTO 28005KT 04/04 RMK AO1 T00350042
CPFI 201100Z AUTO 22006KT 07/05 RMK AO1 T00650046
CPIR 201100Z AUTO 27010KT 06/04 RMK AO1 4PAST HR M P0002 T00620035 50004
CPRO 201100Z AUTO 29003KT 03/ RMK AO1 T0030
CPRY 201100Z AUTO 24008KT 08/04 RMK AO1 T00790038
CPST 201100Z AUTO 35007KT 07/07 RMK AO1 T00740066
CPSV 201100Z AUTO 19008KT 05/05 RMK AO1 T00510048
CPXL 201100Z AUTO 22007KT 08/05 RMK AO1 T00800049
CTCK 201100Z AUTO 00000KT 08/08 RMK AO1 SLP226 T00840084 53005
CTNK 201100Z AUTO 00000KT 09/07 RMK AO1 SLP236 T00910073 51009
CTRA 201100Z AUTO 13002KT 13/12 RMK AO1 SLP175 T01270124 58003
CWAF 201100Z AUTO 20014KT 09/08 RMK AO1 PK WND 20017/1056 T00910075
CWAJ 201100Z AUTO 18004KT 21/16 RMK AO1 SLP210 T02080164 51005
CWAQ 201100Z AUTO 31006KT 10/10 RMK AO1 3002 SLP069 T01030096 50002
CWAV 201100Z AUTO 26002KT 07/ RMK AO1 T0074
CWBA 201100Z AUTO 18004KT 13/13 RMK AO1 T01290127
CWBE 201100Z AUTO 06006KT 16/14 RMK AO1 SLP218 T01590138 58003
CWBK 201100Z AUTO 22004KT 09/06 RMK AO1 SLP181 T00890061 56007
CWBO 201100Z AUTO 27003KT 02/02 RMK AO1 SLP100 T00190016 53002
CWBS 201100Z AUTO 21010KT 14/12 RMK AO1 T01390116
CWBT 201100Z AUTO 00000KT 04/04 RMK AO1 SLP127 T00440038 56007
CWBU 201100Z AUTO 13/11 RMK AO1 SLP065 T01300112 58003
CWBV 201100Z AUTO 35008KT 10/05 RMK AO1 SLP176 T00990052 56010
CWBY 201000Z AUTO 27011KT 13/10 RMK AO1 SLP135 T01270101 56013
CWBZ 201100Z AUTO 24002KT 08/07 RMK AO1 SLP227 T00750073 53005
CWCF 201100Z AUTO 11009KT 12/10 RMK AO1 SLP137 T01170103 58026
CWCI 200900Z AUTO 15/15 RMK AO1 SLP194 T01500150
CWCJ 201100Z AUTO 04005KT 16/15 RMK AO1 SLP206 T01560152 53008
CWCO 201100Z AUTO 03001KT 15/12 RMK AO1 SLP211 T01510117 53006
CWCT 201100Z AUTO 18001KT 01/01 RMK AO1 SLP110 T00120011 55000
CWDA 201100Z AUTO 00027KT 13/07 RMK AO1 SLP107 T01310068 55009
CWDC 201100Z AUTO 18003KT 09/07 RMK AO1 SLP031 T00880066 58007
CWDJ 201100Z AUTO 19008KT 14/12 RMK AO1 SLP061 T01440121 55007
CWDK 201100Z AUTO 01006KT 07/04 RMK AO1 SLP109 T00650035 53008
CWDM 201000Z AUTO 23010KT 10/09 RMK AO1 SLP124 T00960087 56012
CWDO 201100Z AUTO 22016G22KT 09/04 RMK AO1 PK WND 22026/1022 SLP132 T00850036 55003
CWDQ 201100Z AUTO 16001KT 13/11 RMK AO1 SLP206 T01280112 57002
CWDV 201100Z AUTO 05002KT 10/10 RMK AO1 SLP220 T01010101 53006
CWEB 201100Z AUTO 33006KT 13/12 RMK AO1 SLP177 T01270124 50002
CWEF 201100Z AUTO 12/05 RMK AO1 SLP172 T01240048 56010
CWEH 201100Z AUTO 19002KT 04/04 RMK AO1 SLP114 T00440037 53005
CWEK 201100Z AUTO 13/12 RMK AO1 SLP171 T01290121 58005
CWEL 201100Z AUTO 30004KT 15/13 RMK AO1 SLP173 T01530134 55001
CWEP 201100Z AUTO 21006KT RMK AO1 58008
CWEQ 201100Z AUTO 35007KT 13/12 RMK AO1 SLP082 T01270120 57036
CWER 201100Z AUTO 23016KT RMK AO1 PK WND 23021/1032
CWEU 201100Z 35008KT 10SM PRFG FEW002 SCT005 BKN010 BKN120 M10/M11 A2989 RMK ST1SF2SC2AC1 AC TR FG BNK SE-S VIS 2 SLP125
CWEW 201100Z AUTO 21006KT 13/11 RMK AO1 SLP229 T01260109 53004
CWEZ 201100Z AUTO 24005KT 13/12 RMK AO1 SLP172 T01250122 58002
CWFD 201100Z AUTO 16036G46KT 130V190 ////SM //// OVC002 M00/// A2901
CWFF 201100Z AUTO 30003KT 14/12 RMK AO1 SLP061 T01430123 50001
CWFJ 201100Z AUTO 22006KT 07/02 RMK AO1 T00680015
CWFQ 201100Z AUTO 17003KT 11/06 RMK AO1 SLP235 T01070062 53007
CWGB 201100Z AUTO 25005KT 14/13 RMK AO1 SLP173 T01410130 55000
CWGD 201100Z AUTO 14006KT 16/13 RMK AO1 SLP224 T01590132 53004
CWGH 201100Z AUTO 19001KT 12/10 RMK AO1 SLP239 T01210099 53008
CWGL 201100Z AUTO 08001KT 13/11 RMK AO1 SLP212 T01290106 52008
CWGM 201100Z AUTO 23013G18KT 09/03 RMK AO1 PK WND 23022/1015 T00920030
CWGR 201100Z AUTO 20007KT 13/10 RMK AO1 SLP164 T01260101 56009
CWGT 201100Z AUTO 31003KT 14/13 RMK AO1 SLP174 T01430130 55000
CWGW 201100Z AUTO 35002KT 04/03 RMK AO1 SLP147 T00370033 53009
CWGX 201100Z AUTO 17005KT 08/06 RMK AO1 SLP159 T00770063 58009
CWGY 201100Z AUTO 03/03 RMK AO1 SLP109 T00290028 55000
CWGZ 201100Z 05012KT 15SM FEW040 FEW220 M04/M12 A2979 RMK SC1CI1 SC TR CI TR CALL-OUT SLP094
CWHI 201100Z AUTO 25004KT 04/03 RMK AO1 T00390034
CWHL 201100Z AUTO 15003KT 12/ RMK AO1 SLP170 T0120 58007
CWHN 201155Z AUTO 22003KT 180V280 1/8SM OVC000 08/06 A2969
CWHO 201100Z AUTO 18/14 RMK AO1 7PAST HR 5000 SLP005 P0007 T01840135 50017
CWHP 201100Z AUTO 25007KT 10/09 RMK AO1 SLP142 T01010092 58010
CWHQ 201100Z AUTO 32001KT 06/06 RMK AO1 T00600059
CWHT 201100Z AUTO 19001KT 06/02 RMK AO1 SLP049 T00550016 58022
CWHV 201100Z AUTO 18002KT 07/06 RMK AO1 SLP222 T00650064 53005
CWID 201100Z AUTO 31006KT 10/07 RMK AO1 SLP039 T01010073 51019
CWIG 201100Z AUTO 22014G19KT RMK AO1 PK WND 21020/1004
CWIJ 201100Z AUTO 08017KT 03/02 RMK AO1 6PAST HR 8003 PK WND 08021/1050 SLP039 P0002 T00290015 50028
CWIK 201100Z AUTO 10005KT 15/13 RMK AO1 PRESFR 7063 PK WND 13019/1002 SLP041 T01500130 50043
CWIL 201100Z AUTO 35008KT ////SM BKN005 OVC034 ///// A////
CWIP 200700Z AUTO 02002KT 10/ RMK AO1 T0095
CWIS 200900Z AUTO 33002KT 15/09 RMK AO1 SLP201 T01460093 58005
CWIT 201100Z AUTO 00000KT 06/06 RMK AO1 SLP226 T00610059 53005
CWIW 201100Z AUTO 29004KT 15/13 RMK AO1 SLP059 T01490131 50001
CWIZ 201100Z AUTO 18004KT 09/08 RMK AO1 T00900083
CWJB 201100Z AUTO 21003KT 12/ RMK AO1 T0119
CWJC 201100Z AUTO 19011KT 07/05 RMK AO1 PK WND 20017/1019 SLP080 T00740054 57010
CWJD 201100Z AUTO 17003KT 10/10 RMK AO1 SLP120 T01020097 56026
CWJH 201100Z AUTO 08001KT 10/10 RMK AO1 3PAST HR 8033 SLP083 P0009 T01030096 50077
CWJI 201100Z AUTO 29011KT 11/09 RMK AO1 SLP081 T01070090 50012
CWJO 201100Z AUTO 16/12 RMK AO1 SLP192 T01620120 55000
CWJR 201100Z AUTO 08003KT 10/08 RMK AO1 SLP146 T00990080 53002
CWJT 201100Z AUTO 00004KT 07/07 RMK AO1 SLP226 T00740072 53002
CWJU 201100Z AUTO 12006KT 12/11 RMK AO1 8014 SLP158 T01220111 50001
CWJV 201100Z AUTO 11002KT 12/11 RMK AO1 3002 SLP146 T01180110 50009
CWJW 201100Z AUTO 17003KT 08/07 RMK AO1 3001 SLP132 T00780068 50002
CWJX 201100Z AUTO 29001KT 06/05 RMK AO1 SLP100 T00580048 54000
CWKG 201100Z AUTO 00000KT 05/05 RMK AO1 SLP197 T00520046 56002
CWKH 201100Z AUTO 12/ RMK AO1 SLP167 T0120 55002
CWKO 201100Z AUTO 32008KT 11/09 RMK AO1 PK WND 33017/1001 SLP091 T01100088 53014
CWKX 201100Z AUTO 00000KT 04/04 RMK AO1 SLP150 T00380037 58002
CWLB 201100Z AUTO 20003KT 10/08 RMK AO1 SOG 05 6009 SLP058 T00970075
CWLC 201100Z AUTO 00014KT 12/11 RMK AO1 T01200113
CWLE 201100Z AUTO 29008KT 10/08 RMK AO1 SLP090 T00960084 51009
CWLI 201100Z AUTO 25007KT ////SM //// OVC005 02/02 A2969
CWLM 201100Z AUTO 28005KT 13/12 RMK AO1 SLP176 T01250119 58003
CWLP 201100Z AUTO 00000KT 13/13 RMK AO1 0001 SLP184 T01330129 50010
CWLS 201100Z AUTO 17005KT 14/12 RMK AO1 SLP232 T01430115 53005
CWLY 201100Z AUTO VRB02KT 9SM BKN044 OVC055 15/10 A3000 RMK SLP161 DENSITY ALT 800FT
CWME 201100Z AUTO 36001KT 13/12 RMK AO1 T01320118
CWMJ 201100Z AUTO 00000KT 09/08 RMK AO1 SLP226 T00880083 53006
CWMM 201100Z AUTO 00000KT 14/13 RMK AO1 SLP175 T01370128 56004
CWMQ 201100Z AUTO 15001KT 04/02 RMK AO1 SLP113 T00360015 55001
CWMT 201100Z AUTO 31009KT 08/06 RMK AO1 PK WND 32017/1018 SLP023 T00760062 52011
CWMZ 201100Z AUTO 15006KT 18/14 RMK AO1 SLP216 T01760142 53009
CWNC 201100Z AUTO 03003KT 13/13 RMK AO1 SLP228 T01330127 53007
CWND 201100Z AUTO 24004KT 02/02 RMK AO1 SLP035 T00190018 51005
CWNE 201100Z AUTO 23014KT 13/10 RMK AO1 SLP161 T01320095 56013
CWNH 201100Z AUTO 19005KT 14/08 RMK AO1 SLP186 T01370075 55001
CWNK 201100Z AUTO 14/13 RMK AO1 T01420131
CWNL 201100Z AUTO 06001KT 16/14 RMK AO1 SLP202 T01590143 51001
CWNM 201100Z AUTO 19005KT 11/10 RMK AO1 SLP138 T01130098 51001
CWNP 201100Z AUTO 08002KT 11/10 RMK AO1 2PAST HR 8001 SLP139 P0001 T01110103 50007
CWNZ 201100Z AUTO 04002KT 12/11 RMK AO1 SLP228 T01170108 51012
CWOB 201100Z AUTO 29021G35KT 260V330 ////SM SCT018 SCT023 03/M00 A2912
CWOC 201100Z AUTO 30005KT 12/10 RMK AO1 SLP160 T01190100 56004
CWOD 201100Z AUTO 18003KT 12/11 RMK AO1 SLP161 T01240111 53002
CWOE 200900Z AUTO 27001KT 07/04 RMK AO1 SLP108 T00660044 58004
CWOY 201100Z AUTO 18011KT 17/14 RMK AO1 PK WND 17020/1016 SLP060 T01650136 55008
CWPC 201100Z AUTO 19008KT 18/13 RMK AO1 SLP232 T01780133 51008
CWPD 201100Z AUTO 18005KT 14/10 RMK AO1 PK WND 22017/1024 SLP179 T01360099 58005
CWPE 201100Z AUTO 32002KT 08/07 RMK AO1 SLP190 T00800072 55001
CWPF 201145Z AUTO 03002KT 12/11 RMK AO1 SLP173 T01180112 56002
CWPK 201000Z AUTO 24003KT 14/12 RMK AO1 SLP204 T01430115 50000
CWPO 201100Z AUTO 14017G22KT 16/15 RMK AO1 PK WND 14022/1052 SLP107 T01550152 58039
CWPR 201100Z AUTO 00000KT 08/07 RMK AO1 SLP163 T00840068 53006
CWPS 201100Z AUTO 14008KT 19/13 RMK AO1 SLP220 T01870129 51008
CWPX 201100Z AUTO 06011KT ////SM //// OVC009 M01/M02 A2983
CWPZ 201100Z AUTO 00000KT 03/03 RMK AO1 SLP171 T00310026 51010
CWQH 201100Z AUTO 07002KT 06/05 RMK AO1 T00580051
CWQK 201100Z AUTO 30015KT 15/12 RMK AO1 PK WND 29018/1035 SLP175 T01470123 58002
CWQP 201100Z AUTO 22009KT 16/14 RMK AO1 SLP243 T01560141 53009
CWQR 201100Z AUTO 26003KT 07/07 RMK AO1 T00740068
CWQS 201100Z AUTO 15013KT 14/12 RMK AO1 PK WND 14017/1030 SLP163 T01370117 58011
CWQV 201100Z AUTO RMK AO1
CWRA 201100Z AUTO RMK AO1 55004
CWRJ 201100Z AUTO 26005KT 10/09 RMK AO1 SLP088 T00990093 50007
CWRK 201100Z AUTO 00000KT 08/06 RMK AO1 SLP240 T00760064 53010
CWRM 201100Z AUTO 28002KT 06/06 RMK AO1 2PAST HR 5002 SLP098 P0001 T00600058 50007
CWRN 201100Z AUTO 32006KT 11/09 RMK AO1 SLP166 T01080086 57004
CWRO 201100Z AUTO 16012KT 13/13 RMK AO1 SLP163 T01340127 58008
CWRT 201100Z AUTO 27001KT 02/02 RMK AO1 T00170017
CWRU 201100Z AUTO 33011KT 14/14 RMK AO1 SLP181 T01380138 51001
CWRX 201100Z AUTO 33014G21KT ////SM //// OVC046 02/01 A2932
CWRY 201100Z AUTO 30004KT 03/01 RMK AO1 SLP115 T00260014 50000
CWRZ 201100Z AUTO 26003KT RMK AO1 56010
CWSA 201100Z AUTO 02019G27KT 9SM SCT140 OVC170 13/10 A2994 RMK SLP140
CWSD 201100Z AUTO 21007KT 11/09 RMK AO1 SLP171 T01050093 58010
CWSF 201100Z AUTO 02002KT 13/10 RMK AO1 SLP137 T01290096 56004
CWSG 201100Z AUTO 24006KT 13/10 RMK AO1 SLP148 T01300098 56004
CWSK 201100Z AUTO 00000KT 13/13 RMK AO1 SLP168 T01330127 56001
CWSL 201100Z AUTO 19001KT 12/11 RMK AO1 SLP151 T01170112 53002
CWSP 201100Z AUTO 30003KT 13/ RMK AO1 SLP179 T0134 58003
CWSR 201100Z AUTO 25007KT 10/09 RMK AO1 8003 SLP069 T01020092 50024
CWSS 201100Z AUTO 00000KT 03/03 RMK AO1 SLP198 T00280027 55002
CWST 201100Z AUTO 24009KT 16/09 RMK AO1 SLP183 T01560094 56008
CWTA 201100Z AUTO 17003KT 15/11 RMK AO1 SLP227 T01460113 53004
CWTG 201100Z AUTO 26021KT 08/07 RMK AO1 PK WND 26024/1053 SLP145 T00830069 56003
CWTN 201100Z AUTO 31002KT 11/ RMK AO1 SLP200 T0113 53001
CWTT 200900Z AUTO 24004KT 10/09 RMK AO1 T01040092
CWTY 201100Z AUTO 20012KT 14/10 RMK AO1 SLP211 T01360102 53002
CWUS 201100Z AUTO 29004KT 12/10 RMK AO1 5000 SLP160 T01150095 50004
CWUW 201100Z AUTO 08025G32KT ////SM OVC003 M01/M01 A2901
CWUX 201100Z AUTO 24001KT 14/14 RMK AO1 SLP182 T01380138 55000
CWVF 201100Z AUTO 22005KT 14/14 RMK AO1 T01410135
CWVI 201100Z AUTO 21004KT 09/08 RMK AO1 SLP066 T00900083 56009
CWVN 201100Z AUTO 02003KT 08/06 RMK AO1 SLP095 T00770055 57002
CWVP 201100Z AUTO 24004KT 06/03 RMK AO1 SLP112 T00600034 53003
CWVQ 201100Z AUTO 23006KT 13/11 RMK AO1 SLP228 T01250108 53004
CWVT 201100Z AUTO 16005KT 11/09 RMK AO1 SLP068 T01100092 58015
CWVU 201100Z AUTO 26006KT 11/10 RMK AO1 SLP215 T01100103 56001
CWWA 201100Z AUTO 00000KT 13/12 RMK AO1 SLP173 T01270124 56004
CWWB 201100Z AUTO 00000KT 16/15 RMK AO1 SLP225 T01570146 52007
CWWE 201100Z AUTO 34004KT 08/06 RMK AO1 SLP190 T00750058 56006
CWWF 201100Z AUTO 30002KT 14/12 RMK AO1 5008 SLP073 T01440123 50021
CWWK 201100Z AUTO 00000KT 14/13 RMK AO1 SLP176 T01370128 58003
CWWL 201100Z AUTO 14008KT 13/12 RMK AO1 SLP174 T01280115 56005
CWWS 201100Z AUTO 14007G15KT 14/13 RMK AO1 PK WND 12018/1033 SLP134 T01390129 58026
CWWX 201100Z AUTO 23006KT 18/14 RMK AO1 SLP203 T01760139 53001
CWWZ 201100Z AUTO 18003KT 15/13 RMK AO1 SLP226 T01510131 53007
CWXA 201100Z AUTO 26007KT 10/02 RMK AO1 SLP089 T01020018 58001
CWXC 201100Z AUTO 19003KT 14/ RMK AO1 SLP175 T0142 53001
CWXI 201100Z AUTO 22027G33KT 10/08 RMK AO1 PK WND 23033/1055 SLP104 T00970077 58005
CWXL 201100Z AUTO 24003KT 07/04 RMK AO1 T00660035
CWYJ 201100Z AUTO 00000KT 11/11 RMK AO1 SLP176 T01140113 58002
CWYL 201100Z AUTO 25009KT 06/04 RMK AO1 SLP118 T00560035 58004
CWYY 201100Z AUTO 15001KT 16/10 RMK AO1 SLP136 T01550100 53001
CWZA 201100Z AUTO 06001KT 14/13 RMK AO1 SLP168 T01410130 51001
CWZG 201100Z AUTO 25003KT 08/03 RMK AO1 SLP112 T00770028 58002
CWZL 201100Z AUTO 00000KT 13/ RMK AO1 SLP179 T0133 58004
CWZN 201100Z AUTO RMK AO1
CWZO 201100Z AUTO 12001KT RMK AO1
CWZQ 201140Z AUTO 15006KT 12/07 RMK AO1 T01180069
CWZV 201100Z AUTO 30004KT 13/12 RMK AO1 SLP183 T01260118 58002
CWZW 201100Z AUTO 04003KT 04/02 RMK AO1 SLP110 T00350017 58004
CWZZ 201100Z AUTO 31010G22KT 280V340 ////SM SCT140 09/05 A2945
CXAF 201100Z AUTO 26005KT 09/09 RMK AO1 T00900090
CXAG 201100Z AUTO 24005KT 09/08 RMK AO1 T00870083
CXAJ 201100Z AUTO 23004KT 10/09 RMK AO1 T01000092
CXAK 201100Z AUTO 23006KT 08/08 RMK AO1 T00760075
CXAT 201100Z AUTO 03006KT 02/M03 RMK AO1 SLP033 T00201030 51008
CXBA 201100Z AUTO 15004KT 05/05 RMK AO1 T00500050
CXBI 201100Z AUTO 00000KT 11/10 RMK AO1 SLP231 T01110100 51007
CXBK 201100Z AUTO 21007KT 14/13 RMK AO1 5002 SLP054 T01440132 50008
CXBO 200900Z AUTO 25007KT RMK AO1
CXBR 201100Z AUTO 26010KT 07/04 RMK AO1 T00730035
CXBW 201100Z AUTO 23009KT 07/05 RMK AO1 T00680047
CXCA 201100Z AUTO 01001KT 13/13 RMK AO1 SLP205 T01320128 53008
CXCD 201100Z AUTO 30007KT 10/07 RMK AO1 T01040071
CXCK 201100Z AUTO 15004KT 03/03 RMK AO1 SLP059 T00330026 58013
CXCP 201100Z AUTO 32007KT 06/06 RMK AO1 T00640055
CXCS 201100Z AUTO 23010KT 05/04 RMK AO1 T00460042
CXDB 201100Z AUTO 23009KT 04/01 RMK AO1 T00410013
CXDE 201100Z AUTO 31003KT 07/05 RMK AO1 SLP073 T00660048 51012
CXDI 201100Z AUTO 00000KT 09/08 RMK AO1 SLP231 T00870075 51004
CXDK 201100Z AUTO 36001KT 09/09 RMK AO1 1014 SLP082 T00910087 50009
CXDP 201100Z AUTO 24006KT 09/09 RMK AO1 T00900087 50004
CXDW 201100Z AUTO 14006KT 13/13 RMK AO1 T01310131
CXEA 201100Z AUTO 11003KT 13/12 RMK AO1 SLP197 T01270122 58001
CXEC 201100Z AUTO 25004KT 11/09 RMK AO1 5001 SLP081 T01080088 50003
CXEG 201100Z AUTO 09/08 RMK AO1 T00920081
CXET 201100Z AUTO 11004KT 12/11 RMK AO1 SLP233 T01180106 51006
CXFM 201100Z AUTO 22012KT 08/05 RMK AO1 T00760046
CXFR 201100Z AUTO 28005KT 08/06 RMK AO1 T00770055
CXGH 201100Z AUTO 14012KT 16/14 RMK AO1 SLP119 T01580135 58031
CXHA 201100Z AUTO 18004KT 17/15 RMK AO1 SLP206 T01740152 53003
CXHD 201100Z AUTO 24006KT 09/09 RMK AO1 T00850088
CXHF 201100Z AUTO 10/10 RMK AO1 T01000096
CXHM 201100Z AUTO 00000KT RMK AO1 51007
CXHP 201100Z AUTO 27006KT 11/07 RMK AO1 T01100073
CXHR 201100Z AUTO 01003KT 04/04 RMK AO1 T00350035
CXIB 201100Z AUTO 00000KT 07/05 RMK AO1 2PAST HR 8007 SLP171 P0001 T00670047 50002
CXKA 201100Z AUTO 36005KT 12/12 RMK AO1 3017 SLP211 T01240120 50003
CXKE 201100Z AUTO 00000KT 08/08 RMK AO1 SLP232 T00810077 53007
CXKI 201100Z AUTO 16/13 RMK AO1 SLP211 T01560130 53010
CXKM 201100Z AUTO 18003KT 05/05 RMK AO1 T00500048
CXKT 201100Z AUTO 00000KT 05/04 RMK AO1 SLP188 T00480036 57006
CXLB 201100Z AUTO 26005KT 09/07 RMK AO1 SLP182 T00910071 56006
CXMD 201100Z AUTO 13005KT 14/13 RMK AO1 SLP104 T01440133 56036
CXMG 201100Z AUTO 27004KT 07/06 RMK AO1 T00670062
CXMI 201100Z AUTO 33005KT 09/ RMK AO1 T0087
CXMM 201100Z AUTO 13004KT 10/08 RMK AO1 SLP035 T00950080 56010
CXMO 201100Z AUTO 10002KT 03/03 RMK AO1 T00260026
CXMY 201100Z AUTO 02/01 RMK AO1 T00160014
CXNM 201100Z AUTO 30005KT 09/03 RMK AO1 T00900029
CXNP 201100Z AUTO 19006KT 04/04 RMK AO1 2PAST HR 8006 SLP186 P0001 T00420040 50002
CXOL 201100Z AUTO 26008KT 07/07 RMK AO1 T00670067
CXOX 201100Z AUTO 13003KT 12/11 RMK AO1 2PAST HR 6030 SLP067 P0012 T01210111 50149
CXOY 201100Z AUTO 24007KT 05/05 RMK AO1 T00510051
CXPA 201100Z AUTO 29007KT 10/08 RMK AO1 T01010076
CXPC 201100Z AUTO 15/11 RMK AO1 SLP213 T01450114 53006
CXPL 201100Z AUTO 03003KT 03/03 RMK AO1 T00280028
CXRB 201100Z AUTO 01019KT M03/M05 RMK AO1 PK WND 02025/1049 SLP105 T10321053 50005
CXRH 201100Z AUTO 04003KT 09/05 RMK AO1 T00870052
CXRL 201100Z AUTO 22003KT 09/08 RMK AO1 T00890080
CXSC 201100Z AUTO 25008KT 07/07 RMK AO1 T00690069
CXSE 201100Z AUTO 31004KT M06/M07 RMK AO1 SOG 02 1003 SLP150 T10611067
CXSH 201100Z AUTO 25001KT 10/09 RMK AO1 SLP211 T01000089 53001
CXSL 201100Z AUTO 23003KT 09/08 RMK AO1 T00880076
CXSP 201100Z AUTO 23004KT 09/08 RMK AO1 T00860084
CXTD 201100Z AUTO 15003KT 06/05 RMK AO1 SLP186 T00610046 56009
CXTH 201100Z AUTO 20006KT 09/09 RMK AO1 T00900090
CXTN 201100Z AUTO 21002KT 02/M00 RMK AO1 SLP079 T00221002 51006
CXTO 201100Z AUTO 15/13 RMK AO1 SLP229 T01480130 51007
CXTP 201100Z AUTO 25010KT 11/03 RMK AO1 PK WND 23017/1036 SLP147 T01090026 57013
CXTV 201100Z AUTO 22004KT 01/01 RMK AO1 SLP069 T00130012 52002
CXVM 201100Z AUTO 23002KT 06/06 RMK AO1 T00590058
CXVN 201100Z AUTO 13003KT 14/12 RMK AO1 SLP224 T01350123 51007
CXVW 201100Z AUTO 27007KT 11/07 RMK AO1 T01050069
CXWB 201100Z AUTO 30018KT 03/M00 RMK AO1 PK WND 30022/1056 SLP076 T00281002 51014
CXWM 201100Z AUTO 21008KT 06/04 RMK AO1 T00640037
CXWN 201100Z AUTO 10004KT 16/14 RMK AO1 SLP125 T01640137
CXYH 201100Z AUTO 31001KT 07/06 RMK AO1 1015 SLP066 T00670061 50001
CXZC 201100Z AUTO 35003KT 10/08 RMK AO1 SLP225 T00980083 51017
CXZV 201100Z AUTO 00000KT 09/08 RMK AO1 SLP130 T00900084 55001
CYAB 201100Z 02014KT 20SM FEW009 FEW020 FEW050 FEW070 BKN230 02/M02 A2962 RMK SC1SC1SC1AC1CI5 SC TR SC TR CIG ESTD SLP033
CYAH 201119Z AUTO 29007KT 9SM OVC010 05/04 A3007 RMK SLP197
CYAM 201100Z 07005KT 15SM FEW050 FEW180 SCT240 15/15 A3012 RMK SC1AC1CC2 SC TR CONTRAILS SLP204
CYAT 201100Z AUTO 24004KT 9SM CLR 05/04 A3018 RMK SLP221
CYAY 201100Z AUTO 25025G33KT 9SM CLR 11/07 A2981 RMK SLP097
CYBC 201100Z AUTO 25010KT 9SM CLR 09/08 A2998 RMK SLP155
CYBG 201100Z 25002KT 25SM FEW040 BKN070 BKN100 15/14 A3008 RMK SC1AC5AC2 SLP188
CYBK 201100Z 00000KT 15SM BKN030 01/00 A2986 RMK SC7 SLP115
CYBN 201100Z AUTO 00000KT 9SM CLR 09/09 A3019 RMK SLP225
CYBQ 201100Z AUTO 18007KT 9SM CLR 07/06 A2988 RMK SLP132
CYBR 201120Z 12010G15KT 050V130 5SM TSRA BR FEW005 OVC025CB 16/15 A2979 RMK SF1CB7 CONTUS LTGCGIC ALQDS PRESFR VIA CYWG SLP093 DENSITY ALT 1900FT
CYBU 201155Z AUTO 01004KT 1 3/4SM -TSRA BR BKN025 OVC034 12/12 A2969 RMK LTNG DIST ALQDS SLP063 DENSITY ALT 1400FT
CYBW 201100Z AUTO 29003KT 9SM FEW180 05/03 A2984 RMK SLP118
CYBX 201151Z 24009KT 8SM OVC007 09/08 A2986 RMK SC8 SLP116
CYCA 201100Z AUTO 19011G16KT 9SM SCT130 16/09 A2965 RMK SLP041 DENSITY ALT 400FT
CYCB 201105Z 06008KT 15SM VCSH FEW004 BKN020 M01/M02 A2986 RMK CF1SC5 SLP117
CYCK 201100Z AUTO 19005KT 8SM CLR 17/16 A3016 RMK SLP213 DENSITY ALT 700FT
CYCO 201100Z 07008KT 15SM FEW015 FEW090 SCT180 SCT250 03/02 A2973 RMK SC1AS1AC2CI1 SC TR SLP070
CYCX 201100Z 22006KT 15SM FEW200 08/06 A3008 RMK CI2 DA-662FT SLP188
CYCY 201135Z AUTO 05012KT 9SM -RA FEW008 SCT016 BKN030 OVC037 03/02 A2934 RMK SLP937
CYDB 201100Z AUTO 12016G26KT 9SM OVC120 09/02 A2952 RMK SLP014 DENSITY ALT 3000FT
CYDF 201100Z 20007KT 15SM FEW220 09/06 A3000 RMK CI1 SLP161
CYDL 201100Z AUTO VRB02KT 9SM SCT047 OVC055 04/04 A2990 RMK SLP136
CYDN 201158Z AUTO 28007G16KT 270V060 6SM -RA VCTS BR SCT016 SCT060 OVC110 14/14 A2983 RMK LTNG DIST ALQDS PRESRR SLP106 DENSITY ALT 1200FT
CYDP 201109Z 30026G34KT 15SM -SHRA BKN024 OVC100 15/11 A2949 RMK SC7AC1 PRESRR SLP989 DENSITY ALT 500FT
CYDQ 201124Z AUTO 28003KT 220V330 9SM OVC055 09/08 A2984 RMK SLP117
CYED 201153Z AUTO 26005KT 9SM CLR 10/08 A2975
CYEG 201100Z 26006KT 20SM OVC170 09/08 A2977 RMK AS8 SLP088 DENSITY ALT 2500FT
CYEK 201100Z AUTO 14006KT 9SM OVC042 05/05 A2992 RMK SLP135
CYEN 201100Z AUTO 12009G15KT 9SM OVC150 14/13 A2971 RMK LTNG DIST NW SLP065 DENSITY ALT 2400FT
CYER 201100Z AUTO 21003KT 1/2SM FG VV001 02/02 A3009 RMK SLP193
CYET 201100Z AUTO 26004KT 240V310 9SM -RA OVC050 08/08 A2982 RMK SLP110
CYEV 201151Z 06005KT 10SM FEW004 02/02 A2973 RMK ST2 VIS N-NE 2 SLP073
CYFB 201100Z 22008KT 30SM FEW018 BKN031 BKN052 05/01 A2917 RMK SC1SC6SC1 SC TR SLP882
CYFC 201100Z AUTO 22006KT 9SM CLR 05/05 A3008 RMK SLP188
CYFO 201124Z 09006KT 050V120 15SM -TSRA SCT045 OVC100 13/11 A2973 RMK SC4AC4 CB SW LTNG SW PRESFR SLP075 DENSITY ALT 1200FT
CYFS 201100Z 31004KT 15SM BKN025 BKN070 09/07 A2972 RMK SC5AC2 SLP073
CYFT 201100Z 23014KT 15SM SCT040 BKN090 17/13 A2957 RMK SC3AC2 SLP015 DENSITY ALT 1000FT
CYGK 201100Z 00000KT 15SM SCT190 BKN250 10/10 A3021 RMK AC4CI2 SLP234
CYGL 201105Z 26004KT 3/8SM FG BKN003 02/01 A3014 RMK FG4SF3 SLP219
CYGP 201100Z 26003KT 15SM SCT100 BKN140 12/10 A2996 RMK AC3AC3 SLP147
CYGQ 201118Z VRB02KT 10SM BKN008 OVC015 12/11 A3019 RMK SF7SC1 SLGT BR SLP232
CYGR 201100Z 20008KT 20SM FEW270 12/10 A3003 RMK CI1 SLP169
CYGT 201100Z 01019KT 15SM FEW023 OVC130 02/00 A2940 RMK SC1AC7 SLP960
CYGV 201100Z AUTO 23003KT 200V270 7SM FEW250 07/07 A2990 RMK SLP127
CYGW 201109Z AUTO 25009G15KT 1 1/2SM BR BKN005 OVC012 06/05 A3011 RMK SLP198
CYGX 201100Z 17005KT 15SM BKN029 08/06 A3000 RMK SC5 SLP165
CYHD 201100Z AUTO 08005KT 9SM FEW130 12/12 A3010 RMK SLP203
CYHE 201100Z AUTO 25005KT 9SM OVC018 14/12 A3004 RMK SLP173
CYHK 201148Z AUTO 31010KT 9SM SCT013 00/M00 A2978 RMK SLP091
CYHM 201100Z 18004KT 15SM FEW160 SCT250 13/12 A3020 RMK AC1CI2 CONTRAILS SLP228
CYHU 201100Z AUTO 21004KT 9SM OVC150 11/09 A3020 RMK SLP228
CYHY 201100Z 32012G19KT 15SM SCT017 BKN042 BKN080 11/09 A2960 RMK SC3SC2AC2 SLP032 DENSITY ALT 600FT
CYHZ 201100Z 33004KT 15SM VCFG FEW120 BKN300 08/05 A3008 RMK AC1CI5 FG BANK OVR LK SLP190
CYIN 201100Z AUTO 30006KT 9SM SCT048 OVC070 08/06 A3001 RMK SLP168
CYIO 201100Z AUTO 08016G22KT 9SM CLR 02/M05 A2957 RMK SLP019
CYJT 201100Z 03003KT 15SM FEW220 07/06 A3004 RMK CI2 SLP176
CYKA 201141Z 00000KT 25SM FEW010 BKN120 13/11 A2998 RMK SF1AC6 SLP159
CYKF 201153Z AUTO 00000KT 3SM BR CLR 10/10 A3020 RMK SLP232
CYKJ 201100Z AUTO 17004KT 9SM OVC120 09/07 A2972 RMK SLP077
CYKL 201152Z AUTO 35013G24KT 9SM SCT015 SCT019 09/07 A2981 RMK SLP106
CYKP 201100Z AUTO 00000KT 9SM OVC025 10/09 A3019 RMK SLP226
CYKY 201100Z VRB02KT 0SM FG SKC 06/06 A2980 RMK FG7 SLP102
CYLC 201150Z 27020G28KT 3SM -RA BR OVC010 03/03 A2929 RMK FG3ST5 SLP922
CYLD 201100Z 21002KT 1/8SM FG VV002 15/15 A3016 RMK FG8 SLP222 DENSITY ALT 1600FT
CYLH 201100Z AUTO VRB02KT 9SM OVC028 08/08 A3019 RMK SLP233
CYLL 201140Z AUTO 21008KT 6SM BR FEW001 BKN220 07/07 A2974 RMK SLP085
CYLT 201140Z 29005KT 7SM FEW004 OVC017 M11/M12 A2998 RMK ST2SC6 FZFG OVR DIST WTR SLP156
CYLW 201100Z AUTO VRB02KT 9SM BKN085 11/11 A2996 RMK SLP150
CYMA 201100Z 03005KT 15SM FEW071 05/04 A2969 RMK AC2 SLP074
CYMH 201100Z AUTO 23011KT 9SM CLR 13/08 A2974 RMK SLP071
CYMM 201100Z AUTO 14004KT 9SM SCT043 BKN060 OVC072 10/09 A2963 RMK SLP041
CYMO 201100Z AUTO 35003KT 9SM OVC075 09/08 A3019 RMK SLP227
CYMT 201100Z AUTO 27007KT 9SM OVC012 16/14 A3006 RMK SLP183 DENSITY ALT 1500FT
CYMX 201100Z 24003KT 200V280 45SM SCT150 BKN250 11/10 A3019 RMK AC3CI3 SLP227
CYNA 201100Z AUTO 24010KT 9SM CLR 11/09 A2989 RMK SLP123
CYND 201100Z 00000KT 15SM FEW120 SCT240 09/09 A3020 RMK AC2CI2 SLP229
CYNE 201100Z AUTO 15005KT 9SM CLR 09/09 A2994 RMK SLP147
CYNM 201154Z AUTO 34006KT 9SM SCT003 OVC015 10/10 A3016 RMK SLP221
CYOD 201131Z 20003KT 3/4SM R31R/1600FT/U BR SCT060 BKN100 BKN220 06/06 A2971 RMK FG1SC2AC2CI2 VIS 1/2 NW QUAD SLP072
CYOJ 201100Z AUTO 31005KT 9SM CLR 08/06 A2964 RMK SLP049
CYOO 201100Z AUTO 36002KT 9SM OVC210 11/11 A3020 RMK SLP229
CYOW 201100Z 18006KT 15SM FEW150 BKN250 10/09 A3021 RMK AC2CI4 SLP232
CYOY 201100Z AUTO 00000KT 9SM CLR 07/07 A3015 RMK SLP215
CYPA 201135Z 34004KT 330V030 12SM OVC008 11/11 A2971 RMK SC8 SLP072 DENSITY ALT 1600FT
CYPD 201100Z AUTO 35004KT 9SM CLR 06/06 A3006 RMK SLP185
CYPE 201100Z 29005KT 15SM SCT110 08/06 A2974 RMK AC4 SLP085
CYPG 201100Z CCA 09010G15KT 15SM OVC140 14/14 A2982 RMK AC8 FRQ DIST LTNG SW QUAD PRESFR FST OBS SLP100
CYPH 201151Z AUTO 29017G25KT 9SM SCT014 SCT019 BKN025 OVC030 06/04 A2992 RMK SLP136
CYPL 201146Z AUTO 14006KT 6SM BR CLR 08/08 A3016 RMK SLP224
CYPO 201100Z AUTO 23005KT 9SM CLR 08/07 A3011 RMK SLP198
CYPQ 201100Z AUTO 00000KT 9SM OVC200 09/09 A3021 RMK SLP235
CYPR 201100Z AUTO 07005KT 9SM OVC040 12/11 A3004 RMK SLP174
CYPX 201150Z AUTO 27022G29KT 9SM FEW022 SCT027 BKN035 BKN050 06/04 A2977 RMK SLP083
CYPY 201100Z AUTO VRB02KT 9SM 12/11 A2958 RMK CLD MISG PCPN MISG SLP025 DENSITY ALT 900FT
CYQA 201100Z AUTO 13002KT 9SM BKN190 11/10 A3020 RMK SLP229
CYQB 201100Z 22008KT 15SM FEW050 SCT140 BKN220 11/09 A3016 RMK SC1AC2CI4 SLP215
CYQD 201100Z AUTO 12013G20KT 9SM SCT100 14/11 A2975 RMK PRESFR SLP081 DENSITY ALT 1100FT
CYQF 201100Z 27005KT 15SM SCT120 07/07 A2980 RMK AC4 SLP106
CYQG 201100Z AUTO 15003KT 9SM BKN220 15/15 A3015 RMK SLP211
CYQH 201100Z 06004KT 15SM FEW058 02/01 A2983 RMK SC1 SLP121
CYQI 201100Z 31005KT 10SM BKN250 10/10 A3012 RMK CC7 SLP202
CYQK 201100Z 12009KT 20SM SCT140 13/12 A3005 RMK AC3 SLP181
CYQL 201100Z AUTO 23009KT 9SM CLR 07/04 A2982 RMK SLP107
CYQM 201100Z 24004KT 15SM FEW040 BKN240 07/06 A3005 RMK SC1CI6 SC TR SLP180
CYQQ 201100Z 28002KT 20SM SCT030 12/11 A3006 RMK SC4 SLP179
CYQR 201100Z 18009KT 15SM FEW180 SCT260 14/13 A2972 RMK AC1CI2 SLP071 DENSITY ALT 2500FT
CYQT 201100Z 26002KT 8SM R07/2200FT/N PRFG FEW002 SCT048 11/11 A3013 RMK ST2SC2 FG BANK SW-W VIS 1/2 SLP209
CYQU 201100Z 31010KT 25SM SCT062 BKN100 10/07 A2981 RMK SC4AC3 SLP105 DENSITY ALT 2300FT
CYQV 201100Z AUTO 16005KT 120V200 9SM BKN160 OVC180 16/15 A2972 RMK SLP068 DENSITY ALT 2300FT
CYQW 201126Z AUTO 22006KT 2SM BR BKN011 10/10 A2977 RMK SLP095
CYQX 201100Z 25012KT 20SM FEW260 11/02 A2997 RMK CI1 SLP153
CYQY 201100Z 23004KT 15SM BKN250 07/06 A3006 RMK CI5 SLP182
CYQZ 201133Z AUTO 17004KT 120V190 1/4SM FG VV002 09/09 A2999 RMK SLP168
CYRB 201100Z 01023KT 12SM BKN010 M03/M06 A2984 RMK ST7 SLP114
CYRJ 201100Z 25011G16KT 40SM FEW043 BKN070 16/11 A3006 RMK SC1AC4 SLP182 DENSITY ALT 800FT
CYRL 201100Z 12006KT 15SM SKC 10/10 A3008 RMK BCFG OVR RWY E VIS LWR E SLP193
CYRQ 201100Z AUTO 19004KT 9SM FEW130 11/10 A3016 RMK SLP216
CYRT 201100Z 29009KT 15SM OVC018 04/01 A2990 RMK SC8 SLP128
CYRV 201100Z AUTO 25003KT 8SM BKN003 BKN015 OVC055 11/11 A2995 RMK SLP146
CYSB 201100Z 17005KT 20SM BKN170 OVC240 13/13 A3016 RMK AC5CI3 SLP219
CYSC 201100Z AUTO 08002KT 9SM OVC180 05/05 A3022 RMK SLP242
CYSF 201100Z AUTO 06005KT 9SM CLR 09/06 A2965 RMK SLP048
CYSJ 201100Z VRB02KT 15SM BCFG BKN270 05/05 A3009 RMK CI5 VIS NW 3/4 SLP196
CYSM 201100Z 17003KT 15SM FEW066 BKN090 BKN160 BKN240 09/08 A2954 RMK AC2AC3AC1CI1 SLP011
CYSN 201100Z 19004KT 15SM BKN250 14/14 A3019 RMK CI6 SLP226
CYTE 201100Z 29034G44KT 15SM -RA BKN014 OVC075 03/02 A2908 RMK SC6AC2 R0.6 AFT 01UTC/SNW CVR/NIL SLP852
CYTH 201100Z VRB02KT 15SM FEW090 SCT170 SCT210 10/08 A2994 RMK AC2AC2CI1 CI TR SLP148
CYTL 201153Z AUTO 20004KT 2SM BR CLR 04/04 A3013 RMK VIS VRB 5/8-3 SLP213
CYTR 201100Z 02002KT 15SM BKN180 OVC250 10/10 A3021 RMK AC6CI2 SLP232
CYTS 201134Z 01002KT 15SM SCT004 OVC014 16/16 A3016 RMK SC3SC5 SLP217 DENSITY ALT 1100FT
CYTZ 201100Z AUTO 09003KT 8SM CLR 15/14 A3019 RMK SLP224
CYUA 201100Z AUTO 21004KT ////SM BKN046 OVC050 01/01 A2968
CYUL 201100Z 24006KT 30SM FEW150 SCT180 SCT210 BKN250 14/11 A3020 RMK AC2AC1CI1CI3 SLP228
CYUS 201148Z AUTO 33012G19KT 300V050 ////SM //// BKN010 OVC015 01/00 A2976
CYUX 201100Z AUTO 35022KT 9SM FEW012 BKN110 03/01 A2936 RMK SLP945
CYUY 201100Z 20002KT 15SM FEW015 BKN057 BKN240 14/11 A3015 RMK SC2SC3CI2 SLP215
CYVC 201100Z 14003KT 070V150 15SM -SHRA OVC008 12/12 A2972 RMK SC8 CVCTV CLD EMBD CIG RAG SLP074 DENSITY ALT 1500FT
CYVL 201100Z AUTO 32004KT 9SM OVC024 06/03 A2971 RMK SLP077
CYVM 201147Z AUTO 00000KT 9SM -RA OVC011 03/03 A2907 RMK SLP845
CYVO 201100Z 21004KT 15SM BKN017 OVC045 16/12 A3015 RMK SC7SC1 SLP215 DENSITY ALT 1300FT
CYVP 201100Z 27010G20KT 15SM BKN022 07/03 A2977 RMK SC7 SLP085
CYVQ 201100Z 11004KT 050V130 30SM SCT057 04/03 A2976 RMK SC3 SLP084
CYVR 201145Z 13003KT 15SM BKN004 OVC018 13/13 A3005 RMK SF6SC2 SLP176
CYVV 201100Z 15003KT 15SM BKN080 13/12 A3017 RMK AC7 SLP218
CYWA 201100Z AUTO 00000KT 9SM CLR 12/10 A3019 RMK SLP227
CYWE 201157Z AUTO 28008KT 6SM -RA BR OVC002 08/08 A2948 RMK SLP000
CYWG 201100Z 14013KT 15SM BKN150 17/14 A2989 RMK AC6 SLP125 DENSITY ALT 1200FT
CYWK 201100Z 27005KT 10SM -DZ BKN014 OVC023 15/13 A2981 RMK ST5SC3 SLP100 DENSITY ALT 2400FT
CYWL 201100Z 21003KT 15SM FEW060 BKN120 BKN230 08/06 A3000 RMK SC2AC3CI2 SLP175
CYXC 201100Z 00000KT 25SM SCT082 SCT150 BKN200 07/06 A2992 RMK AC3AC1CI2 SLP138
CYXE 201100Z 30006KT 15SM FEW005 BKN030 11/10 A2974 RMK SF2SC5 SLP078 DENSITY ALT 1800FT
CYXH 201100Z AUTO 20009KT 9SM CLR 07/07 A2979 RMK SLP098
CYXJ 201100Z 26003KT 15SM SCT055 BKN080 09/07 A2983 RMK SC4AC1 SLP114
CYXL 201127Z 13005KT 090V170 10SM SCT002 11/11 A3013 RMK SF3 SLP212
CYXP 201148Z 25014KT 4SM -RA BR FEW012 BKN023 OVC032 04/03 A2906 RMK SF2SC4SC2 SLP842
CYXR 201100Z AUTO 14002KT 9SM FEW030 SCT044 OVC060 15/13 A3015 RMK SLP214
CYXS 201100Z AUTO 18005KT 9SM BKN075 07/05 A2995 RMK SLP157
CYXT 201107Z 17006KT 15SM FEW008 BKN030 BKN050 OVC150 11/10 A3005 RMK FU1SF1SC3SC2AC1 SLP183
CYXU 201100Z 09005KT 15SM FEW048 SCT200 13/12 A3018 RMK SC2CI2 SLP223
CYXX 201100Z 00000KT 15SM SCT010 OVC034 13/13 A3004 RMK SC4SC4 SLP175
CYXY 201100Z 16013KT 15SM OVC140 08/04 A2970 RMK AC8 SLP075 DENSITY ALT 2400FT
CYXZ 201129Z 06004KT 6SM BR SCT009 OVC013 17/17 A3015 RMK SF4SC4 SLP213 DENSITY ALT 1200FT
CYYB 201100Z VRB03KT 30SM SCT180 BKN240 13/ A3018 RMK AC3CI4 SLP226
CYYC 201100Z 32005KT 15SM FEW100 SCT150 09/06 A2983 RMK AC2AC1 SLP114 DENSITY ALT 3900FT
CYYD 201100Z AUTO 00000KT 9SM FEW060 07/06 A3000 RMK SLP168
CYYE 201100Z 00000KT 15SM FEW080 07/04 A2978 RMK AC1 SLP096
CYYF 201100Z 34006KT 15SM SCT070 BKN100 13/11 A2995 RMK AC4AC3 SLP146
CYYG 201100Z 21003KT 15SM BKN280 10/09 A3004 RMK CI5 SLP176
CYYH 201130Z 34007KT 15SM SCT022 OVC040 01/M00 A2973 RMK SC3SC5 SLP071
CYYJ 201100Z 25003KT 2 1/2SM R27/2800FT/N BR BKN002 BKN015 BKN055 12/12 A3004 RMK SF5SC1SC1 SLP175
CYYL 201100Z AUTO 14004KT 9SM -RA FEW070 OVC093 10/09 A2985 RMK SLP119
CYYN 201100Z AUTO 25006KT 1/4SM -RA FG VV002 08/08 A2981 RMK SLP097
CYYQ 201100Z 18009KT 15SM SKC 06/05 A2996 RMK SLP148
CYYR 201100Z 26011KT 15SM FEW075 FEW160 FEW260 18/11 A2969 RMK AC1AC1CI1 SLP056
CYYT 201100Z 24009KT 15SM BKN240 12/07 A3004 RMK CI6 SLP176
CYYU 201100Z 35007KT 5SM BR BKN004 OVC035 12/12 A3018 RMK SF5SC3 SLP224
CYYW 201100Z AUTO 00000KT 9SM OVC025 13/11 A3018 RMK SLP218
CYYY 201100Z 22009KT 30SM SCT100 17/11 A3001 RMK AC3 SLP164 DENSITY ALT 400FT
CYYZ 201100Z 08008KT 10SM FEW180 SCT240 14/13 A3019 RMK AC1CI2 SLP227
CYZE 201100Z AUTO 15003KT 120V200 9SM OVC140 16/16 A3013 RMK SLP205
CYZF 201112Z 30009G16KT 10SM -RA BR OVC005 08/08 A2954 RMK ST8 CIG RAG SLP012
CYZH 201100Z AUTO 25008KT 9SM FEW055 BKN120 12/08 A2969 RMK SLP062 DENSITY ALT 2200FT
CYZP 201100Z AUTO 15004KT 9SM OVC060 13/12 A3003 RMK SLP170
CYZR 201100Z AUTO 17004KT 9SM FEW060 SCT220 16/15 A3015 RMK RVR MISG SLP210 DENSITY ALT 600FT
CYZS 200900Z 31026G36KT 15SM BKN015 02/00 A2948 RMK SC5 SLP990
CYZT 201148Z 26003KT 240V340 1/2SM FG VV002 10/10 A3008 RMK FG8 SLP188
CYZV 201100Z 00000KT 30SM BKN110 BKN180 BKN250 09/08 A2992 RMK AC5AC1CI1 AC TR SLP134
CYZX 201100Z 28002KT 15SM BKN250 04/03 A3011 RMK CI6 SLP198
CYZY 201100Z AUTO 17002KT 9SM CLR 04/03 A2990 RMK SLP145
CZBF 201100Z AUTO 00000KT 9SM OVC140 09/08 A3003 RMK SLP172
CZCP 201100Z AUTO 11008KT ////SM //// OVC039 03/03 A2971
CZCR 201100Z AUTO 27005KT 12/09 RMK AO1 SLP166 T01170094
CZDB 201100Z AUTO 07001KT 03/02 RMK AO1 SLP191 T00310022 56006
CZEL 201100Z AUTO 07003KT 10/09 RMK AO1 SLP242 T00990094 53005
CZEV 201100Z AUTO 09004KT 01/01 RMK AO1 SLP076 T00100008 51001
CZFS 201100Z AUTO 30003KT 09/07 RMK AO1 SLP074 T00900069 51022
CZHY 201100Z AUTO 31013G18KT 11/09 RMK AO1 PK WND 31018/1051 SLP026 T01110089 51026
CZMD 201100Z AUTO 15003KT 090V160 9SM CLR 04/04 A3011 RMK SLP208
CZMJ 201100Z AUTO 29011KT 12/11 RMK AO1 PK WND 29021/1005 SLP075 T01230108 51012
CZMU 201100Z AUTO 25005KT 10/10 RMK AO1 T00980097
CZOL 201100Z AUTO 26004KT 11/10 RMK AO1 T01080096
CZPC 201100Z AUTO 27014G19KT 9SM CLR 08/04 A2986 RMK SLP113 DENSITY ALT 4000FT
CZPS 201100Z AUTO 29007KT 09/08 RMK AO1 T00930080
CZRP 201100Z AUTO 31008KT M07/M07 RMK AO1 SLP162 T10671071 50004
CZSJ 201100Z AUTO 11004KT 7SM CLR 08/08 A3007 RMK SLP194
CZSM 201100Z AUTO 19002KT 10/08 RMK AO1 SLP009 T00970081 50000
CZSP 201100Z AUTO 20005KT 09/08 RMK AO1 2PAST HR 8005 SLP179 P0001 T00880078 50002
CZTB 201100Z AUTO 22002KT 11/11 RMK AO1 SLP209 T01100108 51009
CZUM 201100Z AUTO 24004KT 180V280 9SM OVC023 15/11 A2973 RMK SLP072 DENSITY ALT 2000FT
CZVL 201100Z AUTO 24005KT 9SM OVC150 11/08 A2975 RMK SLP079 DENSITY ALT 2400FT
CZZJ 201100Z AUTO 26002KT 08/07 RMK AO1 SOG 03 3007 SLP114 T00830066
DAAD 201100Z 04006KT 8000 BKN026 SCT080 28/17 Q1018
DAAE 201100Z 06004KT 8000 SCT016 BKN090 28/23 Q1017
DAAG 201130Z 08011KT 7000 FEW026 BKN200 29/23 Q1015
DAAJ 201100Z 11010KT CAVOK 34/02 Q1022
DAAP 201100Z 13008KT CAVOK 38/09 Q1018
DAAS 201100Z 26006KT 9999 FEW030 SCT100 27/08 Q1022
DAAT 201130Z 09011KT 040V120 CAVOK 32/M04 Q1024
DAAV 201100Z 33008KT 7000 SCT020 BKN200 28/24 Q1016
DAAY 201100Z 19024KT 8000 SCT033 SCT100 30/04 Q1023
DABB 201130Z 02009KT 9999 FEW020 SCT030 27/22 Q1016
DABC 201130Z 33010KT 9999 SCT030 BKN200 26/18 Q1020
DABS 201100Z 16004KT 9999 FEW040TCU SCT100 30/08 Q1020
DABT 201100Z 26003KT 9999 BKN033 SCT100 31/06 Q1019
DAFH 201100Z 23010KT CAVOK 34/07 Q1021
DAOB 201100Z 19016KT 8000 FEW030 SCT220 32/06 Q1019
DAOF 201100Z 35004KT CAVOK 38/04 Q1014
DAOI 201100Z 08012KT 8000 SCT030 SCT233 30/18 Q1013
DAOL 201100Z 21006KT 6000 FEW030 SCT080 28/20 Q1014
DAON 201130Z 32005KT 6000 SCT010 26/20 Q1015
DAOO 201130Z 33006KT 9000 SCT023 SCT230 27/21 Q1014
DAOR 201100Z 16004KT 8000 FEW033 35/M03 Q1018
DAOV 201100Z 17002KT 8000 FEW026 FEW030CB BKN233 32/19 Q1016
DAOY 201100Z 17014KT 9999 FEW026CB BKN030 28/02 Q1023
DATM 201100Z 11010KT CAVOK 40/// Q1014
DAUA 201100Z 17014KT CAVOK 40/// Q1013
DAUB 201100Z 14005KT 9999 SCT040 BKN200 36/11 Q1016
DAUE 201100Z 13010KT CAVOK 37/// Q1016
DAUG 201100Z 20012KT 170V230 CAVOK 37/03 Q1019
DAUH 201130Z 16010KT CAVOK 41/12 Q1015
DAUI 201100Z 20006KT CAVOK 40/// Q1014
DAUK 201100Z 29005KT 9999 SCT040 38/10 Q1016
DAUL 201100Z 24012KT 9999 FEW033TCU SCT200 33/04 Q1020
DAUO 201100Z 25003KT 9999 SCT040 36/11 Q1016
DAUT 201100Z 25005KT CAVOK 39/// Q1014
DAUU 201100Z 19014KT CAVOK 41/07 Q1015
DAUZ 201100Z VRB02KT CAVOK 36/03 Q1019
DBBB 201100Z 16007KT 130V210 9999 SCT010 29/25 Q1013 NOSIG
DFFD 201100Z 17004KT 080V210 9999 FEW020 30/21 Q1014 NOSIG
DFOO 201100Z 08010KT 9999 SCT016 29/23 Q1016
DGAA 201100Z 19011KT 9999 SCT015 BKN024 BKN038 28/24 Q1014 NOSIG
DGLE 201100Z 23003KT 9999 SCT015 31/25 Q1013 NOSIG
DGSI 201100Z 23002KT 9999 SCT011 BKN017 26/23 Q1015 NOSIG
DGTK 201100Z 23004KT 9999 SCT011 BKN100 28/25 Q1014 NOSIG
DIAP 201130Z 25009KT 8000 -DZ FEW010 OVC030 24/24 Q1014 TEMPO 4000 DZ
DIBK 201100Z 14004KT 9999 BKN010 24/24 Q1017 RE-RA NSW
DIYO 201100Z 20004KT 9999 OVC011 26/24 Q1015 NOSIG
DNAA 201100Z 17005KT 140V200 9999 FEW010 29/21 Q1015 NOSIG
DNAK 201100Z 00000KT 9999 SCT010 26/22 Q1016
DNEN 200800Z VRB02KT 8000 BKN009 25/23 Q1015 NOSIG
DNIB 201100Z 20005KT 9999 SCT012 28/22 Q1013
DNIL 201100Z 15009KT 9999 SCT013 29/22 Q1014
DNJO 201100Z 14008KT 9999 FEW005 27/16 Q1020
DNKN 201100Z 27006KT 9999 CAVOK 30/21 Q1017 NOSIG
DNMM 201100Z VRB02KT 7000 BKN013 FEW020CB 30/25 Q1014 NOSIG
DNMN 201100Z 09004KT 9999 SCT011 29/23 Q1014
DNPO 201000Z 24003KT 9999 BKN009 26/24 Q1014
DRRM 201100Z 26004KT CAVOK 30/24 Q1015
DRRN 201100Z 11004KT 060V180 CAVOK 33/19 Q1013 NOSIG
DRRT 201100Z 24004KT CAVOK 33/19 Q1015
DRZA 201100Z 26006KT CAVOK 37/10 Q1016
DRZR 201100Z 32008KT CAVOK 34/20 Q1014
DTKA 201100Z VRB02KT 9999 FEW020 FEW023CB 31/20 Q1 1H5SDJNU9?'
DTMB 201130Z 01010KT 8000 FEW030 29/26 Q1017
DTNH 201130Z 05012KT CAVOK 28/23 Q1017
DTTA 201130Z 05008KT 360V090 9999 SCT020TCU SCT040 29/20 Q1017
DTTB 201100Z 05014KT 8000 SCT016TCU SCT030 26/21 Q1017
DTTD 201100Z 27006KT 210V330 CAVOK 39/07 Q1018 RMK SIROCCO
DTTF 201100Z 26004KT 200V310 8000 FEW033 33/15 Q1015 NOSIG
DTTG 201100Z VRB03KT 8000 FEW020 SCT030 33/22 Q1016 NOSIG
DTTJ 201100Z 09008KT CAVOK 34/20 Q1016 NOSIG
DTTK 201100Z 00000KT 8000 SCT023 31/22 Q1017
DTTL 201100Z 03003KT 9999 SCT020 SCT030 27/23 Q1017
DTTN 201000Z 05004KT 330V110 9999 SCT020 28/20 Q1016
DTTR 201100Z 18012KT CAVOK 39/10 Q1018
DTTX 201100Z 14008KT 110V170 9999 SCT020 32/20 Q1016
DTTZ 201100Z 11009KT 080V140 8000 FEW030 35/16 Q1016 NOSIG
DXNG 201100Z 13007KT 100V160 9999 SCT007 27/21 Q1017
DXSK 200900Z 14006KT 9999 BKN013 25/24 Q////
DXXX 201100Z 18007KT 140V200 8000 SCT013 SCT030 28/25 Q1014 NOSIG
EBAW 201150Z 08008KT 060V120 CAVOK 19/03 Q1027 NOSIG
EBBE 201125Z 08009KT 9999 SCT250 18/04 Q1027 BLU BLU
EBBL 201125Z 07009KT 9999 BKN300 19/04 Q1028 BLU BLU
EBBR 201150Z 08008KT 040V120 CAVOK 18/02 Q1027 NOSIG
EBCI 201150Z 08009KT 030V120 CAVOK 19/00 Q1026 NOSIG
EBCV 201149Z AUTO 08009KT 9999 NCD 19/02 Q1026 BLU
EBDT 201125Z AUTO 09007KT 9999 NCD 18/03 Q1028 BLU
EBFN 201125Z 09010KT 9999 SCT250 19/03 Q1027 BLU BLU
EBFS 201125Z 08009KT 9999 SCT240 17/00 Q1027 BLU BLU
EBLB 201125Z AUTO 11006KT 9999 NCD 15/00 Q1028 BLU
EBLG 201150Z 07006KT 020V110 CAVOK 18/04 Q1027 NOSIG
EBOS 201150Z 09010KT 060V130 CAVOK 19/04 Q1027 NOSIG
EDAC 201120Z 35004KT 250V060 9999 FEW035 14/05 Q1029
EDAH 201150Z 26011KT 9999 BKN020 14/10 Q1026
EDDB 201150Z 28009KT 9999 FEW032 14/05 Q1028 NOSIG
EDDC 201150Z 30010KT 220V350 9999 FEW040 14/04 Q1029 NOSIG
EDDE 201150Z VRB04KT CAVOK 15/M00 Q1029 NOSIG
EDDF 201150Z 10007KT 060V150 CAVOK 17/02 Q1028 NOSIG
EDDG 201150Z VRB03KT CAVOK 17/03 Q1029 NOSIG
EDDH 201150Z 27008KT 220V300 9999 SCT023 BKN045 16/10 Q1028 NOSIG
EDDK 201150Z 11005KT 040V170 CAVOK 18/03 Q1028 NOSIG
EDDL 201150Z 13005KT 080V230 CAVOK 19/04 Q1028 NOSIG
EDDM 201150Z 08008KT 030V110 CAVOK 15/02 Q1027 NOSIG
EDDN 201150Z VRB05KT CAVOK 17/02 Q1028 NOSIG
EDDP 201150Z 31005KT 270V350 9999 FEW045 16/03 Q1029 NOSIG
EDDR 201150Z 07010KT 030V100 CAVOK 17/01 Q1026 NOSIG
EDDS 201150Z 09008KT 060V150 CAVOK 16/02 Q1027 NOSIG
EDDT 201150Z 28008KT 240V360 9999 FEW028 14/07 Q1028 NOSIG
EDDV 201150Z 31004KT 220V350 9999 FEW042 17/06 Q1029 NOSIG
EDDW 201150Z 35005KT 300V050 9999 SCT030 16/08 Q1029 NOSIG
EDFH 201150Z 09007KT 030V160 CAVOK 15/01 Q1028
EDFM 201150Z 08006KT 040V150 CAVOK 19/03 Q1027
EDGS 201150Z 14006KT 070V200 CAVOK 14/02 Q1028
EDHI 201150Z 27005KT 240V300 9999 FEW026 BKN048 16/10 Q1028
EDHK 201150Z 28013KT 9999 FEW023 SCT046 17/11 Q1026
EDHL 201150Z 25011KT 9999 SCT021 BKN049 16/11 Q1027
EDLN 201150Z 14006KT CAVOK 18/03 Q1028
EDLP 201150Z VRB04KT CAVOK 16/04 Q1029
EDLV 201150Z 12005KT 020V180 CAVOK 18/06 Q1028
EDLW 201150Z 36004KT 290V080 CAVOK 17/05 Q1028
EDMA 201150Z 09007KT 060V120 CAVOK 15/03 Q1027
EDMO 201150Z 03008KT 360V060 CAVOK 14/04 Q1027
EDNY 201150Z 02010KT CAVOK 17/04 Q1025
EDQM 201150Z 01006KT 300V070 CAVOK 14/03 Q1028
EDSB 201150Z 02012KT 350V050 CAVOK 19/04 Q1026
EDTL 201150Z 36005KT 270V070 CAVOK 19/05 Q1025
EDTY 201150Z 09007KT 050V150 CAVOK 16/01 Q1028
EDVE 201120Z 28005KT 240V320 9999 OVC048 14/07 Q1029
EDVK 201150Z VRB02KT CAVOK 15/M00 Q1029
EDXW 201150Z 28012KT 9999 SCT028 17/13 Q1027
EEEI 201150Z 18005KT 150V210 9999 VCSH FEW040 FEW050TCU 10/05 Q1017 NOSIG
EEKA 201150Z VRB02KT 9999 SCT040 11/07 Q1018
EEKE 201150Z 29010KT 250V320 9999 VCSH SCT047CB 13/02 Q1019
EEPU 201150Z 24005KT 200V280 CAVOK 10/05 Q1018
EETN 201150Z 20007KT 9999 VCSH SCT030CB SCT036 09/05 Q1017 NOSIG
EETU 201150Z 28009KT 250V330 9999 SCT048 11/M01 Q1017
EFHA 201150Z AUTO 27014KT 9999 SCT040 09/M00 Q1014
EFHK 201150Z 28007KT 240V330 9999 FEW040TCU SCT045 11/01 Q1016 NOSIG
EFIV 201150Z AUTO 31011KT 280V360 9999 FEW033 BKN065 05/M02 Q1007
EFJO 201150Z AUTO 27009KT CAVOK 09/M00 Q1011
EFJY 201150Z AUTO 26008KT 220V290 9999 BKN045 09/M01 Q1013
EFKE 201150Z AUTO 29006KT 240V010 CAVOK 09/M01 Q1011
EFKI 201150Z AUTO 29011KT 270V330 9999 SCT032 08/00 Q1010
EFKK 201150Z AUTO 25007KT 200V310 CAVOK 08/02 Q1013
EFKS 201150Z 31014KT 280V350 9999 SCT036 06/M03 Q1007
EFKT 201150Z AUTO 33006KT 280V010 9999 FEW029 07/M00 Q1009
EFKU 201150Z 30013KT 9999 -SHRA SCT035CB 08/00 Q1012
EFLP 201150Z AUTO 25008KT 220V300 CAVOK 10/M01 Q1013
EFMA 201150Z AUTO 24005KT 160V260 CAVOK 10/04 Q1017
EFMI 201150Z AUTO 28005KT 240V350 9999 SCT044 09/M00 Q1013
EFOU 201150Z AUTO 29012KT CAVOK 09/M00 Q1011
EFPO 201150Z AUTO 26008KT 220V290 9999 SCT036/// 11/02 Q1015
EFRO 201150Z 31010KT 9999 FEW035 08/00 Q1009
EFSA 201150Z AUTO 27007KT 9999 SCT025 SCT068 08/02 Q1012
EFSI 201150Z AUTO 27006KT 200V320 CAVOK 09/01 Q1014
EFTP 201150Z 25008KT 9999 SCT038 BKN200 09/01 Q1015
EFTU 201150Z AUTO 27010KT CAVOK 11/02 Q1016
EFUT 201150Z AUTO 27012KT 250V310 CAVOK 10/M02 Q1014
EFVA 201150Z AUTO 27007KT 240V300 CAVOK 09/00 Q1014
EGAA 201150Z 14012KT 110V170 9999 FEW020 19/12 Q1023
EGAC 201150Z AUTO 14009KT 110V190 9999 NCD 19/13 Q1023
EGAE 201150Z 16009KT 120V200 CAVOK 20/13 Q1021
EGBB 201150Z 12011KT 9999 FEW028 18/11 Q1025
EGBJ 201150Z 11006KT 080V150 CAVOK 21/08 Q1024
EGCC 201150Z 12006KT 050V170 CAVOK 20/12 Q1025 NOSIG
EGCK 201150Z VRB04KT CAVOK 23/11 Q1023
EGCN 201150Z 13007KT 090V180 9999 FEW043 19/12 Q1027
EGDM 201150Z 10012KT CAVOK 20/08 Q1024 NOSIG RMK BLU BLU
EGDR 201150Z 09028G45KT CAVOK 18/10 Q1018 NOSIG RMK BLU BLU
EGDY 201150Z 11017KT CAVOK 20/06 Q1023 NOSIG RMK BLU BLU
EGEC 201150Z 12012KT 9999 FEW015 17/13 Q1023
EGEO 201150Z 27005KT CAVOK 16/12 Q1024
EGFF 201150Z AUTO 10012KT 9999 NCD 18/10 Q1023
EGGD 201150Z AUTO 11012KT 9999 NCD 18/07 Q1024
EGGP 201150Z 12009KT 080V160 CAVOK 20/13 Q1025
EGGW 201150Z AUTO 11010KT 070V150 9999 NCD 19/09 Q1026
EGHC 201150Z 11030KT CAVOK 17/09 Q1018
EGHE 201150Z 10024KT CAVOK 18/11 Q1018
EGHH 201150Z 10016KT CAVOK 20/06 Q1023
EGHI 201150Z 12010KT 070V180 CAVOK 20/06 Q1024
EGHQ 201150Z 11018KT CAVOK 18/09 Q1020
EGJA 201150Z 08021KT CAVOK 19/09 Q1021
EGJB 201150Z 09014KT CAVOK 19/06 Q1020
EGJJ 201150Z 10019KT CAVOK 19/06 Q1020
EGKA 201150Z 11012KT CAVOK 20/08 Q1024
EGKB 201150Z 10011KT 070V140 CAVOK 18/07 Q1026
EGKK 201150Z 10011KT 060V130 CAVOK 20/05 Q1025
EGLC 201150Z AUTO 09013KT 9999 NCD 19/09 Q1026
EGLF 201150Z AUTO 10012KT 080V150 9999 NCD 20/06 Q1025
EGLL 201150Z AUTO 10011KT 9999 NCD 20/07 Q1025 NOSIG
EGMC 201150Z 11010KT 070V150 CAVOK 18/09 Q1026
EGMD 201150Z 07017KT CAVOK 19/09 Q1026
EGNC 201120Z 18005KT 140V250 CAVOK 19/12 Q1025
EGNH 201150Z 15012KT CAVOK 20/12 Q1025
EGNJ 201150Z 16008KT 120V200 9999 FEW031 19/12 Q1027
EGNM 201150Z 16007KT 110V210 CAVOK 19/12 Q1026
EGNO 201150Z 13007KT 100V160 CAVOK 19/12 Q1025
EGNR 201150Z 14010KT CAVOK 19/12 Q1025
EGNS 201150Z 09013KT 060V120 CAVOK 17/14 Q1024 NOSIG
EGNT 201150Z VRB03KT CAVOK 20/13 Q1025
EGNV 201150Z 20011KT CAVOK 19/11 Q1026
EGNX 201150Z 10012KT 9999 FEW022 18/12 Q1026
EGOM 201050Z AUTO 24004KT 9999 NCD 18/12 Q1025
EGOP 201050Z 12015G26KT CAVOK 18/11 Q1023 BLU
EGOS 201150Z 12011KT 9999 FEW030 19/11 Q1024 NOSIG RMK BLU BLU
EGOV 201150Z 21005KT CAVOK 21/11 Q1022 NOSIG RMK BLU BLU
EGOW 201150Z 14009KT CAVOK 19/10 Q1025 RMK BLU
EGPA 201150Z 17005KT CAVOK 17/12 Q1023
EGPB 201150Z 23009KT CAVOK 14/11 Q1023 NOSIG
EGPC 201150Z 17008KT CAVOK 14/10 Q1023
EGPD 201150Z AUTO 12005KT 9999 NCD 20/13 Q1024 NOSIG
EGPE 201150Z VRB02KT CAVOK 17/11 Q1023
EGPF 201150Z AUTO VRB02KT 9999 NCD 17/13 Q1025
EGPH 201150Z VRB02KT CAVOK 19/12 Q1025
EGPI 201150Z 13015KT 080V150 9999 FEW007 17/14 Q1023
EGPK 201150Z 12005KT 090V160 CAVOK 21/13 Q1024
EGPL 201150Z 15015KT 9999 FEW020 17/12 Q1021
EGPM 201150Z 24017KT CAVOK 16/11 Q1023 NOSIG
EGPN 201150Z 00000KT CAVOK 16/11 Q1025
EGPO 201150Z 18012KT CAVOK 17/12 Q1021
EGPU 201050Z 14014KT CAVOK 16/13 Q1023
EGQA 200950Z 00000KT CAVOK 11/// Q1025 RMK BLU
EGQK 201050Z AUTO 34005KT 9999 NCD 16/10 Q1023
EGQL 201150Z 12006KT CAVOK 16/10 Q1024 RMK BLU
EGQS 201150Z 03004KT CAVOK 17/10 Q1023 NOSIG RMK BLU BLU
EGSC 201150Z 12007KT 050V160 9999 FEW027 19/11 Q1027
EGSH 201150Z 12007KT 090V160 9999 BKN024 17/12 Q1028 NOSIG
EGSS 201150Z AUTO 11013KT 9999 NCD 19/10 Q1027
EGTC 201150Z 10010KT CAVOK 20/11 Q1026
EGTE 201150Z 10021KT 9999 FEW025 18/09 Q1022
EGTK 201150Z 11011KT CAVOK 20/08 Q1025
EGUB 201150Z 12013KT CAVOK 21/07 Q1025 NOSIG RMK BLU BLU
EGUL 201156Z AUTO 11009KT 9999 BKN029 19/14 A3031 RMK AO2 CIG 028 RWY06 SLP267 60000 T01860137 10186 20053 57017 $
EGUN 201156Z 12013G16KT 9999 SCT028 20/12 A3031 RMK AO2A SLP267 T01960116 10196 20061 57017 $
EGUW 201150Z 11011KT 9999 SCT025 17/10 Q1027 NOSIG RMK BLU BLU
EGVA 201156Z AUTO 11011KT 9999 CLR 20/07 A3025 RMK AO2 SLP246 T02000074 10200 20086 57021 $
EGVN 201150Z 13011KT CAVOK 20/07 Q1024 NOSIG RMK BLU BLU
EGVO 201150Z 08011KT CAVOK 19/07 Q1024 NOSIG RMK BLU BLU
EGVP 201150Z 11014KT CAVOK 19/06 Q1024 NOSIG RMK BLU BLU
EGWU 201150Z 10012KT CAVOK 20/08 Q1025 NOSIG RMK BLU BLU
EGXC 201150Z 15007KT 9999 FEW022 BKN025 18/12 Q1027 NOSIG RMK BLU BLU
EGXE 201122Z 16008KT CAVOK 19/12 Q1026 NOSIG RMK BLU BLU
EGXP 201050Z 16008KT CAVOK 18/12 Q1027 RMK BLU
EGXS 201050Z 12010KT 9999 FEW025 BKN250 17/13 Q1027 BLU
EGXT 201150Z 12009KT 9999 BKN024 18/12 Q1026 RMK WHT
EGXU 201150Z 17008KT CAVOK 20/11 Q1026 RMK BLU
EGXV 201150Z AUTO 18006KT 9999 NCD 20/11 Q1026
EGXW 201150Z 16010KT 9999 BKN024 18/13 Q1027 BECMG FEW025 RMK WHT BECMG BLU
EGXZ 201050Z AUTO 16006KT 9999 NCD 18/13 Q1027
EGYD 201150Z 13011KT 9999 BKN022 17/12 Q1027 BECMG FEW025 RMK WHT BECMG BLU
EGYE 201050Z 15011KT 9999 SCT018 SCT250 ///// Q1027 RMK WHT
EGYH 200950Z 16008KT 9999 SCT035 18/13 Q1028 RMK BLU
EGYM 201150Z 12009KT 9999 BKN024 18/11 Q1027 BECMG SCT030 RMK WHT BECMG BLU
EGYP 201150Z 31013KT 9999 -RA FEW015 SCT018 BKN035 02/01 Q0983
EHAK 201155Z AUTO 22008KT 9999 SCT008/// 16/13 Q1027 W///H///
EHAM 201155Z 10007KT 070V130 CAVOK 18/08 Q1028 NOSIG
EHBK 201155Z AUTO 09009KT 050V130 9999 NCD 19/04 Q1027 NOSIG
EHDL 201155Z AUTO VRB03KT 9999 BKN340 18/07 Q1028 BLU
EHDV 201155Z AUTO 25014KT 160V300 9999 NSC 16/13 Q1028 W///H///
EHEH 201155Z AUTO 08006KT 020V190 9999 OVC300 18/03 Q1028 BLU 09006KT CAVOK
EHFD 201155Z AUTO 26014KT 9999 FEW011/// SCT013/// BKN015/// 16/13 Q1027 W///H///
EHFS 201125Z AUTO 10011KT 9999 NSC 17/06 Q1027 W///H///
EHFZ 201155Z AUTO 24009KT 9999 NSC 16/13 Q1028 W///H///
EHGG 201155Z AUTO 26005KT 230V290 9999 OVC020 16/09 Q1029 NOSIG
EHGR 201155Z AUTO 09007KT 360V140 9999 OVC300 19/05 Q1028 BLU 09008KT CAVOK
EHHW 201155Z AUTO 27010KT 9999 FEW017/// SCT022/// BKN030/// 17/12 Q1028 W///H///
EHJA 201155Z AUTO 22008KT 9999 NSC 16/13 Q1028 W///H///
EHJR 201155Z AUTO 18004KT 130V220 //// // ///////// 16/09 Q1029 RE// W18/H7
EHKD 201155Z AUTO 16003KT 120V190 9999 FEW019 OVC025 15/10 Q1029 BLU 18005KT 9999 SCT020 BKN025
EHKV 201155Z AUTO 19005KT 9999 OVC026 17/11 Q1029 W///H///
EHLW 201155Z AUTO 21006KT 9999 OVC030 15/11 Q1029 BLU 22006KT 9999 BKN028
EHMA 201155Z AUTO 22009KT 9999 OVC029 15/11 Q1029 RERA REDZ W///H///
EHMG 201155Z AUTO 25006KT 9999 FEW018 SCT022 OVC029 16/12 Q1029 W///H///
EHPG 201155Z AUTO 09010KT 9999 NSC 15/09 Q1028 W///H///
EHQE 201155Z AUTO 16006KT 9999 ////// 15/10 Q1029 W///H///
EHRD 201155Z AUTO 10006KT 040V150 9999 NSC 17/08 Q1028 NOSIG
EHSA 201155Z AUTO 09009KT 9999 ///////// 15/08 Q1028 W16/H6
EHSC 201155Z AUTO 10009KT 9999 ///////// 15/07 Q1028 W18/H5
EHVK 201155Z AUTO 10006KT 050V200 9999 OVC320 18/04 Q1028 BLU 11006KT CAVOK
EHVL 201155Z AUTO 19009KT 9999 OVC028 15/11 Q1029 BLU
EHWO 201155Z AUTO 07008KT 040V130 9999 OVC310 19/05 Q1027 BLU 09008KT CAVOK
EICK 201130Z 12019KT 9999 FEW009 SCT014 BKN020 16/13 Q1019 NOSIG
EIDL 201130Z 16020KT CAVOK 20/14 Q1019
EIDW 201130Z 13013KT 100V170 9999 FEW015 17/12 Q1022 NOSIG
EIKN 201130Z 13018G28KT 9999 FEW022 17/12 Q1019 NOSIG
EIKY 201130Z 16013KT 130V190 9999 FEW034 19/11 Q1017
EIME 201130Z 12012KT 9999 FEW018 19/11 Q1022
EINN 201130Z 13021KT 9999 FEW020 19/11 Q1018 NOSIG
EISG 201130Z 14009KT 100V190 CAVOK 18/12 Q1019
EIWF 201130Z 14019KT 9999 FEW018 17/13 Q1021
EKAH 201150Z AUTO 28014KT 9999NDV BKN021/// 16/11 Q1024
EKBI 201150Z AUTO 27014KT 9999 BKN015/// 15/11 Q1025
EKCH 201150Z AUTO 28011KT 9999 -SHRA BKN015/// BKN038/// 14/12 Q1024 NOSIG
EKEB 201150Z AUTO 29012KT 260V320 9999 -SHRA BKN010/// 14/13 Q1026
EKKA 201150Z AUTO 27014KT 9999 OVC016/// 15/11 Q1025 TEMPO 29012G22KT
EKOD 201150Z 29012KT 9999 FEW022 SCT026 BKN037 16/13 Q1025
EKRK 201150Z AUTO 28013KT 6000 DZ OVC016/// 14/12 Q1024
EKRN 201150Z AUTO 27014KT 9999 OVC006/// 13/12 Q1024
EKRS 201150Z AUTO VRB06KT 9999 BKN021/// OVC029/// 15/12 Q1025
EKSB 201150Z 27010KT 210V320 9999 SCT012 BKN025 16/12 Q1026
EKSN 201150Z 27016KT 9999 BKN015 15/11 Q1021
EKSP 201150Z 26015KT 9999 -DZ SCT012 BKN022 15/13 Q1026 NOSIG
EKVD 201150Z 30011KT 9999 FEW008 SCT012 15/13 Q1026
EKVG 201150Z AUTO 21009KT 9999 BKN012/// 12/10 Q1019
EKVJ 201150Z 29010KT 9999 FEW006 BKN016 14/11 Q1025
EKYT 201150Z AUTO 28015KT 9999 BKN017/// BKN021/// 14/11 Q1022
ELLX 201150Z 10009KT 050V140 CAVOK 18/02 Q1027 NOSIG
ENAL 201150Z 24021KT 9999 -DZ SCT009 BKN016 12/10 Q1020
ENAN 201150Z 28006KT 250V310 9999 FEW026 BKN051 07/02 Q1012
ENAT 201150Z 32007KT 270V340 9999 FEW029 BKN039 06/01 Q1010 RMK WIND 700FT 32010KT
ENBL 201150Z 21006KT 1800 -DZ BCFG VV005 10/09 Q1023
ENBN 201150Z 08008KT 060V120 6000 -RADZ FEW008 SCT015 BKN020 07/06 Q1009
ENBO 201150Z 08012KT 9999 FEW030 BKN085 06/02 Q1011 NOSIG
ENBR 201150Z 22005KT 180V260 9999 9000NE VCSH FEW003 SCT007 BKN011 11/11 Q1024 TEMPO 4000 -DZ BR BKN007 RMK WIND 1200FT 26009KT
ENBS 201050Z 35011KT 9999 -SHRA SCT012 BKN022 03/02 Q1004
ENBV 201120Z 33018KT 9999 VCSH SCT017 BKN033 06/03 Q1006
ENCN 201150Z 23008KT 200V270 CAVOK 20/11 Q1020
ENDU 201150Z 19006KT 150V220 9999 FEW018 SCT040 BKN200 06/01 Q1011 NOSIG RMK WIND 1100FT 26004KT WIND 2200FT 26012KT
ENEV 201150Z VRB02KT 9999 FEW029 SCT045 BKN160 08/01 Q1012 RMK WIND 1400FT VRB04KT
ENFB 201150Z AUTO 23022KT 9999NDV BKN020/// 12/10 Q1022 W///S4
ENFL 201150Z 24013KT 9999 VCSH FEW008 SCT018 BKN031 12/10 Q1023
ENGC 201150Z 26022KT 9999 BKN020 11/10 Q1023 W10/S4
ENGK 201150Z 20007KT 140V250 CAVOK 21/11 Q1019
ENGM 201150Z 17008KT 140V200 CAVOK 17/08 Q1016 NOSIG
ENHD 201150Z 30007KT 9999 FEW010 BKN018 13/11 Q1025
ENHE 201150Z 28031KT 2500 BR BKN006 10/10 Q1008 W///S4
ENHF 201150Z 35007KT 9999 FEW020 BKN029 05/01 Q1009 RMK WIND 1254FT 34015KT
ENHK 201120Z 31011KT 9999 FEW020 SCT025 07/01 Q1010
ENHM 201150Z 23013KT 9999 SCT007 12/11 Q1025 W12/S3
ENHV 200950Z 31010KT 9999 -RA SCT016 BKN024 05/02 Q1008
ENKB 201150Z 25022KT 9999 SHRA FEW002 SCT007 BKN009 11/10 Q1017 RMK WIND 745FT 26033KT
ENKR 201150Z 33014KT 9999 VCSH BKN021 06/01 Q1005 RMK WIND 731FT 31018KT
ENLA 201150Z AUTO 18003KT 9999NDV OVC008/// 14/12 Q1026 W///S2
ENLE 201150Z 22004KT 9999 FEW012 15/12 Q1027 W14/S3
ENLK 201150Z 06004KT 9999 FEW040 SCT150 08/01 Q1011
ENMH 201150Z 32017KT 9999 -SHRA BKN021 05/02 Q1006
ENML 201150Z 26019KT 9999 VCSH FEW020 BKN030 13/09 Q1018
ENMS 201150Z 17005KT 9999 RA FEW004 SCT013 BKN020 04/03 Q1011 RMK WIND 412FT VRB03KT
ENNA 201150Z 31011KT 280V340 9999 -RA FEW018 BKN026 06/01 Q1009 RMK WIND 1800FT 30019KT
ENNE 201150Z 29018KT 8000 -DZ SCT005 BKN025 10/10 Q1007 W///S4
ENNM 201150Z 06011KT 5000 RA FEW004 SCT008 BKN012 06/05 Q1011
ENNO 200650Z 00000KT 9999 FEW005 SCT080 06/05 Q1020
ENOA 201150Z 25017KT 9999 BKN018 12/09 Q1024 W///S4
ENOL 201150Z 26032G43KT 9999 FEW006 SCT012 BKN025 12/10 Q1013 TEMPO 4000 RADZ BKN007
ENOV 201150Z 24010KT 200V270 9999 VCSH FEW015 BKN030 14/09 Q1021 RMK WIND 2175FT 24020KT
ENQA 201150Z AUTO 26018KT 9999NDV BKN017/// 12/08 Q1024 W10/S4
ENQC 201150Z AUTO 23017KT 9999NDV BKN022/// 12/09 Q1023 W///S4
ENQR 201150Z AUTO 24018KT 9999NDV BKN021/// 12/// Q1021 W///S4
ENRA 201120Z 10006KT 9999 -RADZ FEW020 OVC030 06/02 Q1011
ENRM 201150Z 26012KT 7000 RA FEW002 SCT004 BKN006 11/11 Q1009
ENRO 201150Z 29014G24KT 250V320 9999 FEW014 SCT029 11/08 Q1013
ENRS 201150Z 09009KT 9999 VCSH FEW015 BKN028 08/04 Q1011
ENRY 201150Z 19008KT CAVOK 18/09 Q1018 NOSIG
ENSB 201150Z 33007KT 9999 FEW025 BKN045 02/M03 Q1009 NOSIG RMK WIND 1400FT 33007KT
ENSD 201150Z VRB05KT 9999 FEW007 BKN040 12/09 Q1021 RMK WIND 1138FT VRB08KT
ENSE 201150Z AUTO 24021KT 9999NDV BKN022/// 12/10 Q1022 W///S/
ENSG 201150Z 24013KT 9999 VCSH FEW/// FEW005 BKN022 10/10 Q1022 RMK WIND 3806FT 26021KT
ENSH 201150Z 07003KT 9999 FEW025 07/01 Q1012 RMK WIND 150FT VRB02KT
ENSK 201150Z VRB01KT 9999 FEW030 BKN130 07/02 Q1012
ENSL 201150Z AUTO 22014KT 0100NDV -SHRA FG NCD 11/11 Q1026 W10/S3
ENSO 201120Z VRB06KT 9000 FEW004 SCT010 BKN018 12/12 Q1025
ENSR 201050Z VRB02KT 9999 4000NW VCSH SCT004 BKN015 03/02 Q1011 RMK WIND 1119FT 26005KT 220V300
ENSS 201050Z 32025KT 9999 -RA FEW015 SCT028 BKN039 06/01 Q1003 RMK WIND 500FT 32033KT
ENST 201150Z 02004KT 9999 RA FEW015 SCT022 BKN045 07/05 Q1009 RMK WIND 300FT 04007KT
ENTC 201150Z 23007KT 9999 -SHRA SCT019 BKN035 05/02 Q1011 NOSIG RMK WIND 2600FT 29015KT
ENTO 201150Z 22009KT 190V250 CAVOK 18/08 Q1018 NOSIG
ENUG 201150Z AUTO 32011KT 9999NDV SCT025/// BKN120/// 04/M01 Q1008 W///S4
ENUN 201150Z AUTO 10026KT 8000NDV -SHRA OVC005/// 08/08 Q1006 W10/S/
ENVA 201150Z 27027KT 9999 SCT017 BKN024 12/09 Q1014 TEMPO 4000 -DZ BR BKN008 RMK WIND 670FT 28024G40KT
ENVD 201150Z 33021KT 9999 VCSH FEW015 SCT076 06/02 Q1005
ENWV 201150Z AUTO 21005KT 150V250 9999NDV NCD 16/13 Q1027 W///S3
ENZV 201150Z 30010KT 9999 FEW008 SCT012 BKN022 14/11 Q1025 NOSIG
EPBY 201130Z 30008KT 9999 SCT042 14/03 Q1025
EPGD 201130Z 32007KT 300V360 9999 FEW044 14/03 Q1024
EPKK 201130Z 27008KT 230V300 9999 FEW030TCU SCT060 14/06 Q1026
EPKT 201130Z 28012KT 250V310 9999 SCT036 14/05 Q1026
EPLB 201130Z 31010KT 9999 BKN040 12/02 Q1023
EPLL 201130Z 27014KT 9999 SCT044 13/03 Q1025
EPMO 201130Z VRB09KT 9999 BKN036 13/04 Q1024
EPPO 201130Z 29010KT 9999 BKN033 15/05 Q1026
EPRA 201130Z 29011KT 260V340 9999 SCT040 13/05 Q1024
EPRZ 201130Z 28012KT 250V310 9999 FEW030CB SCT040 13/02 Q1024
EPSC 201130Z 29006KT 260V320 9999 FEW024 OVC039 13/07 Q1026
EPSY 201130Z 31006KT 250V360 9999 SCT047 12/02 Q1023
EPWA 201130Z 27006KT 240V300 9999 FEW023CB SCT040 11/06 Q1025 NOSIG
EPWR 201130Z 31012KT 280V350 9999 BKN040 14/05 Q1028
EPZG 201130Z 27009KT 250V310 9999 SCT046 15/04 Q1027
EQYG 201057Z AUTO 28013G21KT 10SM CLR 31/17 A3000 RMK AO2 SLP149 T03110172 $
ESCF 201150Z 24008KT 9999 FEW040 14/06 Q1019
ESCM 201150Z AUTO 23009KT 9999 BKN054/// 12/04 Q1017
ESDF 201150Z 24006KT 190V280 9999 SCT018 BKN028 13/10 Q1022
ESGG 201150Z 29009KT 9999 BKN020 16/10 Q1020
ESGJ 201150Z 23008KT 200V270 9999 FEW025 SCT031 14/09 Q1019
ESGR 201150Z AUTO 25009KT 230V290 9999 SCT140/// 15/08 Q1018
ESGT 201150Z 27009KT 220V300 CAVOK 17/10 Q1019
ESIA 201150Z AUTO 26009KT 9999 FEW092/// 14/07 Q1018
ESIB 201120Z 26009KT 9999 FEW015 15/12 Q1019
ESKM 201150Z AUTO 21003KT 180V270 9999 OVC055/// 08/07 Q1015
ESKN 201150Z 24009KT 180V260 9999 FEW042 BKN120 13/04 Q1018
ESMK 201150Z 28006KT 250V310 6000 BKN009 14/13 Q1022
ESMQ 201150Z 26009KT 9999 FEW029 BKN062 14/07 Q1021
ESMS 201150Z 27008KT 9999 SCT038 14/12 Q1023 RERA
ESMT 201150Z 28012KT 9999 DZ FEW011 SCT020 BKN027 14/12 Q1022
ESMX 201150Z 23006KT 200V260 9999 FEW006 BKN021 12/09 Q1021
ESND 201150Z AUTO 25007KT 210V280 9999 OVC096/// 07/05 Q1013
ESNG 201150Z AUTO 26006KT 9999 NCD 07/M03 Q1010
ESNK 201150Z AUTO VRB03KT 9999 -RA SCT008/// BKN012/// BKN015/// 06/05 Q1014
ESNL 201150Z AUTO 25003KT 200V280 9999 FEW067/// 07/M00 Q1013
ESNN 201150Z 18007KT 9999 DZ SCT011 BKN019 BKN022 07/05 Q1014
ESNO 201150Z AUTO 25005KT 9999 SCT035/// 06/00 Q1013
ESNQ 201150Z 01006KT CAVOK 05/M03 Q1009
ESNS 201150Z 24005KT 220V300 CAVOK 08/01 Q1013
ESNU 201150Z 25004KT CAVOK 08/01 Q1014
ESNV 201150Z AUTO 12004KT 6000 -RASN BKN005/// OVC020/// ///// Q1012
ESNX 201150Z AUTO 28004KT 9999 FEW120/// SCT200/// 06/M02 Q1011
ESNZ 201120Z 18008KT 7000 -RA BR BKN004 OVC017 05/05 Q1011
ESOE 201150Z 23010KT 9999 FEW022 14/08 Q1017
ESOH 201150Z AUTO 21004KT 190V250 9999 SCT066/// OVC082/// 12/07 Q1017
ESOK 201150Z 23007KT CAVOK 15/08 Q1017
ESOW 201150Z 22007KT 180V260 CAVOK 12/04 Q1017
ESPA 201150Z 28006KT 240V300 CAVOK 09/M01 Q1012
ESPE 201150Z AUTO VRB02KT 9999 FEW190/// 07/M01 Q1011
ESSA 201202Z 25010KT CAVOK 11/02 Q1017 NOSIG
ESSB 201150Z 22008KT CAVOK 13/02 Q1017
ESSD 201150Z 25006KT 9999 DZ SCT045 BKN072 09/06 Q1016
ESSL 201150Z 24008KT 200V270 CAVOK 15/05 Q1019
ESSP 201150Z 25008KT CAVOK 13/06 Q1018
ESST 201150Z AUTO VRB03KT 9999 SCT076/// OVC098/// 14/09 Q1016
ESSV 201150Z 25010KT CAVOK 12/05 Q1020
ESTA 201150Z 30013KT 9999 -RA SCT011 BKN020 BKN030 14/12 Q1022
ESTL 201150Z AUTO 28012KT 9999 FEW007/// SCT011/// 14/14 Q1023 REDZ
ESUP 201150Z AUTO 31006KT 260V360 //// R11///// NCD 08/M02 Q1010
ESUT 201150Z AUTO 16006KT 9999 DZ VV015 02/01 Q1010
ETAD 201156Z AUTO 08012KT 9999 CLR 17/01 A3033 RMK AO2 SLP262 T01700006 10170 20062 57014 $
ETAR 201156Z AUTO 07013G18KT 9999 CLR 18/02 A3032 RMK AO2 SLP274 T01810020 10182 20024 CHINO RWY26 $
ETEB 201156Z AUTO 08003KT 9999 CLR 14/02 A3036 RMK AO2 SLP298 T01430019 10144 20052 57011 $
ETEK 201056Z AUTO 09005KT 9999 CLR 14/03 A3039 RMK AO2 SLP173 T01380026 $
ETGG 201120Z 30019KT 9999 SCT019 BKN028 15/12 Q1026 BLU
ETHA 201120Z 08010KT 9999 FEW050 BKN280 13/04 Q1027 BLU+BLU+
ETHB 201120Z 31003KT 9999 FEW025 16/05 Q1029 BLU+
ETHC 201120Z 24004KT 9999 FEW038 SCT048 16/06 Q1029 BLU+
ETHF 201120Z 13003KT 9999 BKN300 15/03 Q1029 BLU+
ETHL 201120Z 06012KT 9999 BKN280 14/03 Q1027 BLU+
ETHN 201120Z 09008KT 9999 BKN300 15/02 Q1028 BLU+
ETHS 201120Z 34005KT 9999 FEW033 BKN045 15/07 Q1029 BLU
ETIC 201156Z AUTO 03003KT 9999 CLR 16/02 A3034 RMK AO2 SLP285 T01600017 10162 21011 57013 $
ETIH 201156Z AUTO 01004KT 9999 CLR 15/05 A3037 RMK AO2 SLP293 T01470049 10147 20012 57013 $
ETIK 201156Z AUTO 09006KT 9999 CLR 16/03 A3037 RMK AO2 SLP291 T01580026 10158 20012 57013 $
ETML 201120Z AUTO 26012KT //// // ////// 15/12 Q1026 ///
ETMN 201120Z 27009KT 9999 FEW017 SCT026 BKN039 15/10 Q1028 BLU BLU
ETND 200920Z 28003KT 9999 FEW025 BKN300 14/07 Q1030 BLU+
ETNG 201050Z 08012KT CAVOK 17/04 Q1028 NOSIG
ETNH 201120Z 26011KT 9999 FEW020 BKN050 17/11 Q1027 BLU
ETNL 201152Z 26009KT 8000 BKN008 13/11 Q1027 GRN WHT TEMPO GRN
ETNN 201120Z 09007KT 9999 SCT320 17/03 Q1028 BLU+
ETNS 201120Z AUTO 27016KT 9999 // ////// 16/12 Q1027 ///
ETNT 201120Z 25009KT 9999 FEW024 BKN038 15/10 Q1029 BLU
ETNW 201120Z 32002KT 9999 FEW040 SCT350 16/06 Q1029 BLU+BLU TEMPO BLU+
ETOU 201156Z AUTO 05003KT 9999 CLR 17/02 A3037 RMK AO2 SLP287 T01730021 10174 20057 57015 $
ETSB 201120Z AUTO 09010KT 9999 // ////// 14/02 Q1028 ///
ETSH 201120Z 30008KT 9999 SCT040 BKN060 15/05 Q1029 BLU
ETSI 201120Z 06006KT 9999 BKN350 15/01 Q1028 BLU+
ETSL 200920Z 04009KT 9999 BKN270 11/04 Q1028 BLACKBLU+
ETSN 201120Z 07007KT 9999 BKN330 16/02 Q1028 BLU+
ETWM 201120Z 11003KT 9999 FEW030 16/07 Q1029 BLU+
EVLA 201150Z AUTO 27008KT 230V320 9999 FEW048/// 14/02 Q1021
EVRA 201150Z 32007KT 230V360 9999 FEW037CB SCT043 12/04 Q1020 NOSIG
EVVA 201150Z AUTO 28009KT 250V330 CAVOK 14/03 Q1020
EYKA 201150Z VRB05KT CAVOK 11/M00 Q1021
EYPA 201150Z VRB05KT 9999 -SHRA SCT046CB BKN062 12/04 Q1022
EYSA 201150Z 32008KT 260V350 9999 SCT043 12/02 Q1021 BLU NOSIG
EYVI 201150Z 33012KT 9999 BKN043 SCT056 10/M00 Q1020 NOSIG
FABL 201100Z 34011KT 300V010 CAVOK 30/02 Q1024 NOSIG
FABM 200853Z 26006KT CAVOK 26/03 Q1028
FACT 201100Z 30019KT 9999 SCT020 19/15 Q1016 NOSIG
FACV 200952Z 25011KT CAVOK 21/09 Q1018
FADY 200828Z 31011KT CAVOK 29/M03 Q1022
FAEL 201105Z 21015G27KT CAVOK 27/16 Q1010
FAEO 200940Z 25007KT CAVOK 27/03 Q1029
FAGG 201100Z 21013KT CAVOK 26/13 Q1011
FAHS 201100Z AUTO 01005KT //// // ////// 29/14 Q1021
FAJB 201200Z AUTO 36002KT //// // ////// 30/02 Q1025
FAKM 201100Z 32014KT CAVOK 34/M01 Q1020
FAKN 201130Z 36006KT CAVOK 30/15 Q1022 NOSIG
FALA 201100Z VRB06KT CAVOK 28/06 Q1026 NOSIG
FALE 201100Z 03015KT 360V060 CAVOK 27/20 Q1012 NOSIG
FALM 201100Z VRB03KT CAVOK 29/// Q1023
FALW 201100Z AUTO 19003KT //// // ////// 19/16 Q1016
FAMM 201100Z 36010KT CAVOK 32/M01 Q1024 NOSIG
FAOB 201100Z AUTO 34016KT //// // ////// 26/07 Q1012
FAOR 201130Z 36008KT 320V030 CAVOK 27/03 Q1027 NOSIG
FAPE 201100Z 23026KT CAVOK 22/17 Q1010 NOSIG
FAPN 200900Z AUTO 05003KT //// // ////// 28/07 Q1025
FAPP 201100Z 14001KT CAVOK 28/02 Q1024 NOSIG
FASB 200854Z AUTO 18007KT //// // ////// 20/08 Q1019
FAUP 201100Z 36022G33KT CAVOK 36/M04 Q1017 NOSIG
FAUT 201100Z 27013KT 9000 NSC 38/M00 Q1015
FAWB 200900Z 03006KT CAVOK 29/11 Q1027
FAWK 201100Z AUTO 03004KT //// // ////// ///// Q1026
FBFT 201100Z 12011KT CAVOK 32/00 Q1021
FBKE 201100Z 12011KT 080V160 CAVOK 31/M04 Q1020
FBMN 201100Z 04008KT CAVOK 32/01 Q1019
FBSK 201100Z 04008KT 350V080 CAVOK 30/03 Q1023 NOSIG
FBSP 201000Z 09010KT CAVOK 29/12 Q1023
FCBB 201100Z VRB05KT 9999 SCT016 BKN020 FEW030CB 26/20 Q1015 NOSIG
FCPP 201100Z 19012KT 9999 SCT012 BKN026 27/23 Q1013 NOSIG
FDMS 201100Z 09008KT CAVOK 29/18 Q1019 NOSIG
FDOT 201100Z AUTO 05004KT //// // ////// 30/15 Q1017
FDSK 201100Z 03011KT CAVOK 28/15 Q1018 NOSIG
FEFF 201100Z 30005KT 9999 BKN023 FEW033CB 31/22 Q1011 NOSIG
FEFT 201000Z 26010KT 9999 BKN022 28/20 Q1016
FGBT 201100Z 24009KT 9999 SCT010 28/26 Q1012
FGSL 201100Z 30006KT 260V330 9999 FEW010 SCT050 29/23 Q1014 NOSIG
FIMP 201100Z 17012KT 9999 FEW019 24/14 Q1018
FIMR 201200Z 15010KT 9999 FEW018 25/19 Q1016
FJDG 201155Z 12010KT 9999 SCT022 BKN045 OVC080 28/25 A2980 RMK SLP088 T2 SET 70052 8/87/ T02820254 10311 20282 54000
FKKD 201100Z VRB03KT 9999 BKN016 FEW020CB 31/24 Q1012 NOSIG
FKKL 201100Z VRB03KT 9999 FEW040 33/25 Q1013
FKKN 201000Z 18006KT 9999 SCT016TCU 26/19 Q1018
FKKR 201100Z 26008KT 220V300 9999 SCT020 31/23 Q1013 NOSIG
FKYS 201100Z VRB02KT 9999 BKN020 29/22 Q1017 NOSIG
FLKK 201100Z 11016KT 9000 FEW035 29/03 Q1021
FMCH 201100Z 21018KT 9999 SCT023 30/22 Q1014 NOSIG
FMCZ 201130Z AUTO 18009KT 9999 FEW019 30/23 Q1013 NOSIG
FMEE 201130Z AUTO 11013KT 9999 OVC048 23/15 Q1017 NOSIG
FMEP 201130Z AUTO 14016KT 9999 BKN033 BKN066 24/16 Q1018 NOSIG
FMMI 201130Z 10007KT 060V160 9999 SCT023 24/10 Q1021 NOSIG
FMMS 200900Z 19012KT 9999 FEW017 27/16 Q1019
FMMT 201100Z 16009KT 120V200 9999 FEW020 26/17 Q1018 NOSIG
FMNA 201100Z 12014KT 9999 FEW020 30/14 Q1012
FMNM 201100Z 33010KT 290V360 9999 FEW023 31/17 Q1013 NOSIG
FMNN 201100Z 29008KT 9999 FEW020 32/20 Q1012
FMSD 201100Z 10014KT 5000 -RA FEW007 BKN016 20/19 Q1021
FNBC 201100Z 24010KT 9999 BKN012 25/19 Q1015
FNBG 200800Z 00000KT 5000 BR FEW015 23/18 Q1015
FNCA 201100Z 20006KT 9000 SCT010 BKN057 25/23 Q1014
FNCT 201100Z 29006KT 9999 FEW015 24/23 Q1013
FNDU 200900Z 00000KT CAVOK 27/18 Q1017
FNGI 201100Z 03010KT CAVOK 34/M01 Q1016
FNHU 201100Z VRB03KT 9999 FEW019 28/11 Q1021
FNKU 201100Z 09010KT CAVOK 29/22 Q1020
FNLU 201200Z 27011KT 9999 FEW021 25/22 Q1012 NOSIG
FNMA 201100Z 27006KT 8000 SCT020 26/22 Q1016
FNMO 201100Z 29010KT CAVOK 24/16 Q1011
FNSA 201100Z 00000KT CAVOK 31/18 Q1017
FNSO 201000Z 00000KT 9999 SCT015 BKN070 ///// Q////
FNSU 201100Z 24009KT CAVOK 25/// Q1016
FNUB 201100Z 08010KT CAVOK 29/M01 Q1024
FNUE 201100Z 09008KT CAVOK 31/16 Q1018
FNUG 201100Z 24006KT 9999 BKN020 22/18 Q1016
FOGM 201100Z /////KT 9999 SCT010 BKN025 26/24 Q////
FOGO 200900Z 00000KT 9999 SCT010 OVC023 24/21 Q////
FOGR 201100Z /////KT 9999 SCT012 30/23 Q////
FOOB 201100Z /////KT 9999 SCT013TCU BKN026 28/21 Q1012
FOOG 201100Z 20015KT 9999 SCT013 29/24 Q1013
FOOK 201100Z /////KT 9999 SCT010 BKN025 26/23 Q////
FOOL 201130Z 22006KT 170V290 9999 SCT016 28/24 Q1012 NOSIG
FOON 201100Z VRB05KT 9999 BKN016 29/22 Q1015
FOOR 201100Z /////KT 9999 BKN006 30/22 Q////
FOOT 201100Z 00000KT 9999 SCT012 BKN026 30/22 Q////
FPST 201100Z 15014KT 9999 FEW025 SCT110 31/24 Q1014 NOSIG
FQBR 201200Z 14011KT 9999 FEW020 27/18 Q1018
FQCH 201100Z /////KT CAVOK 27/12 Q1023
FQIN 201100Z 07012KT 9999 BKN020 BKN025 25/18 Q1021
FQMA 201100Z 02011KT 9999 FEW020 30/17 Q1018 NOSIG
FQNC 201100Z 20010KT 9999 BKN020 32/16 Q1015
FQNP 201100Z 20010KT 9999 FEW020 30/17 Q1017
FQQL 201100Z 13010KT 9999 SCT020 29/18 Q1020
FQTT 201100Z 16005KT CAVOK 31/15 Q1017
FQVL 201100Z 13008KT 9999 BKN020 27/20 Q1020
FSIA 201100Z 14012G24KT 100V210 9999 FEW020 28/23 Q1009 NOSIG
FTTA 201100Z 33004KT 9999 FEW040 31/24 Q1013
FTTC 201100Z 00000KT CAVOK 38/// Q1013
FTTD 201000Z 04004KT CAVOK 36/// Q1014
FTTJ 201100Z 21006KT 210V280 9999 FEW040 34/22 Q1011 NOSIG
FTTY 201000Z 06014KT CAVOK 38/12 Q1014
FVFA 201100Z 10013KT 070V130 CAVOK 31/M07 Q1020 NOSIG
FVJN 201100Z 09018KT 060V120 CAVOK 30/00 Q1024 NOSIG
FVRG 201100Z 08013KT 040V130 CAVOK 28/M13 Q1025 NOSIG
FWCL 201100Z 16004KT 6000 SCT030 27/14 Q1020 NOSIG
FWKI 201100Z 10010KT 9999 SCT040 26/07 Q1021 NOSIG
FXMM 201100Z 27008KT 9999 FEW040 28/00 Q1026 NOSIG
FYGB 201100Z AUTO 03007KT //// // ////// 32/M05 Q1023
FYGF 201200Z 06008KT CAVOK 32/M06 Q1021
FYKM 201100Z AUTO 11010KT //// // ////// 33/M04 Q1018
FYKT 201000Z AUTO 01018KT //// // ////// 34/M07 Q1022
FYLZ 201100Z AUTO 21009KT //// // ////// 20/13 Q1015
FYML 201100Z AUTO 05011KT //// // ////// 36/M08 Q1020
FYOA 201100Z AUTO 13003KT //// // ////// 36/M03 Q1015
FYOO 201100Z AUTO 03004KT //// // ////// 35/M03 Q1018
FYRN 201100Z 09006KT CAVOK 33/M04 Q1019
FYRU 201100Z AUTO 09008KT //// // ////// 33/M06 Q1020
FYWB 201100Z AUTO 30008KT //// // ////// 18/13 Q1016
FYWE 201100Z VRB04KT CAVOK 29/M09 Q1024
FYWH 201100Z 06007KT 020V130 CAVOK 29/M13 Q1023 NOSIG
FYWW 201200Z 25005KT CAVOK 32/M08 Q1022
FZAA 201100Z 28004KT 8000 SCT018 BKN100 26/20 Q1014 NOSIG
FZNA 201100Z 22016KT 8000 SQ SCT018 FEW021CB BKN110 26/13 Q1013 NOSIG
FZRF 201100Z 06008KT CAVOK 30/23 Q1010 NOSIG
FZWA 201100Z 34008KT 9999 BKN022 29/22 Q1013 NOSIG
GABS 201130Z 23007KT 190V260 9999 FEW020 FEW030CB 27/21 Q1016 TEMPO TS
GAKD 200900Z 25008KT 9999 FEW030 28/25 Q1014
GAMB 200900Z 22004KT CAVOK 29/26 Q1014
GANR 200900Z 36004KT CAVOK 31/24 Q1015
GBYD 201100Z 09010KT 9999 SCT011 28/25 Q1013
GCFV 201130Z 06009KT 9999 FEW025 25/20 Q1017
GCGM 201130Z 19005KT 160V230 9999 FEW008 BKN015 23/19 Q1019 RMK R09/17004KT 130V220 ARP/21005KT 170V260
GCHI 201130Z 35016KT 9999 FEW035 25/20 Q1018
GCLA 201130Z 08005KT 040V120 9999 FEW030 26/19 Q1018
GCLP 201130Z 03019KT 9999 FEW025 25/19 Q1017 NOSIG
GCRR 201130Z 08011KT 9999 FEW030 24/21 Q1017
GCTS 201130Z 10014KT 070V130 9999 FEW025 26/18 Q1018 NOSIG
GCXO 201130Z 31011KT 280V340 9999 FEW008 23/16 Q1020 NOSIG
GEML 201130Z 07008KT 030V100 9000 SCT006 BKN029 25/22 Q1015
GFLL 201100Z 24005KT 9999 BKN012 FEW027CB 29/24 Q1013 RMK-CB- N/NE
GGOV 201100Z 16005KT 130V230 9999 SCT015 30/25 Q1013 NOSIG
GLRB 201130Z 00000KT 9999 BKN015 29/24 Q1013 NOSIG
GMAD 201130Z 27007KT 8000 FEW016 SCT200 26/17 Q1014 NOSIG
GMAT 201100Z 02012KT 8000 BKN016 23/17 Q1015 NOSIG
GMFF 201130Z 30009KT 260V010 9999 FEW030 SCT080 BKN200 29/14 Q1016 NOSIG
GMFK 201100Z 16006KT 100V250 9999 FEW026 32/03 Q1020 NOSIG
GMFO 201130Z 33015KT 9999 FEW016 BKN230 28/19 Q1015 NOSIG
GMME 201130Z 33008KT 290V000 8000 SCT016 BKN070 24/16 Q1015 NOSIG
GMMI 200900Z 02002KT 7000 NSC 23/17 Q1015 NOSIG
GMMN 201130Z 36005KT 260V070 9999 FEW020 BKN200 26/15 Q1015 NOSIG
GMMW 201100Z 04006KT 350V090 6000 SCT020 SCT027 26/18 Q1014 NOSIG
GMMX 201130Z VRB02KT 9999 FEW026 SCT100 29/14 Q1015 NOSIG
GMMZ 201100Z 02003KT CAVOK 30/00 Q1020 NOSIG
GMTA 201100Z 36005KT 330V030 CAVOK 23/18 Q1014 NOSIG
GMTN 201100Z 04007KT 360V080 7000 FEW016 BKN200 26/17 Q1014 NOSIG
GMTT 201130Z 25008KT 9999 FEW010 BKN200 24/18 Q1015 NOSIG
GOBD 201130Z 10010KT 9999 BKN015 29/24 Q1014 NOSIG
GOGG 201100Z 14006KT 9999 BKN016 30/26 Q1014
GOGK 201000Z 08004KT 9999 BKN020 28/25 Q1012
GOGS 201100Z 16006KT 9999 SCT015 30/25 Q1013
GOOD 201000Z 16006KT 9999 SCT015 BKN130 29/26 Q1014
GOOG 201000Z 16002KT 9999 FEW013 29/26 Q////
GOOK 201000Z 08006KT 9999 BKN013 27/24 Q1014
GOOY 201100Z 22006KT 9999 SCT015 30/27 Q1013
GOSM 201000Z 30002KT CAVOK 31/26 Q1013
GOSP 201000Z 00000KT CAVOK 34/25 Q1012
GOSS 201100Z 26006KT 9999 SCT010 BKN130 34/24 Q1012
GOTK 200900Z 18006KT 9999 BKN015 FEW230 27/23 Q1014
GOTT 201100Z 21004KT 9999 FEW013 SCT230 31/24 Q1013
GQNO 201130Z 22007KT 6000 NSC 31/25 Q1012 NOSIG
GQPA 200900Z 00000KT 7000 NSC 33/12 Q1015
GQPP 201100Z 03012KT 8000 NSC 26/19 Q1013 NOSIG
GUCY 201100Z 18006KT 9999 BKN015 FEW020TCU BKN110 29/26 Q1014 NOSIG
GVAC 200700Z 04011KT 9999 BKN014 27/22 Q1012 NOSIG
GVBA 200700Z 01010KT 9999 BKN015 27/22 Q1012 NOSIG
GVNP 200700Z 02008KT 6000 BKN015 27/22 Q1012 NOSIG
GVSV 201100Z 06020KT 9999 SCT018 29/21 Q1014 NOSIG
HBBA 201000Z 18020KT 8000 FEW030 30/19 Q 1012 NOSIG
HCMF 201100Z 03010KT 9999 FEW033 34/28 Q1004
HCMM 201100Z 21016KT 9999 BKN025 29/22 Q1010
HDAM 201000Z 08012KT 9000 HZ FEW023 37/23 Q1005
HEAT 201100Z 36012KT CAVOK 33/18 Q1013 NOSIG
HEAX 201100Z 35010KT CAVOK 28/18 Q1014 NOSIG
HEBA 201100Z 32012KT 9999 SCT020 27/18 Q1014 NOSIG
HECA 201130Z 34009KT 6000 FEW025 32/17 Q1012 NOSIG
HECP 201100Z 36009KT CAVOK 30/18 Q1013 NOSIG
HEGN 201100Z 34019KT CAVOK 35/21 Q1007 NOSIG
HEIS 201100Z 02012KT CAVOK 31/18 Q1012
HELX 201100Z 26007KT CAVOK 39/21 Q1007 NOSIG
HEMA 201100Z 34022KT CAVOK 36/22 Q1007 NOSIG
HEMM 201100Z 32012KT 9999 SCT020 28/19 Q1016 NOSIG
HEPS 201100Z 31012KT CAVOK 29/21 Q1013 NOSIG
HESG 201100Z 32009KT CAVOK 34/18 Q1009 NOSIG
HESH 201100Z 01019KT 8000 NSC 36/28 Q1008 NOSIG
HESN 201100Z 01009KT CAVOK 42/11 Q1007 NOSIG
HESW 201100Z 35010KT CAVOK 31/15 Q1016
HETR 201100Z 31024KT CAVOK 30/24 Q1008
HKEL 201100Z 13009KT 9999 FEW024CB SCT025 24/06 Q1022
HKJK 201130Z 12008KT 9999 BKN034 25/10 Q1020 NOSIG
HKKI 201100Z 23006KT 9999 -TS FEW026CB SCT027 29/14 Q1015
HKML 201000Z 17010KT 9999 BKN024 29/22 Q1014
HKMO 201100Z 15009KT 9999 SCT026 30/21 Q1014 NOSIG
HKNW 201100Z 12011KT 9999 SCT025 23/11 Q1019
HKWJ 201100Z 16005KT 9999 BKN038 33/15 Q1010
HRYR 201100Z VRB04KT 9999 SCT025 SCT300 28/12 Q1018 NOSIG
HSNN 201100Z 02006KT CAVOK 35/16 Q1010
HSOB 201100Z VAR04KT 9999 FEW050 34/18 Q1010
HSPN 201100Z 03015KT CAVOK 38/17 Q1004
HSSS 201100Z 21009KT CAVOK 39/15 Q1007 NOSIG
HTAR 201100Z 11017KT 9999 SCT040 25/11 Q1018 NOSIG
HTBU 201100Z 16008KT CAVOK 27/19 Q1016
HTDA 201100Z 06007KT 9999 FEW030 BKN032 31/22 Q1014 NOSIG
HTDO 201100Z 09008KT 9999 FEW026 27/11 Q1018 NOSIG
HTIR 201100Z 12015KT 9999 FEW028 27/07 Q1020
HTKA 201100Z 24010KT 9999 FEW025 31/14 Q1015
HTKJ 201100Z 15005KT 9999 BKN032 29/15 Q1018 NOSIG
HTMG 201100Z 10007KT 9999 SCT020 30/17 Q1017
HTMT 201100Z 16015KT 9999 SCT025 31/20 Q1014 NOSIG
HTMU 201100Z 06008KT 9999 FEW058 FEW059CB 31/12 Q1015
HTMW 201100Z 12010KT 9999 FEW028 FEW029CB 31/13 Q1014 NOSIG
HTSO 201100Z 07005KT 9999 BKN007 28/26 Q1022
HTSU 201100Z 09012KT 9999 FEW025 25/07 Q1020
HTTB 201100Z 12010KT 9999 FEW026 31/10 Q1015 NOSIG
HTZA 201100Z 13012KT 9999 FEW020 31/21 Q1014 NOSIG
HUEN 201130Z 27008KT 9999 FEW023 FEW025CB 25/19 Q1016
K04V 201154Z AUTO 00000KT 10SM CLR 06/01 A3013 RMK AO2 PWINO
K04W 201139Z AUTO 00000KT 1/2SM FG OVC003 16/16 A3007 RMK AO2
K05U 201155Z AUTO 00000KT 10SM OVC020 05/03 A3004 RMK A01
K06C 201155Z AUTO 00000KT 4SM SCT042 20/19 A3012 RMK AO2 70006 T01960191 10211 20196
K06D 201155Z AUTO 16011G20KT 10SM VCTS FEW021 SCT031 BKN041 18/17 A2978 RMK AO2 LTG DSNT N AND NW
K08D 201155Z AUTO 08009KT 3SM BR OVC006 17/17 A2976 RMK AO2
K0A9 201155Z AUTO 00000KT 10SM SCT050 15/11 A3031 RMK AO2
K0CO 201212Z AUTO 27014G26KT 10SM CLR 02/M06 A3031 RMK AO2
K0E0 201135Z AUTO 00000KT 10SM BKN085 BKN110 11/11 A3013 RMK AO2 T01070107
K0F2 201155Z AUTO 14003KT 10SM SCT008 SCT013 OVC029 22/21 A2993 RMK AO2 T02200211 10227 20210
K0J4 201058Z AUTO 07004KT 10SM CLR 18/13 A3018 RMK AO2 SLP216 T01780133
K0R0 201155Z AUTO 09005KT 10SM RA SCT031 22/21 A3015 RMK AO2
K0R4 201155Z AUTO 11004KT 10SM CLR A3006 RMK AO2
K0S9 201155Z AUTO 00000KT 10SM SCT027 OVC060 13/13 A3006 RMK AO2
K0V4 201155Z AUTO 00000KT 10SM CLR 08/08 A3035 RMK AO1 T00800079 10088 20055
K0VG 201155Z AUTO 10SM CLR 14/13 A3032 RMK AO2
K11R 201135Z AUTO 13004KT 7SM CLR 25/25 A2996 RMK AO2 T02500250
K12N 201154Z AUTO 00000KT 06/06 A3030 RMK AO1 SLP266 T00610061 10067 20050 53008
K13K 201155Z AUTO 14004KT 10SM CLR 20/20 A3000 RMK AO2 T02010196 10223 20201
K14Y 201156Z AUTO 13004KT 7SM SCT043 17/17 A3002 RMK AO2
K17J 201130Z AUTO 06007KT 10SM CLR 18/16 A3019 RMK AO2 T01760158
K18A 201155Z AUTO 00000KT 10SM CLR 15/13 A3032 RMK AO2 T01450125 10181 20137
K18H 201155Z AUTO 09007G18KT 050V200 10SM FEW027 FEW041 30/23 A2996 RMK A01
K19S 201155Z AUTO 16007KT 10SM CLR 18/15 A2995 RMK AO2 T01780150 10194 20158
K1A5 201155Z AUTO 00000KT 7SM BKN004 11/11 A3038 RMK AO2 T01140109 10166 20108
K1A6 201155Z AUTO 00000KT 10SM SCT050 OVC060 17/15 A3029 RMK AO2 T01670146 10176 20162
K1A9 201155Z AUTO 08003KT 10SM CLR 18/12 A3022 RMK AO2 T01840121 10217 20182
K1AM 201058Z AUTO 00000KT 10SM BKN070 07/05 A2992 RMK AO2 SLP089 T00730047 $
K1AN 201056Z AUTO 14010KT 10SM CLR 19/18 A2969 RMK AO2 LTG DSNT NW-N SLP067 T01930183 $
K1AW 201058Z AUTO 13007KT 10SM BKN220 11/09 A2986 RMK AO2 SLP055 T01080093 $
K1BM 201058Z AUTO 23008KT 10SM BKN065 11/06 A2990 RMK AO2 SLP121 T01070055 $
K1BN 201056Z AUTO 19013KT 10SM CLR 19/19 A2973 RMK AO2 LTG DSNT N SLP063 T01940187 $
K1BW 201058Z AUTO 17015KT 10SM CLR 14/11 A2987 RMK AO2 SLP052 T01350112 $
K1CM 201058Z AUTO 00000KT 10SM BKN060 10/06 A2991 RMK AO2 SLP124 T00960060 $
K1CN 201056Z AUTO 16011KT 10SM SCT009 19/ A2974 RMK AO2 LTG DSNT N SLP066 $
K1CW 201058Z AUTO 18022G28KT 10SM SCT140 BKN210 16/12 A2983 RMK AO2 PK WND 17030/28 SLP044 T01630118 $
K1DM 201058Z AUTO 23007KT 10SM BKN075 09/06 A2986 RMK AO2 SLP120 T00930064 $
K1DN 201056Z AUTO 17007KT 10SM OVC008 18/18 A2974 RMK AO2 LTG DSNT N SLP066 T01830184 $
K1EM 201058Z AUTO 24004KT 10SM BKN060 11/06 A2988 RMK AO2 SLP119 T01090064 $
K1EN 201056Z AUTO 00000KT 10SM OVC007 19/18 A2973 RMK AO2 LTG DSNT N SLP068 T01860177 $
K1EW 201058Z AUTO 16010KT 10SM FEW240 13/11 A2987 RMK AO2 SLP060 T01300107 $
K1F0 201135Z AUTO 00000KT 10SM OVC009 22/21 A2993 RMK AO2
K1FM 201058Z AUTO 30007KT 10SM CLR 06/02 A2990 RMK AO2 SLP132 T00600021 $
K1FN 201056Z AUTO 17003KT 10SM OVC008 19/18 A2967 RMK AO2 LTG DSNT N-NE SLP075 T01880178 $
K1FW 201058Z AUTO 17008KT 10SM CLR 15/12 A2986 RMK AO2 SLP055 T01450121 $
K1GM 201058Z AUTO 22009KT 10SM CLR 06/03 A2990 RMK AO2 SLP126 T00590034 $
K1GN 201056Z AUTO 10004KT 10SM OVC009 18/17 A2973 RMK AO2 LTG DSNT N-NE SLP070 T01800165 $
K1GW 201058Z AUTO 17008KT 10SM M 16/12 A2986 RMK AO2 SLP064 T01580120 $
K1H2 201155Z AUTO 00000KT 5SM BR CLR 17/15 A3013 RMK AO2 T01670150 10182 20165
K1HM 201058Z AUTO 00000KT 10SM CLR 06/03 A2989 RMK AO2 SLP121 T00560026 $
K1HN 201056Z AUTO 08005KT 10SM BKN011 BKN020 19/18 A2972 RMK AO2 LTG DSNT N-NE SLP063 T01870175 $
K1HW 201058Z AUTO 14009KT 10SM CLR 16/12 A2986 RMK AO2 SLP071 T01550124 $
K1IM 201058Z AUTO 00000KT 10SM CLR 05/04 A2991 RMK AO2 SLP141 T00460039 $
K1IN 201056Z AUTO 05012KT 10SM OVC003 17/16 A2975 RMK AO2 LTG DSNT NE DZE10RAB10E22SHRAB22E34 SLP071 P0001 T01740159 $
K1J0 200858Z AUTO 03004KT 10SM CLR 19/14 A3015 RMK AO2 SLP167 T01890144 $
K1JM 201058Z AUTO 22006KT 10SM CLR 03/02 A2989 RMK AO2 SLP135 T00270021 $
K1JN 201056Z AUTO 04009G17KT 7/8SM -SHRA FG VV002 16/16 A2976 RMK AO2 VIS 7/8V1 5/8 LTG DSNT NE RAB10E37DZB37E38SHRAB38 CIG 002V005 SLP075 T01590163 $
K1JW 201058Z AUTO 17009KT 10SM BKN140 14/11 A2986 RMK AO2 SLP064 T01440114 PWINO $
K1K1 201155Z AUTO 18008KT 10SM BKN025 BKN075 20/19 A2999 RMK AO2 T01960190 10221 20195
K1KM 201058Z AUTO 26005KT 10SM OVC042 10/07 A2991 RMK AO2 SLP119 T01000073 $
K1KN 201056Z AUTO 05013G17KT 3/8SM -RA FG VV002 16/15 A2978 RMK AO2 LTG DSNT NE SLP080 P0006 T01560152 $
K1LW 201058Z AUTO 14010KT 10SM FEW210 13/12 A2989 RMK AO2 SLP065 T01290120 $
K1M4 201156Z AUTO 13006KT 10SM CLR 19/14 A3025 RMK AO2 SLP646 T01890139 10228 20189 53012
K1M5 201155Z AUTO 19008KT 10SM BKN042 BKN060 21/15 A3022 RMK A01
K1MM 201058Z AUTO 00000KT 10SM SCT049 BKN065 10/07 A2990 RMK AO2 SLP118 T01000070 $
K1MN 201056Z AUTO 05010KT 10SM -SHRA FEW003 BKN016 14/14 A2978 RMK AO2 LTG DSNT NE RAE0956DZB0956E00SHRAB00 CIG 011V016 SLP085 P0005 T01440139
K1NW 201058Z AUTO 16007KT 10SM BKN190 BKN240 14/12 A2985 RMK AO2 SLP054 T01440117 $
K1OM 201058Z AUTO 29008KT 10SM OVC120 11/07 A2987 RMK AO2 SLP106 T01080071 $
K1P1 201155Z AUTO 00000KT 10SM CLR 05/05 A3022 RMK AO2 T00500048 10050 20014
K1R7 201155Z AUTO 02004KT 7SM OVC005 23/22 A3013 RMK AO2
K1S5 201155Z AUTO 00000KT 10SM -RA BKN070 BKN100 10/09 A2997 RMK AO2 T01000093 10109 20080
K1U7 201155Z AUTO 01014KT 10SM SCT060 OVC075 07/04 A2987 RMK A01
K1V4 201154Z AUTO 05/05 A3025 RMK AO1 SLP248 T00500050 10056 20039 53010
K1YT 201121Z AUTO 00000KT 10SM -SHRA FEW070 OVC085 15/08 A2995 RMK AO2 SHRAE01SHRAB21 SLPNO $
K20U 201155Z AUTO 27007KT 10SM FEW041 SCT049 BKN060 13/13 A2977 RMK AO2
K20V 201146Z AUTO 00000KT 10SM CLR 02/00 A3004 RMK AO2
K21D 201156Z AUTO 12003KT 3/4SM BR OVC002 17/17 A3008 RMK AO2 LTG DSNT S
K22N 201156Z AUTO 00000KT 10SM CLR 04/04 A3033 RMK AO2
K24A 201120Z AUTO 13004KT 10SM CLR 11/10 A3036 RMK AO2 T01140103
K24J 201155Z AUTO 36004KT 10SM CLR 18/18 A3017 RMK A01
K27K 201155Z AUTO 20005KT 10SM SCT048 SCT060 19/15 A3021 RMK AO1
K28J 201115Z AUTO 00000KT 10SM BKN042 BKN060 OVC075 20/20 A3012 RMK AO2
K2C8 201155Z AUTO 14008KT 10SM FEW060 FEW080 17/15 A2984 RMK AO2
K2D5 201155Z AUTO 00000KT 7SM CLR 18/18 A2985 RMK AO2 PWINO
K2DP 201156Z AUTO 00000KT 10SM CLR 15/ A3031 RMK AO2 SLPNO 10152 20112 52016 $
K2G4 201120Z AUTO 21004KT 10SM CLR 11/06 A3030 RMK AO1
K2G9 201155Z AUTO 00000KT 10SM CLR 08/07 A3031 RMK AO2
K2I0 201155Z AUTO 20008KT 10SM SCT033 BKN042 BKN048 24/18 A3017 RMK AO2 7//// T02360178 10240 20225
K2J3 201130Z AUTO 06005KT 10SM CLR 14/11 A3027 RMK AO2 T01390113
K2J5 201135Z AUTO 04006KT 10SM CLR 15/11 A3026 RMK AO2 T01550114
K2J9 201155Z AUTO VRB04G10KT 10SM CLR 19/16 A3019 RMK AO2
K2LS 201155Z AUTO 12005KT 10SM CLR 27/21 A3006 RMK AO2
K2M2 201155Z AUTO 14007KT 10SM CLR 19/14 A3022 RMK A01
K2P2 201155Z AUTO 00000KT M1/4SM FG OVC001 16/16 A3012 RMK AO2 70116 T01560156 10177 20150
K2R9 201155Z AUTO 00000KT 10SM CLR 26/25 A2993 RMK AO2 T02560245 10286 20255 60001 70001
K2V5 201155Z AUTO 04004KT 10SM CLR 14/12 A2987 RMK AO2
K2V6 201154Z AUTO 17011G15KT 10SM CLR 17/11 A2986 RMK AO2
K2W6 201123Z AUTO 00000KT 09/08 A3034 RMK AO1
K2WX 201056Z AUTO 32008KT 16/ A2974 RMK AO1 SLP047 T0156
K33N 201155Z AUTO 00000KT 10SM CLR 12/10 A3032 RMK A01
K33V 201115Z AUTO 15005KT 10SM SCT100 07/M01 A3005 RMK AO1
K3AU 201155Z AUTO 13003KT 10SM BKN026 20/20 A2999 RMK AO2
K3D2 201155Z AUTO 00000KT M1/4SM FG OVC001 16/16 A3012 RMK AO2 T01620161 10172 20149
K3F3 201155Z AUTO 11008KT 10SM -RA SCT027 BKN095 BKN120 23/21 A3005 RMK AO2 60003 70036 T02260208
K3J7 201155Z AUTO 00000KT 10SM CLR 14/12 A3029 RMK AO2
K3K3 201135Z AUTO 11007KT 10SM CLR 16/13 A2993 RMK AO2
K3K8 201155Z AUTO 13007KT 10SM 18/17 A2999 RMK AO2
K3LF 201155Z AUTO 16004KT 10SM CLR 19/17 A3012 RMK AO2 T01920173 10210 20186
K3R7 201155Z AUTO 08006KT 24/23 A3002 RMK AO2 70035 T02400230 10240 20231 PWINO
K3S8 201155Z AUTO 00000KT 10SM BKN039 OVC046 11/10 A3014 RMK AO2
K3T5 201155Z AUTO 00000KT 10SM CLR 26/26 A2993 RMK AO2 70062 T02560256 10268 20256
K40B 201116Z AUTO 00000KT 08/ A3014 RMK AO1 SLP214 T0076 52005
K40J 201155Z AUTO 05006KT 10SM CLR 20/18 A3017 RMK AO2 T01970180 10217 20195
K41U 201135Z AUTO 18003KT 10SM BKN100 BKN110 07/01 A2992 RMK AO1 T00650006
K42J 201155Z AUTO 35004KT 5SM BR BKN075 20/20 A3014 RMK A01 TSNO
K46D 201155Z AUTO 15012G20KT 10SM CLR 20/18 A2982 RMK AO2
K46U 201155Z AUTO 35003KT 10SM BKN110 07/04 A2991 RMK A01
K48A 201155Z AUTO 00000KT 10SM CLR 12/10 A3026 RMK AO2 T01190104 10157 20110
K49A 201155Z AUTO 04003KT 10SM CLR 16/12 A3034 RMK AO2 T01550121 10193 20155
K4A6 201155Z AUTO 00000KT 10SM BKN055 BKN065 20/13 A3027 RMK AO2
K4A9 201135Z AUTO 32003KT 10SM CLR 18/12 A3027 RMK AO2 T01760125
K4BM 201153Z AUTO 23010G16KT 10SM CLR 06/00 A3028 RMK AO2
K4I3 201155Z AUTO 14003KT 10SM CLR 15/14 A3022 RMK AO2
K4M9 201155Z AUTO 14004KT 9SM FEW050 FEW100 24/24 A3010 RMK AO2 PWINO
K4MR 201058Z AUTO 15007KT 10SM SCT007 BKN110 BKN120 17/17 A3004 RMK AO2 LTG DSNT NE SHRAB0959E27 SLP116 T01720167 $
K4O4 201155Z AUTO 13011G15KT 4SM OVC007 20/18 A2997 RMK AO2 P0047
K4R5 201155Z AUTO 02004KT M1/4SM FG OVC002 14/14 A3010 RMK AO2 T01410141
K4S1 201155Z AUTO 7SM CLR 12/11 A3009 RMK AO2
K4S2 201155Z AUTO 29005KT 10SM SCT033 SCT046 OVC070 15/11 A3003 RMK AO2
K4V0 201155Z AUTO 19005KT 10SM CLR 17/02 A2980 RMK AO2 T01650020 10202 20136
K54A 201155Z AUTO 05009KT 10SM CLR 22/21 A3002 RMK AO2
K54J 201155Z AUTO 08006KT 10SM CLR 18/15 A3018 RMK AO2 7//// T01810145 10212 20180
K57C 201155Z AUTO 00000KT 1 1/2SM BR VV007 16/16 A3012 RMK AO2 T01580158 10172 20150
K5A6 201135Z AUTO 13003KT 10SM BKN043 BKN065 22/21 A3014 RMK AO2 T02170214
K5C1 201155Z AUTO 00000KT 10SM OVC018 23/23 A2997 RMK AO1
K5H4 201155Z AUTO 15012G18KT 10SM FEW013 FEW095 19/19 A2977 RMK AO2
K5M9 201155Z AUTO 17003KT 10SM SCT035 22/20 A3015 RMK AO2 T02180200 10226 20208
K5R8 201155Z AUTO 11004KT 10SM SCT018 SCT025 SCT120 24/23 A3001 RMK AO2 60001 70149 T02350227 10238 20232
K5SM 201125Z AUTO 19005KT 10SM CLR 05/00 A3022 RMK AO2
K5T9 201155Z AUTO 12011G17KT 10SM OVC021 27/22 A2987 RMK A01
K65S 201155Z AUTO 00000KT 10SM OVC070 09/07 A2995 RMK AO2
K66R 201155Z AUTO 00000KT 10SM CLR 24/22 A2995 RMK AO2 70168 T02350215 10245 20235
K6A1 201155Z AUTO 03003KT 10SM 13/10 A3027 RMK AO2 T01330100 10176 20116
K6A2 201155Z AUTO 06003KT 10SM CLR A3029 RMK AO2
K6B9 201155Z AUTO 00000KT 10SM CLR 10/10 A3026 RMK AO2
K6I2 201120Z AUTO 17007KT 10SM CLR 20/17 A3021 RMK AO2
K6L4 201155Z AUTO VRB04KT 10SM BKN043 OVC049 17/11 A3027 RMK AO2
K6P9 201155Z AUTO 17005KT 10SM CLR 23/21 A2994 RMK AO2 T02260214 10231 20208
K6R3 200755Z AUTO 00000KT 4SM BR OVC004 25/25 A2997 RMK AO2 T02480248
K6R6 201153Z AUTO 09009KT 24/18 A2988 RMK AO1 SLP075 T02440178 10294 20228 53012
K6S0 201155Z AUTO 30005KT 10SM SCT013 OVC090 10/08 A2991 RMK A01
K6S5 201155Z AUTO 00000KT 10SM SCT050 BKN060 OVC075 05/05 A2998 RMK AO2
K74V 201155Z AUTO 24010KT 10SM BKN110 11/01 A2982 RMK AO2
K77S 201155Z AUTO 20004KT 10SM BKN017 BKN023 OVC028 14/13 A3009 RMK A01
K79J 201156Z AUTO 08007KT 10SM CLR 19/14 A3018 RMK AO2 SLP216 T01940144 10233 20189 53014
K7BM 201148Z AUTO 27004KT 10SM CLR 11/00 A3020 RMK AO2
K7L2 201155Z AUTO 14015KT 10SM FEW037 BKN110 21/21 A2979 RMK AO2
K7N0 201156Z AUTO 00000KT 10SM CLR 27/23 A3007 RMK AO2 SLP183 60000 T02670228 10278 20250 51012
K7W4 201155Z AUTO 00000KT 10SM CLR 09/08 A3033 RMK AO1 T00860080 10095 20070
K7W6 201120Z AUTO 00000KT 10SM CLR A3030 RMK AO2
K82C 201155Z AUTO 00000KT M1/4SM FG OVC002 16/16 A3011 RMK AO2 70038 T01550155 10168 20150
K82V 201135Z AUTO 16006KT 10SM CLR 13/11 A2986 RMK AO2
K8A0 201135Z AUTO 13004KT 10SM CLR 17/11 A3026 RMK AO2
K8A3 201155Z AUTO 20006KT 10SM FEW046 SCT085 19/13 A3024 RMK A01
K8B0 201155Z AUTO 00000KT 10SM CLR 10/06 A3023 RMK AO2
K8D3 201156Z AUTO 15006KT 17/17 A2989 RMK AO1 SLP107 7//// T01720172 10178 20161 56010
K8W2 201135Z AUTO 00000KT 10SM CLR 07/06 A3032 RMK AO1 T00700064
K96D 201155Z AUTO 12009KT 10SM BKN055 BKN060 BKN090 16/16 A2982 RMK AO2 LTG DSNT W AND NW
K9A5 201155Z AUTO 00000KT 10SM CLR 15/14 A3030 RMK AO2 T01450135 10190 20142
K9D7 201155Z AUTO 13012KT 10SM SCT022 BKN031 BKN039 19/19 A2979 RMK AO2 LTG DSNT N AND NW
K9L2 201058Z AUTO 00000KT 10SM CLR 10/01 A2990 RMK AO2 SLP110 T01010009 $
K9MN 201155Z AUTO 12006KT 7SM SCT006 OVC011 18/18 A3008 RMK AO1 70001 T01800180 10196 20177
K9V9 201135Z AUTO 15010KT 10SM CLR 22/22 A2983 RMK AO2 T02220222
KA08 201155Z AUTO 16003KT 10SM CLR 19/14 A3019 RMK AO2 T01910135 10225 20191
KA39 201155Z AUTO 12007KT 10SM CLR 20/07 A2983 RMK AO2
KAAA 201135Z AUTO 00000KT 10SM BKN060 BKN120 21/19 A3013 RMK AO2 LTG DSNT N AND NW T02100193
KAAF 201153Z AUTO 05007KT 10SM CLR 21/17 A3013 RMK AO2 SLP201 T02110167 10256 20206 51015
KAAO 201154Z AUTO 13006KT 10SM FEW027 21/19 A2998 RMK AO2 SLP139 T02060194 10233 20206 53012
KAAS 201155Z AUTO 20005KT 10SM SCT046 SCT065 20/15 A3028 RMK AO1
KAAT 201155Z AUTO 00000KT 10SM OVC023 06/04 A3010 RMK AO2 SLP179 70007 T00560044 10089 20044 53004 $
KABE 201151Z 00000KT 10SM CLR 08/06 A3030 RMK AO2 SLP262 T00830061 10083 20061 53008
KABH 201058Z AUTO 10008KT 10SM CLR 11/10 A3000 RMK AO2 LTG DSNT E SLP081 T01130102 $
KABI 201152Z 08004KT 10SM OVC010 23/20 A2994 RMK AO2 SLP109 T02330200 10250 20228 51005
KABQ 201152Z 00000KT 10SM FEW130 18/09 A3003 RMK AO2 SLP083 T01830089 10200 20178 51002
KABR 201153Z AUTO 15008KT 10SM CLR 22/19 A2983 RMK AO2 SLP095 T02170194 10228 20206 52002
KABY 201153Z 02005KT 10SM CLR 18/14 A3024 RMK AO2 SLP238 T01830139 10200 20172 53015
KACB 201140Z AUTO 00000KT 5SM BR BKN100 18/17 A3013 RMK AO2 T01750167
KACJ 201135Z AUTO 04007KT 10SM CLR 15/12 A3026 RMK AO2
KACK 201153Z 28006KT 10SM CLR 16/13 A3022 RMK AO2 SLP232 T01560128 10156 20083 53005
KACP 201143Z AUTO 09006KT 10SM -RA BKN100 OVC120 23/22 A3002 RMK AO2
KACQ 201119Z AUTO 13005KT 7SM SCT046 SCT060 BKN070 18/17 A3007 RMK AO2 LTG DSNT S AND SW
KACT 201151Z AUTO 17010KT 10SM SCT013 BKN021 OVC035 26/24 A2993 RMK AO2 SLP128 60000 T02610239 10261 20256 51009 $
KACV 201153Z AUTO 10004KT 10SM CLR 10/08 A3003 RMK AO2 SLP174 T01000083 10122 20094 55000
KACY 201154Z AUTO 00000KT 10SM CLR 13/10 A3032 RMK AO2 SLP266 T01280100 10128 20072 52012
KADC 201155Z AUTO 12006KT 5SM BR SCT003 16/16 A2999 RMK AO2
KADF 201156Z AUTO 00000KT 10SM SCT030 BKN038 BKN110 21/21 A3007 RMK AO2 SLP184 70011 T02110211 10217 20194 53015
KADG 201153Z AUTO 00000KT 4SM BR CLR 15/14 A3017 RMK AO2 SLP214 T01500144 10172 20139 53008
KADH 201155Z AUTO 14005KT 4SM BR OVC003 21/21 A2996 RMK AO2
KADM 201155Z 00000KT 10SM OVC011 22/22 A2994
KADS 201153Z 18007KT 10SM -DZ OVC008 25/23 A2994 RMK LGT DSNT NE
KADU 201155Z AUTO 00000KT 3SM BR 19/17 A3003 RMK AO2
KADW 201056Z 00000KT 10SM FEW200 09/08 A3030 RMK AO2A SLP267 T00920084 $
KAEG 201149Z 32004KT 10SM FEW120 13/10 A3006
KAEJ 201155Z AUTO 25004KT 10SM BKN085 08/02 A3010 RMK AO2 T00840018 10150 20077
KAEL 201147Z AUTO 15010KT 5SM VCTSBR CLR 19/19 A3006 RMK AO2 LTG DSNT ALQD
KAEX 201153Z 20007KT 1 3/4SM +RA BR SCT009 BKN026 OVC040 22/22 A3005 RMK AO2 RAE1058B04 SLP179 P0062 60063 70068 T02220217 10228 20222 53019
KAFF 201058Z 14002KT 10SM SCT012 SCT020 BKN130 12/11 A2999 RMK AO2A SLP067 T01230107
KAFJ 201156Z AUTO 22003KT 10SM CLR 11/09 A3029 RMK AO2 SLP255 T01060094 10117 20094 53010
KAFK 201155Z AUTO 15004KT 10SM CLR 21/21 A2998 RMK AO2 T02130213 10235 20211
KAFN 201152Z AUTO 00000KT 10SM CLR 05/04 A3023 RMK AO2 SLP247 T00500039 10050 20022 53004
KAFO 201135Z AUTO 19003KT 10SM SCT050 SCT070 OVC090 06/04 A2990 RMK AO2
KAFP 201155Z AUTO 10SM 10/08 A3033 RMK AO2 T00970084 10112 20085
KAFW 201155Z 17010KT 10SM OVC012 24/23 A2991 RMK AO2 T02440228
KAGC 201153Z 15005KT 10SM CLR 12/10 A3026 RMK AO2 SLP249 T01220100 10144 20117 53010
KAGS 201153Z 00000KT 10SM CLR 12/11 A3029 RMK AO2 SLP256 T01220106 10128 20100 53015
KAHN 201151Z 06005KT 10SM -RA CLR 14/12 A3030 RMK AO2 SLP259 P0000 60000 T01440122 10167 20133 53015 $
KAHQ 201155Z AUTO 13007KT 10SM CLR 21/21 A2997 RMK AO2 70019 T02100205 10225 20205
KAIA 201153Z AUTO 15010KT 10SM CLR 15/12 A2983 RMK AO2 SLP060 T01500122 10206 20150 56010
KAIB 201155Z AUTO 09008KT 10SM CLR 15/02 A2997 RMK AO2
KAID 201155Z AUTO 15004KT 4SM BR SCT060 17/16 A3016 RMK AO2 T01700163 10191 20164
KAIG 201155Z AUTO 00000KT 1/2SM FG OVC001 14/14 A3014 RMK AO2 70032 T01390139 10153 20135
KAIK 201155Z AUTO 06004KT 7SM CLR 12/11 A3033 RMK AO2
KAIO 201155Z AUTO 00000KT 10SM CLR 20/20 A3000 RMK AO2
KAIT 201156Z AUTO 00000KT 1/2SM FG OVC003 14/13 A3004 RMK AO2
KAIZ 201156Z AUTO 14003KT 10SM CLR 20/18 A3006 RMK AO2 SLP171 T02000183 10228 20194 53003
KAJG 201135Z AUTO 7SM CLR 18/17 A3012 RMK AO2 T01770167
KAJO 201156Z AUTO 00000KT 10SM OVC024 16/14 RMK AO2 SLPNO 6//// 7//// T01560139 10178 20128 $
KAJR 201155Z AUTO 07005KT 7SM CLR 15/12 A3033 RMK AO2 T01500117 10182 20147
KAJZ 201135Z AUTO 03003KT 10SM CLR 17/04 A2991 RMK AO2 T01670041
KAKH 201154Z AUTO 00000KT 10SM CLR 14/11 A3033 RMK AO2 SLP269 T01390111 10139 20117 53012
KAKO 201153Z AUTO 18014G26KT 10SM CLR 17/12 A2988 RMK AO2 PK WND 19027/1130 SLP052 T01670122 10194 20161 55004
KAKQ 201154Z AUTO 00000KT 10SM CLR 11/09 A3034 RMK AO2 SLP273 T01060089 10106 20078 51012
KAKR 201154Z AUTO 15005KT 10SM CLR 16/11 A3021 RMK AO2 SLP226 T01560111 10172 20144 51006
KALB 201151Z 20004KT 10SM SCT250 09/06 A3029 RMK AO2 SLP256 T00890061 10089 20056 53007
KALI 201153Z AUTO 13005KT 10SM CLR 25/23 A2990 RMK AO2 SLP122 T02500228 10283 20250 51013
KALK 201156Z AUTO 22007KT 10SM CLR 20/06 A3002 RMK AO2 SLP068 T02000056 10228 20172 55001
KALM 201155Z AUTO 01003KT 10SM BKN100 19/17 A2999 RMK AO2
KALN 201150Z 10005KT 10SM SKC 18/18 A3010
KALO 201154Z 00000KT 3SM -TSRA BR BKN055 BKN070 OVC100 21/19 A3005 RMK AO2 LTG DSNT SE AND NW RAB38 TSB1057E12B53 SLP170 P0005 60005 70071 T02060189 10206 20194 53001
KALS 201152Z AUTO 17009KT 10SM BKN110 11/06 A3010 RMK AO2 SLP103 T01060056 10161 20089 56002
KALW 201153Z AUTO 16006KT 10SM BKN090 13/08 A2998 RMK AO2 SLP151 70001 T01280078 10150 20122 55000
KALX 201155Z AUTO 11003KT 10SM CLR 17/13 A3026 RMK AO2 T01730128 10214 20171
KAMA 201153Z 04004KT 10SM FEW036 BKN045 17/14 A3001 RMK AO2 LTG DSNT W AND NW SLP128 70053 T01670144 10183 20156 50017
KAMG 201153Z AUTO VRB03KT 10SM BKN070 18/13 A3021 RMK AO2 SLP229 T01780128 10183 20172 53015
KAMN 201135Z AUTO 00000KT 7SM SCT120 16/15 A3016 RMK AO2 T01570145
KAMW 201153Z AUTO 00000KT 1/4SM FG VV002 18/18 A3003 RMK AO2 SLP161 70010 T01780178 10206 20172 53002
KANB 201153Z AUTO 06004KT 10SM CLR 18/12 A3028 RMK AO2 SLP245 T01780117 10211 20178 53020
KAND 201156Z AUTO 06004KT 10SM CLR 15/12 A3032 RMK AO2 SLP262 T01500122 10172 20144 53015
KANE 201157Z AUTO 12005KT 3SM BR BKN002 19/19 A3005 RMK AO2
KANJ 201155Z AUTO 00000KT 9SM BKN065 16/14 A3013 RMK AO2 SLP201 60000 T01560144 10178 20156 53005
KANK 201155Z AUTO 00000KT 10SM CLR 15/04 A3015 RMK AO1 T01500040 10184 20127
KANQ 201155Z AUTO 00000KT 1/2SM FG VV005 16/ A3015 RMK AO2
KANW 201155Z AUTO 17010KT 10SM CLR 20/20 A2988 RMK AO2 T01950195 10242 20195
KAOH 201153Z AUTO 18007KT 10SM SCT060 19/17 A3017 RMK AO2 SLP209 T01890167 10211 20189 53008
KAOO 201153Z AUTO 00000KT 9SM CLR 11/08 A3030 RMK AO2 SLP261 T01060078 10106 20078 53009
KAPA 201153Z 16008KT 10SM FEW150 SCT220 16/08 A2990 RMK AO2 SLP049 T01610083 10189 20156 56002
KAPC 201154Z AUTO 00000KT 10SM CLR 11/09 A2992 RMK AO2 SLP124 T01110089 10150 20078 58003
KAPF 201153Z 04008KT 10SM CLR 24/22 A2999 RMK AO2 SLP154 T02390222 10239 20228 53013
KAPG 201054Z 00000KT 8SM SCT200 07/06 A3031 RMK SLP267
KAPN 201154Z AUTO 00000KT 10SM CLR 16/14 A3015 RMK AO2 SLP210 T01610144 10161 20150 53006 $
KAPS 201155Z AUTO 00000KT 10SM CLR 25/22 A3006 RMK AO2 7//// T02500219 10269 20250
KAPY 201155Z AUTO 14009KT 10SM OVC016 27/23 A2987 RMK AO2 T02700228 10282 20268
KAQO 201135Z AUTO 16004KT 10SM CLR 26/22 A2997 RMK AO2
KAQP 201151Z AUTO 13008KT 10SM CLR 21/18 A2994 RMK AO2
KAQR 201155Z AUTO 14003KT 4SM -RA BKN006 OVC009 21/21 A2996 RMK AO2
KAQV 201156Z AUTO 00000KT 9SM -RA BKN100 A3003 RMK AO2 RAB52 SLPNO P0000 60003 70047 53012 $
KAQW 201152Z AUTO 00000KT 1SM BR VV002 04/04 A3029 RMK AO2 SLP261 T00390039 10039 20022 51006
KAQX 201155Z AUTO 02005KT 10SM CLR 16/13 A3027 RMK AO2 TSNO
KARA 201153Z 08004KT 10SM FEW025 26/25 A3004 RMK AO2 SLP173 60000 T02560250 10267 20239 53016 $
KARB 201153Z AUTO 00000KT M1/4SM FG VV002 13/13 A3015 RMK AO2 SLP209 T01280128 10156 20122 53008
KARG 201156Z AUTO 16006KT 10SM SCT095 23/22 A3010 RMK AO2 SLP190 T02280217 10244 20228 53015
KARM 201155Z AUTO 00000KT 5SM BR CLR 24/23 A2996 RMK AO2 7//// T02370230 10250 20237
KARR 201152Z 00000KT 7SM SCT042 BKN055 20/18 A3012 RMK AO2 SLP196 T02000183 10200 20183 53009
KART 201156Z AUTO 21003KT 10SM CLR 13/09 A3024 RMK AO2 SLP241 T01280094 10128 20067 53013
KARV 201115Z AUTO 00000KT 1/4SM FG OVC002 16/14 A3013 RMK AO2 T01600142
KARW 201155Z AUTO 03009KT 7SM CLR 18/16 A3023 RMK AO2
KASD 201153Z AUTO 00000KT 10SM BKN036 24/22 A3007 RMK AO2 SLP182 60000 70005 T02440222 10256 20244 51014
KASE 201153Z AUTO 16008KT 10SM CLR 11/03 A3002 RMK AO2 SLP046 T01060028 10156 20100 58008 $
KASG 201048Z 11006KT 10SM CLR 21/21 A3004
KASH 201156Z 00000KT 10SM CLR 07/06 A3021 RMK AO2 SLP236 T00670061 10067 20028 53003
KASJ 201155Z AUTO 00000KT 10SM CLR 10/10 A3034 RMK AO2 T00960096 10100 20075
KASL 201155Z AUTO 10SM SCT017 BKN047 OVC065 21/20 A3003 RMK AO1 60066 70118 T02110200 10211 20211
KASN 201155Z AUTO 08003KT 10SM CLR 17/13 A3027 RMK AO2 T01710125 10217 20170
KAST 201155Z AUTO 22004KT 10SM SCT021 OVC030 14/13 A3008 RMK AO2 RAB10E22 SLP184 P0000 60000 T01440133 10156 20139 56006
KASW 201155Z AUTO 00000KT 2SM BR CLR 15/15 A3014 RMK AO2
KASX 201153Z AUTO 04003KT 1/4SM FG VV002 15/15 A3012 RMK AO2 SLP199 T01500150 10150 20106 53007
KATL 201152Z 08008KT 10SM FEW070 FEW250 17/12 A3030 RMK AO2 SLP253 T01670117 10194 20167 53015
KATP 201155Z AUTO 11018KT 10SM FEW035 28/21 A3001 RMK A01
KATS 201155Z AUTO 36005KT 10SM FEW031 FEW080 SCT100 19/19 A2999 RMK AO2 P0005
KATT 201151Z AUTO VRB06KT 10SM SCT013 BKN021 OVC060 27/24 A2995 RMK AO2 RAB18E20 SLP129 P0000 60000 70034 T02670239 10267 20256 53015
KATW 201145Z 00000KT 1/8SM R03/0600FT FG VV002 16/16 A3011
KATY 201153Z AUTO 15009KT 10SM CLR 20/19 A2992 RMK AO2 SLP123 7//// T02000194 10211 20200 55002
KAUG 201153Z AUTO 33003KT 10SM CLR 11/08 A3018 RMK AO2 SLP221 T01110083 10111 20056 53006
KAUH 201155Z AUTO 16005KT 10SM SCT120 20/19 A2996 RMK AO2 T01960192 10226 20196
KAUM 201156Z AUTO 00000KT 5SM VCTS HZ SCT038 20/16 A3009 RMK AO2 LTG DSNT S THRU W
KAUN 201155Z AUTO 00000KT 10SM CLR 14/05 A2993 RMK A01
KAUO 201156Z AUTO 07007KT 10SM CLR A3027 RMK AO2 SLPNO 53017 FZRANO $
KAUS 201153Z 15009KT 10SM FEW021 BKN030 27/24 A2994 RMK AO2 SLP126 T02670244 10267 20250 53013 $
KAUW 201154Z AUTO 13004KT 1/4SM FG VV002 16/16 A3012 RMK AO2 SLP201 70006 T01560156 10178 20156 53007
KAVC 201155Z AUTO 00000KT 09/09 A3040 RMK AO2 T00860086 10105 20067
KAVK 201155Z AUTO 16008KT 10SM SCT044 BKN049 20/19 A2995 RMK AO2
KAVL 201154Z 14003KT 10SM FEW002 BKN032 13/11 A3036 RMK AO2 SLP267 T01280111 10150 20122 53009
KAVP 201154Z 00000KT 10SM CLR 09/06 A3030 RMK AO2 SLP261 T00890061 10094 20072 53006
KAVQ 201155Z AUTO 11005KT 10SM CLR 18/07 A2982 RMK AO2 T01830074
KAVX 201151Z AUTO 16003KT 10SM CLR 14/12 A2989 RMK AO2 SLP109 T01440122 10189 20144 53003
KAWG 201155Z AUTO 14005KT 4SM BR CLR 20/20 A3005 RMK AO2
KAWM 201153Z AUTO 16009KT 8SM BKN055 OVC075 24/23 A3010 RMK AO2 SLP187 T02440228 10250 20239 53014 $
KAWO 201156Z AUTO 00000KT 10SM OVC018 14/13 A3007 RMK AO2 SLP186 6//// 7//// T01390133 10144 20139 55002 PNO $
KAXA 201155Z AUTO 14008KT 4SM BR CLR 21/21 A3002 RMK A01
KAXH 201155Z AUTO 00000KT 5SM BR SCT120 24/24 A2996 RMK AO2 7//// T02410241 10252 20238
KAXN 201153Z AUTO 13007KT 10SM FEW039 18/17 A3000 RMK AO2 SLP155 T01830172 10183 20172 56006
KAXS 201155Z AUTO 10006KT 5SM BR SCT016 21/19 A2994 RMK AO2 T02100192 10236 20208
KAXV 201155Z AUTO 00000KT 7SM SCT060 SCT070 17/16 A3016 RMK AO2
KAXX 201155Z AUTO 20008KT 09/07 A3021 RMK AO2 T00860070 10141 20031 PWINO
KAYS 201155Z AUTO 01004KT 10SM CLR 18/12 A3021 RMK AO2 T01800124 10195 20174 TSNO
KAZC 201155Z AUTO 12005KT CLR 06/M05 A2996 RMK AO2 PWINO
KAZE 201130Z AUTO 00000KT 10SM CLR 17/12 A3022 RMK AO2 T01730120
KAZO 201153Z 00000KT 10SM CLR 17/14 A3016 RMK AO2 SLP209 T01670144 10167 20144 53008
KBAB 201058Z AUTO 32009KT 10SM CLR 12/10 A2990 RMK AO2 SLP128 T01210102 $
KBAC 201155Z AUTO 15013G20KT 10SM CLR 21/21 A2986 RMK AO2
KBAD 201156Z AUTO 15005KT 10SM SCT095 BKN120 20/20 A3002 RMK AO2 RAE24 SLP167 P0001 60061 70071 T02020202 10234 20202 53007
KBAF 201153Z 00000KT 10SM CLR 06/04 A3025 RMK AO2 SLP246 T00560044 10056 20028 53007 $
KBAK 201045Z 00000KT 10SM SCT060 17/15 A3015
KBAM 201155Z AUTO 00000KT 10SM BKN044 OVC050 07/06 A3003 RMK AO1
KBAN 201152Z AUTO 00000KT 10SM CLR 01/M04 A3008 RMK AO2 SLP157 T00061039 10056 20006 55001 FZRANO $
KBAX 201156Z AUTO 00000KT 7SM CLR 14/13 A3016 RMK AO2 T01350127 10155 20134
KBAZ 201151Z AUTO 18011KT 10SM FEW018 SCT023 BKN042 27/24 A2993 RMK AO2 RAB1055E13 SLP127 P0000 60000 70002 T02670239 10272 20261 53016
KBBB 201155Z AUTO 16006KT 10SM CLR 20/18 A2997 RMK AO2
KBBD 201155Z AUTO 16013KT 10SM OVC018 24/21 A2994 RMK AO2
KBBF 201155Z AUTO 18017KT 10SM CLR 29/24 A2992 RMK A01
KBBG 201145Z 11006KT 8SM SCT180 20/20 A3009
KBBP 201155Z AUTO 00000KT 10SM CLR 12/12 A3032 RMK AO2
KBBW 201153Z AUTO 14008KT 10SM CLR 20/19 A2993 RMK AO2 SLP110 T02000189 10228 20200 53002
KBCB 201155Z AUTO 00000KT 10SM CLR 09/09 A3038 RMK AO2 T00930093 10095 20076
KBCE 201153Z AUTO 18003KT 10SM CLR M02/M09 A2998 RMK AO2 SLP067 T10171089 10033 21017 56003 $
KBCK 201155Z AUTO 00000KT M1/4SM FG OVC002 16/16 A3010 RMK AO2 7//// T01600160 10165 20145
KBCT 201147Z 08015G25KT 10SM SCT023 27/22 A2999
KBDE 201153Z AUTO 13009KT 10SM CLR 14/12 A3001 RMK AO2 SLP166 T01390122 10139 20128 56018
KBDG 201155Z AUTO 16004KT 10SM 13/02 A3002 RMK AO1 T01310021 10175 20126
KBDH 201136Z AUTO 12010KT 7SM SCT048 SCT055 21/19 A3002 RMK AO2
KBDL 201151Z 00000KT 10SM FEW002 FEW200 FEW250 08/06 A3025 RMK AO2 SLP244 T00830061 10083 20033 53008
KBDN 201155Z AUTO 23005KT 10SM -DZ FEW044 BKN055 09/06 A3006 RMK AO2
KBDR 201152Z 00000KT 10SM CLR 12/08 A3026 RMK AO2 SLP248 T01220078 10122 20094 53009
KBDU 201148Z AUTO 00000KT 10SM SCT120 15/06 A2985 RMK AO2
KBEA 201155Z AUTO 10SM CLR 26/24 RMK AO2 T02630244 10295 20263 TSNO
KBEC 201155Z AUTO 12005KT 10SM SCT027 20/19 A2999 RMK AO2 T02000187 10230 20200
KBED 201151Z 00000KT 10SM FEW250 08/05 A3020 RMK AO2 SLP239 T00830050 10083 20039 51004 $
KBEH 201153Z AUTO 00000KT 10SM CLR 17/15 A3013 RMK AO2 SLP201 T01670150 10183 20161 53008
KBFD 201153Z AUTO 00000KT 10SM CLR 06/05 A3028 RMK AO2 SLP256 T00610050 10078 20044 51008
KBFF 201153Z AUTO 09006KT 10SM CLR 18/13 A2982 RMK AO2 SLP050 60000 T01780133 10206 20172 55005
KBFI 201153Z 14006KT 10SM BKN009 BKN030 OVC036 16/13 A3006 RMK AO2 SLP180 T01560133 10167 20156 55000
KBFL 201154Z AUTO 11004KT 10SM CLR 16/07 A2993 RMK AO2 SLP129 T01610072 10194 20150 53004
KBFM 201153Z 08016G20KT 10SM CLR 24/19 A3014 RMK AO2 SLP204 70300 T02440194 10267 20244 53014
KBGD 201151Z AUTO 08004KT 10SM BKN050 18/16 A3001 RMK AO2 LTG DSNT W-NE SLP131 60002 70227 T01830161 10211 20183 50021
KBGE 201155Z AUTO 04007KT 10SM CLR 19/15 A3020 RMK AO2 T01860154 10188 20177
KBGF 201155Z AUTO 13009KT 10SM BKN060 BKN075 19/11 A3025 RMK A01
KBGM 201153Z 00000KT 10SM CLR 09/07 A3028 RMK AO2 SLP254 T00890067 10111 20072 53006
KBGR 201153Z 00000KT 10SM FEW100 10/08 A3015 RMK AO2 SLP208 T01000078 10100 20050 53001
KBHB 201156Z AUTO 21003KT 10SM CLR 11/10 A3015 RMK AO2 SLP212 T01060100 10106 20044 53002
KBHC 201135Z AUTO 04008KT 10SM CLR 16/12 A3021 RMK AO2
KBHK 201151Z AUTO 26011KT 10SM CLR 13/11 A2981 RMK AO2 SLP073 T01280106 10206 20122 53011
KBHM 201153Z 09004KT 10SM FEW150 BKN250 21/11 A3026 RMK AO2 SLP238 T02060106 10239 20206 53016
KBID 201156Z AUTO 29007KT 10SM CLR A3024 RMK AO2 SLPNO 7//// 53003 FZRANO $
KBIE 201155Z AUTO 15006KT 10SM CLR 23/21 A2997 RMK AO2 70013 T02250205 10240 20224
KBIF 201058Z AUTO 03005KT 10SM BKN080 BKN090 OVC110 24/14 A2993 RMK AO2 SLP065 T02350140 $
KBIH 201156Z AUTO 32012KT 10SM CLR 10/00 A3002 RMK AO2 SLP132 T01000000 10139 20094 53003
KBIJ 201135Z AUTO 05003KT 10SM CLR 16/13 A3021 RMK AO2
KBIL 201153Z 02008KT 10SM SCT075 BKN120 12/07 A2987 RMK AO2 SLP095 T01220072 10150 20122 58007 $
KBIS 201152Z 17014G22KT 10SM SCT009 20/19 A2975 RMK AO2 LTG DSNT S SLP065 T02000189 10211 20194 55008
KBIV 201153Z AUTO 10SM CLR 17/16 A3013 RMK AO2 SLP200 60000 T01720161 10183 20172 51006
KBIX 201156Z AUTO 09011KT 10SM CLR 24/20 A3009 RMK AO2 SLP192 70027 T02380203 10281 20238 52010
KBJC 201148Z AUTO 00000KT 10SM CLR 15/08 A2987 RMK AO2
KBJI 201156Z AUTO 12007KT 5SM BR CLR 15/14 A3001 RMK AO2 T01450143 10158 20145
KBJJ 201156Z AUTO 00000KT 10SM FEW055 13/12 A3022 RMK AO2 SLP232 T01280122 10128 20106 53007
KBKB 201054Z AUTO 00000KT 10SM OVC100 23/22 A2999 RMK AO2 RAE42 SLP183 P0002 T02330222
KBKD 201155Z AUTO 5SM BR OVC023 23/22 A2993 RMK AO2 T02300218 10244 20226
KBKE 201153Z AUTO 21007KT 10SM FEW075 06/03 A3001 RMK AO2 SLP162 7//// T00560033 10083 20044 55003
KBKF 201058Z 18013KT 10SM BKN130 BKN220 16/10 A2988 RMK AO2A SLP037 T01630099
KBKL 201153Z 15011G20KT 10SM SCT065 17/11 A3017 RMK AO2 SLP212 T01720111 10194 20172 53005
KBKN 201155Z AUTO 14007KT 10SM OVC017 23/22 A2998 RMK AO2
KBKS 201155Z AUTO 11005KT 10SM CLR 26/24 A2989 RMK AO1 T02610238 10285 20261
KBKT 201155Z AUTO 00000KT 10SM CLR A3035 RMK AO1
KBKV 201153Z 03007KT 10SM CLR 21/19 A3010 RMK AO2 SLP190 T02110194 10217 20211 53014
KBKW 201151Z AUTO 13007KT 10SM BKN033 13/08 A3032 RMK AO2 SLP253 T01330078 10133 20122 53009
KBKX 201156Z AUTO 15012KT 10SM CLR 21/21 A2995 RMK AO2 SLP146 T02060206 10211 20200 55001
KBLF 201152Z AUTO 00000KT 10SM FEW044 11/08 A3034 RMK AO2 SLP259 T01110078 10133 20094 53010
KBLH 201152Z AUTO 32005KT 10SM CLR 22/01 A2975 RMK AO2 SLP068 T02220006 10256 20211 53005
KBLI 201153Z AUTO 00000KT 10SM SCT035 OVC043 16/12 A3005 RMK AO2 SLP180 70001 T01560122 10156 20150 55002
KBLM 201156Z AUTO 24005KT 10SM CLR 12/09 A3031 RMK AO2 SLP265 T01170094 10117 20089 53010
KBLU 201152Z AUTO VRB06KT 10SM CLR 08/01 A3005 RMK AO2 SLP135 T00830011 10083 20078 56001
KBLV 201056Z AUTO 00000KT 10SM CLR 19/18 A3007 RMK AO2 SLP182 T01890181 $
KBMC 201130Z AUTO 35006KT 10SM SCT060 OVC075 11/04 A2989 RMK AO1 T01100039
KBMG 201153Z 15004KT 4SM BR CLR 16/14 A3015 RMK AO2 SLP205 T01560144 10189 20156 51010
KBMI 201156Z 00000KT 10SM SCT060 BKN080 OVC120 20/18 A3014 RMK AO2 LTG DSNT E TSE20 SLP201 T02000183 10222 20194 51008
KBML 201152Z AUTO 00000KT 10SM SCT001 04/03 A3025 RMK AO2 SLP252 T00390028 10039 20011 51009
KBMQ 201127Z AUTO 17006KT 10SM FEW019 SCT026 25/23 A2997 RMK AO2 T02500228
KBMT 201155Z AUTO 11004KT 10SM SCT019 SCT060 BKN120 26/23 A2998 RMK AO2 T02600233 10266 20260
KBNA 201153Z 14005KT 10SM FEW048 SCT060 BKN160 BKN250 21/13 A3023 RMK AO2 SLP231 T02110133 10233 20200 53017
KBNL 201155Z AUTO 04006KT CLR 15/12 A3029 RMK AO2
KBNO 201153Z AUTO 25004KT 10SM CLR 01/M01 A3004 RMK AO2 SLP166 70001 T00111006 10083 20011 58003 $
KBNW 201155Z AUTO 11003KT M1/4SM FG OVC002 19/19 A3003 RMK AO2 VIS M1/4V5
KBOI 201153Z AUTO 29007KT 10SM OVC100 10/06 A2992 RMK AO2 RAB04E14 SLP122 P0000 60000 T01000061 10122 20100 55000
KBOK 201156Z AUTO 00000KT 10SM CLR 14/10 A3008 RMK AO2 SLP184 T01390100 10178 20133 55002
KBOS 201054Z 20004KT 10SM FEW150 FEW250 12/06 A3020 RMK AO2 SLP225 T01170061
KBOW 201150Z 07008G14KT 7SM SCT010 BKN025 24/21 A3007
KBPC 201155Z AUTO 00000KT 5SM RA SCT027 BKN040 OVC049 18/15 A3000 RMK AO2 P0003
KBPG 201135Z AUTO 08008KT 10SM CLR 22/19 A2996 RMK AO2 T02220187
KBPI 201153Z AUTO 07006KT 10SM OVC070 08/04 A2989 RMK AO2 LTG DSNT NE RAE17 SLP035 P0000 60000 T00830044 10122 20072 55006
KBPK 201153Z AUTO 13004KT 10SM CLR 22/21 A3008 RMK AO2 SLP176 T02170206 10239 20217 53011
KBPT 201153Z 11005KT 10SM SCT023 BKN028 BKN120 26/23 A2998 RMK AO2 SLP151 60000 70462 T02560228 10278 20250 53009
KBQK 201155Z AUTO 02007KT 10SM SCT065 19/17 A3019 RMK AO2 T01880172 10243 20184 60004 70004
KBQP 201135Z AUTO 00000KT 10SM BKN026 BKN038 BKN045 22/22 A3008 RMK AO2 T02220220
KBQX 201155Z AUTO 16014KT 10SM CLR 29/26 A2995 RMK A01
KBRD 201153Z AUTO 13005KT 1/4SM FG VV002 19/17 A3004 RMK AO2 SLP167 T01890167 10194 20178 55000
KBRG 201155Z AUTO 00000KT 10SM CLR 16/11 A3002 RMK AO2 T01610107 10196 20151
KBRL 201153Z AUTO 05008KT 7SM CLR 22/19 A3009 RMK AO2 SLP186 T02170194 10239 20211 53017
KBRO 201153Z 15005KT 10SM CLR 26/23 A2988 RMK AO2 SLP117 T02610233 10283 20261 53005
KBRY 201155Z AUTO 00000KT 10SM CLR 19/15 A3020 RMK AO1
KBTA 201155Z AUTO 12005KT 10SM CLR 22/21 A2998 RMK AO2 70020 T02190206 10246 20219
KBTL 201153Z 00000KT 10SM CLR 17/16 A3015 RMK AO2 SLP207 T01670156 10167 20150 53008
KBTM 201153Z AUTO 00000KT 10SM BKN030 OVC049 07/05 A2998 RMK AO2 SLP133 70008 T00670050 10072 20061 55001
KBTP 201156Z AUTO 00000KT 10SM CLR 10/09 A3027 RMK AO2 SLP256 6//// 7//// T01000089 10117 20078 53011 PNO $
KBTR 201153Z 06004KT 8SM CLR 23/22 A3006 RMK AO2 SLP178 T02330222 10239 20228 52014
KBTV 201154Z 00000KT 10SM SCT150 BKN200 11/07 A3025 RMK AO2 SLP244 VCFG T01060072 10106 20078 53008
KBUF 201154Z 14005KT 10SM FEW200 FEW250 13/09 A3023 RMK AO2 SLP236 T01280089 10144 20117 53006
KBUR 201153Z 00000KT 10SM CLR 16/12 A2987 RMK AO2 SLP104 T01560122 10194 20156 53002
KBUU 201155Z AUTO 00000KT 3SM BR CLR 06/05 A3012 RMK AO2 T00590054 10077 20057
KBUY 201154Z AUTO 00000KT 6SM BR CLR 11/09 A3034 RMK AO2 SLP271 T01110089 10117 20078 53014
KBVE 201151Z AUTO 10006KT 9SM CLR 27/21 A3006 RMK AO2 SLP180 60003 70003 T02670206 10267 20250 51010
KBVI 201155Z AUTO 14003KT 10SM CLR 13/10 A3026 RMK AO2 T01330102
KBVN 201155Z AUTO 15006KT 10SM CLR 21/20 A2995 RMK AO2 T02110202 10230 20210
KBVO 201153Z AUTO 15005KT 10SM OVC026 23/20 A2998 RMK AO2 SLP140 T02280200 10239 20200 53007
KBVS 201155Z AUTO 00000KT 10SM FEW014 BKN019 OVC050 14/13 A3006 RMK A01
KBVU 201155Z AUTO 33011G16KT 10SM FEW039 SCT050 BKN080 20/M01 A2984 RMK AO2
KBVX 201156Z AUTO 00000KT 10SM CLR 22/21 A3010 RMK AO2 SLP189 6//// 7//// T02220206 10244 20217 53015
KBVY 201153Z 00000KT 10SM CLR 09/07 A3019 RMK AO2 SLP219 T00940067 10094 20056 53005
KBWD 201115Z AUTO 14004KT 10SM BKN065 23/22 A2993 RMK AO1
KBWG 201153Z AUTO 20006KT 10SM CLR 22/14 A3021 RMK AO2 SLP225 T02170144 10250 20217 53015
KBWI 201154Z 26003KT 10SM SCT250 12/09 A3032 RMK AO2 SLP265 T01170094 10117 20094 53008
KBWP 201155Z AUTO 14012KT 10SM 20/17 A2990 RMK AO1
KBWW 201155Z AUTO 22004KT M1/4SM FG OVC002 18/18 A2976 RMK AO2
KBXA 201155Z AUTO 09003KT 10SM SCT033 24/21 A3010 RMK AO2 T02380214 10240 20229
KBXK 201155Z AUTO 36006KT 10SM CLR 19/08 A2977 RMK A01
KBYG 201153Z AUTO 32011KT 10SM CLR 10/06 A2988 RMK AO2 SLP084 T01000061 10133 20100 56013
KBYI 201153Z AUTO 26008KT 10SM OVC060 09/04 A2992 RMK AO2 SLP115 T00890044 10089 20078 55002
KBYL 201155Z AUTO 13005KT 10SM CLR 17/15 A3026 RMK AO1
KBYS 201058Z AUTO 35007KT 10SM CLR 13/02 A2988 RMK AO2 SLP099 T01310015 $
KBYY 201155Z AUTO 00000KT 10SM SCT021 SCT026 27/26 A2995 RMK AO2 T02710262
KBZN 201156Z 16004KT 10SM BKN060 06/04 A2994 RMK AO2 SLP123 T00610044 10106 20044 53003
KC07 201154Z AUTO 10SM CLR 07/00 A3019 RMK AO2
KC09 201135Z AUTO 00000KT 7SM SCT060 20/20 A3011 RMK AO2 LTG DSNT W T02000197
KC29 201135Z AUTO 00000KT 1/2SM OVC002 15/14 A3011 RMK AO1 T01530143
KC35 201155Z AUTO 00000KT M1/4SM OVC002 16/16 A3011 RMK AO2 70015 T01550155 10167 20153 PWINO
KC62 201155Z AUTO 00000KT 2SM BR CLR 16/16 A3016 RMK AO2 T01640164
KC65 201155Z AUTO 00000KT 9SM CLR 15/14 A3014 RMK A01
KC75 201155Z AUTO 00000KT 7SM VCTSRA SCT065 OVC090 19/19 A3012 RMK AO2 LTG DSNT SW AND W P0005 6//// 7//// T01910186
KC83 201155Z AUTO 33008KT 10SM CLR 19/07 A2992 RMK AO2
KC99 201112Z AUTO 27007KT 10SM CLR 07/M02 A3021 RMK AO2
KCAD 201156Z AUTO 00000KT 10SM CLR 16/15 A3014 RMK AO2 T01650150
KCAE 201156Z 00000KT 9SM CLR 13/10 A3030 RMK AO2 SLP258 T01280100 10150 20106 53015
KCAG 201153Z AUTO 12005KT 10SM CLR 06/02 A2990 RMK AO2 SLP063 T00610022 10106 20061 50001
KCAK 201151Z 17005KT 10SM FEW055 16/12 A3022 RMK AO2 SLP227 T01560117 10172 20144 51006
KCAO 201155Z AUTO 22009KT 10SM CLR 15/13 A3005 RMK AO2 SLP120 60034 70034 T01500133 10161 20144 56023
KCAR 201154Z AUTO 22004KT 10SM CLR 11/08 A3008 RMK AO2 SLP193 T01060078 10106 20078 56004
KCAV 200815Z AUTO VRB06KT 2 1/2SM BR SCT005 SCT030 OVC041 21/21 A3005 RMK A01
KCBE 201120Z AUTO 00000KT 10SM SCT002 07/07 A3035 RMK AO2 T00710067
KCBF 201155Z AUTO 14007KT 10SM CLR 21/21 A2997 RMK AO2
KCBG 201156Z AUTO 11003KT 3/4SM HZ OVC001 20/14 A3006 RMK AO2
KCBK 201155Z AUTO 16013KT 10SM CLR 18/15 A2992 RMK AO2 PWINO
KCBM 201156Z AUTO 11005KT 10SM OVC047 22/15 A3018 RMK AO2 SLP221 T02160154 10228 20210 52020
KCCA 201155Z AUTO 00000KT 4SM BR BKN004 OVC010 20/20 A3008 RMK AO2
KCCB 201155Z AUTO 27007KT 10SM 17/15 A2989 RMK AO2
KCCO 201155Z AUTO 09005KT 10SM CLR 17/13 A3029 RMK AO2 T01710133 10201 20167
KCCR 201153Z AUTO 19004KT 10SM CLR 14/09 A2993 RMK AO2 SLP120 T01440089 10183 20133 58002
KCCU 201153Z AUTO 17019G23KT 10SM CLR 07/00 A3030 RMK AO2
KCCY 201155Z AUTO 00000KT 3SM -RA SCT003 BKN034 BKN050 19/19 A3008 RMK AO2 P0001
KCDA 201156Z AUTO 00000KT 10SM CLR 06/05 A3027 RMK AO2 T00560052 10056 20036
KCDC 201153Z AUTO 00000KT 10SM CLR 05/00 A2997 RMK AO2 SLP097 60000 T00500000 10111 20044 53008
KCDD 201123Z AUTO 00000KT 1 1/2SM BR BKN001 06/06 A3011 RMK AO2
KCDH 201155Z AUTO 00000KT 9SM FEW036 BKN045 21/19 A3007 RMK AO2
KCDI 201157Z AUTO 00000KT 10SM CLR 11/11 A3024 RMK AO2 T01110107 10117 20103
KCDJ 201152Z AUTO 00000KT 21/19 A3004 RMK AO1 SLP162 T02060194 10228 20200
KCDN 201155Z AUTO 04005KT 10SM CLR 13/11 A3032 RMK AO2
KCDR 201153Z AUTO 24005KT 10SM CLR 18/12 A2976 RMK AO2 PK WND 17027/1118 SLP051 T01830122 10256 20183 55005
KCDS 201153Z AUTO 10004KT 8SM CLR 21/19 A2994 RMK AO2 SLP112 60000 70009 T02060194 10217 20206 53005
KCDW 201153Z 00000KT 10SM CLR 11/08 A3030 RMK AO2 SLP265 T01060078 10106 20078 53010
KCEC 201156Z AUTO 02005KT 10SM CLR 14/12 A3006 RMK AO2 SLP179 T01390117 10156 20128 55002
KCEF 201056Z 00000KT 10SM FEW250 03/02 A3023 RMK AO2A SLP244 T00250022
KCEU 201154Z AUTO 00000KT 10SM CLR 15/12 A3033 RMK AO2 SLP266 T01500117 10183 20144 53013
KCEW 201153Z AUTO 06003KT 10SM CLR 17/14 A3017 RMK AO2 SLP214 T01720144 10206 20156 53012
KCEY 201155Z AUTO 15011G17KT 10SM FEW030 SCT040 SCT047 22/20 A3016 RMK AO1
KCEZ 201153Z AUTO 28003KT 10SM CLR 10/03 A2998 RMK AO2 SLP087 70002 T01000033 10189 20100 56002
KCFD 201155Z AUTO 13003KT 10SM SCT005 BKN022 OVC120 25/25 A2998 RMK AO2 70006 T02540254 10261 20250
KCFE 201155Z 5SM BR CLR 19/18 A3004 RMK AO2 T01850175 10196 20180
KCFJ 201155Z AUTO 00000KT 3SM BR CLR 14/14 A3014 RMK AO2 T01390139 10156 20134
KCFS 201140Z AUTO 00000KT 4SM BR CLR 15/14 A3015 RMK AO2 T01470137
KCFV 201152Z AUTO 13007KT 10SM CLR 22/19 A2997 RMK AO2 SLP141 T02220194 10239 20217 53002
KCGC 201155Z AUTO 06005KT 10SM CLR 21/20 A3011 RMK AO2
KCGE 201120Z AUTO 00000KT 10SM CLR 08/07 A3032 RMK A01
KCGF 201145Z 16007KT 10SM SCT060 17/12 A3019
KCGI 201153Z 15006KT 5SM BR CLR 23/21 A3011 RMK AO2 SLP192 T02280211 10233 20206 53011
KCGS 201122Z AUTO 00000KT 10SM CLR A3031 RMK AO1
KCGZ 201156Z AUTO 00000KT 10SM CLR 20/06 RMK AO2 SLPNO 6//// 7//// T02000056 10267 20183 $
KCHA 201153Z 00000KT 10SM SCT100 SCT250 18/13 A3029 RMK AO2 SLP250 T01830133 10211 20172 53016 $
KCHK 201135Z AUTO 14004KT 10SM SCT018 OVC049 22/21 A2991 RMK AO2 T02220207
KCHO 201153Z 19003KT 10SM CLR 11/08 A3032 RMK AO2 SLP264 T01110083 10111 20094 53007
KCHS 201156Z 03010KT 10SM CLR 17/14 A3025 RMK AO2 SLP244 T01670144 10172 20156 52019
KCIC 201155Z AUTO 00000KT 10SM CLR 14/06 A2995 RMK AO1
KCID 201152Z 11005KT 5SM BR CLR 19/19 A3005 RMK AO2 SLP170 60002 70003 T01940194 10206 20189 55002
KCIN 201155Z AUTO 13004KT 1/2SM FG VV005 19/19 A3000 RMK AO2
KCIR 201135Z AUTO 14006KT 10SM OVC031 23/22 A3012 RMK AO2 T02300217
KCIU 201156Z AUTO 00000KT 10SM FEW100 16/15 A3014 RMK AO2 SLP206 60000 T01560150 10167 20156 53006
KCJR 201135Z AUTO 00000KT 10SM CLR 06/05 A3033 RMK AO2 T00600052
KCKB 201153Z 00000KT 10SM CLR 12/09 A3028 RMK AO2 SLP243 T01170094 10139 20100 53009
KCKF 201155Z AUTO 07004KT 10SM CLR 15/11 A3026 RMK AO2 T01480113 10165 20140
KCKI 201155Z AUTO 00000KT 7SM CLR 15/14 A3030 RMK AO2
KCKM 201155Z AUTO 12006KT 10SM 23/23 A3012 RMK A01
KCKN 201156Z AUTO 14013KT 10SM CLR 19/16 A2989 RMK AO2
KCKP 201155Z AUTO 00000KT 7SM CLR 20/20 A2999 RMK AO2 70004 T02010201 10213 20200
KCKV 201152Z AUTO 14005KT 10SM CLR 19/17 A3019 RMK AO2 SLP218 T01940167 10228 20194 53014
KCKZ 201155Z AUTO 00000KT 10SM CLR 08/08 A3031 RMK AO2
KCLE 201151Z 18004KT 10SM FEW060 SCT250 17/12 A3021 RMK AO2 SLP224 T01720122 10183 20161 53006 $
KCLI 201155Z AUTO 00000KT M1/4SM FG OVC002 16/15 A3012 RMK AO2 P0001 60001 7//// T01580151 10170 20157
KCLK 201215Z AUTO 10004KT 10SM SCT014 SCT020 20/17 A2996 RMK AO2
KCLL 201153Z AUTO 14007KT 10SM BKN100 OVC120 26/25 A2996 RMK AO2 SLP140 70052 T02560250 10261 20256 53012
KCLM 201153Z AUTO 20004KT 10SM CLR 11/11 A3007 RMK AO2 SLP182 70004 T01110106 10133 20106 55005
KCLS 201155Z AUTO 00000KT 10SM OVC026 13/13 A3008 RMK AO2
KCLT 201152Z VRB05KT 10SM FEW250 16/11 A3034 RMK AO2 SLP269 T01560106 10156 20111 53013
KCLW 201155Z AUTO 05004KT 10SM CLR 22/20 A3007 RMK AO2
KCMA 201155Z AUTO 06003KT 10SM CLR 14/10 A2986 RMK AO2 SLP118 T01390100 10183 20133 53005
KCMD 201155Z AUTO 12003KT 10SM CLR 18/12 A3026 RMK AO2 T01790122 10212 20178
KCMH 201151Z 14003KT 10SM BKN070 19/14 A3019 RMK AO2 SLP217 T01890144 10233 20178 53007
KCMI 201153Z 00000KT 6SM BR CLR 17/16 A3014 RMK AO2 LTG DSNT NW SLP201 7//// T01720161 10206 20172 51015
KCMR 201155Z AUTO 21009G16KT 10SM CLR 12/M00 A3003 RMK AO2 PWINO
KCMX 201153Z AUTO 08004KT 1/4SM FG VV002 16/14 A3013 RMK AO2 SLP202 T01560144 10178 20150 51006
KCMY 201155Z AUTO 00000KT 1/4SM FG OVC001 12/12 A3010 RMK AO2 LTG DSNT SW 70036 T01230123 10150 20121
KCNB 201136Z AUTO 11004KT 7SM SCT085 19/18 A2995 RMK AO2 T01900175
KCNC 201155Z AUTO 16005KT 7SM CLR 20/20 A3003 RMK AO2
KCNI 201130Z AUTO 06004KT 10SM CLR 16/13 A3032 RMK AO2
KCNK 201155Z AUTO 15007KT 10SM CLR 22/19 A2995 RMK AO2 SLP123 T02220194 10256 20211 53000
KCNM 201153Z AUTO 35006KT 10SM CLR 20/17 A2994 RMK AO2 RAE04 SLP080 P0000 60000 7//// T02000172 10239 20194 50001 $
KCNO 201153Z AUTO 16003KT 10SM OVC022 17/14 A2989 RMK AO2 SLP117 T01670139 10183 20156 53005
KCNU 201152Z AUTO 13009KT 10SM CLR 23/20 A2999 RMK AO2 SLP143 T02280200 10239 20228 55001
KCNW 201155Z 16008KT 10SM BKN012 25/24 A2994
KCNY 201153Z AUTO 20016G23KT 10SM CLR 21/M03 A2978 RMK AO2 SLP020 T02111033 10261 20189 53010
KCOD 201156Z AUTO 35006KT 10SM BKN080 BKN120 10/06 A2990 RMK AO2 SLP104 60000 T01000061 10128 20089 55006
KCOE 201156Z AUTO 17008KT 10SM BKN080 OVC120 11/08 A2996 RMK AO2 SLP158 70001 T01060078 10106 20067 55001
KCOF 201156Z AUTO 08017G24KT 10SM CLR 27/21 A3006 RMK AO2 PK WND 08027/05 SLP184 60000 T02690212 10269 20250 52020 $
KCOM 201135Z AUTO 15007KT 10SM OVC075 24/20 A2995 RMK AO2 T02370201
KCON 201151Z AUTO 00000KT 10SM CLR 05/04 A3021 RMK AO2 SLP232 T00500039 10050 20017 53004
KCOQ 201155Z AUTO 10003KT 7SM SCT003 13/12 A3009 RMK AO2
KCOS 201154Z 08005KT 10SM FEW015 FEW130 SCT160 12/09 A3000 RMK AO2 SLP075 T01170094 10167 20111 55003
KCOT 201153Z AUTO 13012KT 10SM FEW030 SCT055 BKN070 27/24 A2989 RMK AO2 SLP114 T02720239 10294 20267 53010 $
KCOU 201154Z 13007KT 10SM CLR 21/18 A3006 RMK AO2 SLP171 T02060183 10233 20206 51003 $
KCPC 200935Z AUTO 03004KT 10SM CLR 15/14 A3026 RMK AO2 T01500135
KCPK 201155Z AUTO 00000KT 10SM CLR 09/08 A3033 RMK AO2 T00880082 10096 20072
KCPR 201153Z 32005KT 10SM CLR 07/06 A2986 RMK AO2 SLP055 60001 7//// T00720056 10161 20072 50008
KCPS 201153Z 13003KT 9SM CLR 19/18 A3009 RMK AO2 SLP186 T01940183 10217 20189 53009
KCPT 201155Z AUTO 16007KT 10SM OVC009 25/25 A2995 RMK AO2
KCPU 201155Z AUTO 19004KT 10SM CLR 10/07 A2993 RMK AO2 T01020068 10162 20096
KCPW 201148Z AUTO 19026G37KT 1/4SM SN OVC001 02/02 A3033 RMK AO2
KCQB 201155Z AUTO 12005KT 7SM BR OVC006 21/21 A2996 RMK AO2 T02140209 10227 20210
KCQC 201153Z AUTO 17008KT 10SM OVC003 12/11 A3016 RMK AO2 SLP118 70001 T01220111 10150 20117 53001
KCQF 201155Z AUTO 08006KT 10SM CLR 20/17 A3012 RMK AO2
KCQM 201156Z AUTO 00000KT 10SM CLR 11/11 A3009 RMK AO2
KCQT 201152Z AUTO 07003KT 10SM OVC016 20/14 A2986 RMK AO2 SLP110 T02000144 10206 20183 53003
KCQW 201155Z AUTO 00000KT 13/12 A3032 RMK AO2
KCQX 201152Z AUTO 29004KT 10SM 14/09 A3021 RMK AO2 SLP231 T01390089 10139 20028 51002 $
KCRE 201153Z 02008KT 10SM CLR 17/14 A3028 RMK AO1 SLP254 T01670144 10183 20161 53019
KCRG 201153Z 07005KT 10SM FEW038 SCT055 BKN070 24/19 A3014 RMK AO2 SLP206 70043 T02440189 10244 20228 53015
KCRP 201151Z 17005KT 10SM FEW023 BKN250 26/23 A2990 RMK AO2 SLP125 T02560233 10289 20256 53008
KCRQ 201153Z AUTO 00000KT 10SM CLR 18/13 A2986 RMK AO2 SLP109 T01780128 10194 20172 56002
KCRS 201153Z AUTO 16010KT 10SM SCT014 OVC050 25/24 A2996 RMK AO2 SLP139 60001 70009 T02500239 10250 20244 53009
KCRW 201154Z 00000KT 10SM BKN055 OVC080 17/12 A3024 RMK AO2 SLP234 T01670122 10189 20150 53008
KCRX 201155Z AUTO 13006KT 10SM CLR 22/15 A3017 RMK AO2
KCSG 201151Z AUTO 08007KT 10SM CLR 18/11 A3025 RMK AO2 SLP240 T01780106 10211 20178 53017
KCSM 201153Z AUTO 16004KT 10SM CLR 19/18 A2996 RMK AO2 SLP123 T01940183 10228 20194 51012
KCSQ 201155Z AUTO 14005KT 7SM CLR 20/20 A3002 RMK AO2
KCSV 201153Z AUTO VRB03KT 10SM SCT050 17/11 A3030 RMK AO2 SLP244 T01670111 10183 20167 53013
KCTB 201156Z AUTO 27003KT 10SM CLR 06/02 A2988 RMK AO2 SLP114 70002 T00560022 10078 20056 55002
KCTJ 201155Z AUTO 00000KT 10SM CLR 15/12 A3033 RMK AO2 T01460121
KCTY 201155Z AUTO 03008KT 10SM SCT070 BKN085 20/19 A3014 RMK AO2 T02030190 10215 20199
KCTZ 201115Z AUTO 00000KT 10SM CLR 14/13 A3032 RMK AO2 T01360132
KCUB 201153Z AUTO VRB03KT 10SM CLR 15/11 A3031 RMK AO2 SLP262 T01500111 10172 20144 53014
KCUH 201155Z AUTO 15006KT 5SM BR OVC006 21/21 A2995 RMK AO2 T02130207 10242 20213
KCUL 201135Z AUTO 15004KT 4SM BR CLR 18/18 A3013 RMK AO2
KCUT 201153Z AUTO 25003KT 10SM VCTS SCT120 16/10 A2987 RMK AO2 LTG DSNT NW SLP045 T01560100 10178 20156 58017
KCVB 201135Z AUTO 17009G14KT 10SM CLR 26/21 A2994 RMK AO2 T02600206
KCVC 201155Z AUTO 05004KT 10SM CLR 16/13 A3030 RMK AO2 PNO
KCVG 201152Z 20008KT 10SM FEW080 SCT100 21/17 A3017 RMK AO2 SLP206 T02060167 10228 20200 53010
KCVH 201155Z AUTO 00000KT 10SM CLR 11/08 A2996 RMK A01
KCVN 201156Z AUTO 20007KT 10SM RA FEW039 BKN060 OVC075 17/16 A3006 RMK AO2 LTG DSNT NE-S TSB1058E41 SLP153 P0022 60026 7//// T01670161 10178 20167 51011
KCVO 201156Z AUTO 25003KT 10SM FEW031 BKN065 13/12 A3010 RMK AO2 SLP193 60000 T01330122 10150 20133 58004
KCVS 201147Z AUTO 15008KT 5SM -RA BR FEW004 OVC070 17/17 A3006 RMK AO2 LTG DSNT E SLP135 $
KCVX 201155Z AUTO 00000KT 10SM SCT032 SCT065 OVC110 19/18 A3016 RMK AO2 T01900175 10200 20187
KCWA 201150Z 00000KT 1/8SM FG OVC002 16/16 A3014
KCWC 201155Z AUTO 09003KT 10SM BKN008 OVC050 21/20 A2994 RMK AO2 T02130203 10225 20210
KCWF 201153Z 09007KT 10SM BKN021 BKN028 24/23 A3002
KCWI 201156Z AUTO 19007KT 9SM SCT050 OVC065 21/20 A3010 RMK AO2 SLP193 70022 T02060200 10206 20189 51008
KCWN 201058Z AUTO 00000KT 10SM FEW006 BKN120 11/10 A2998 RMK AO2 LTG DSNT E SLP978 T01140103 $
KCWV 201155Z AUTO 05003KT 10SM CLR 18/14 A3024 RMK AO2 T01800135 10185 20170
KCXE 201155Z AUTO 00000KT 10SM CLR 10/09 A3035 RMK AO1 T01020094 10110 20085
KCXO 201153Z 00000KT 10SM BKN110 26/24 A2998 RMK AO2 SLP148 70289 T02560244 10256 20239 53012
KCXP 201155Z AUTO 00000KT 10SM CLR 06/02 A3008 RMK AO2
KCXU 201155Z AUTO 00000KT 10SM CLR 18/15 A3020 RMK AO1 T01810150 10205 20180
KCXW 201155Z AUTO 13007KT 3SM BR OVC004 22/22 A3006 RMK A01
KCXY 201156Z 23003KT 10SM CLR 11/08 A3032 RMK AO2 SLP267 T01110078 10117 20083 53009
KCYS 201153Z 22003KT 10SM CLR 11/09 A2990 RMK AO2 SLP046 T01060089 10178 20106 55005
KCZL 201155Z AUTO 12003KT 10SM SCT080 18/13 A3031 RMK AO2
KCZT 201155Z AUTO 11006KT 10SM OVC021 26/22 A2988 RMK AO2
KCZZ 201152Z AUTO 00000KT 07/03 A2988 RMK AO1 SLP094 T00720033 10106 20056 56004
KD07 201156Z AUTO 15008KT 18/17 A2976 RMK AO2 SLP062 7//// T01830167 10194 20178 50001 PWINO TSNO $
KD25 201155Z AUTO 00000KT M1/4SM FG OVC002 17/17 A3013 RMK AO2 T01680168 10171 20136
KD39 201059Z AUTO 11005KT 7SM SCT044 17/17 A3001 RMK AO2
KD50 201155Z AUTO 08004KT 10SM BKN036 14/14 A2973 RMK AO2
KD55 201155Z AUTO 14022KT 10SM BKN031 BKN045 BKN055 18/17 A2982 RMK AO2 LTG DSNT NW
KD57 201155Z AUTO 19004KT 10SM 20/18 A2974 RMK AO2
KD60 201155Z AUTO 08015KT 8SM BKN004 BKN008 OVC013 16/16 A2975 RMK AO2
KD73 201155Z AUTO 00000KT 10SM CLR 14/13 A3031 RMK AO2 T01360130 10162 20129
KD95 201155Z AUTO 00000KT 4SM BR CLR 15/15 A3016 RMK AO2 T01530152 10156 20140
KDAA 201056Z AUTO 00000KT 10SM CLR 08/07 A3031 RMK AO2 SLP267 T00780067 $
KDAB 201153Z 07013G19KT 10SM FEW038 SCT055 SCT070 26/19 A3010 RMK AO2 SLP193 60014 70016 T02560189 10256 20233 53017
KDAG 201150Z AUTO 27009KT 10SM CLR 14/02 A2991 RMK AO2 SLP107 T01440022 10194 20139 53009 $
KDAL 201153Z 16005KT 9SM OVC008 25/23 A2993 RMK AO2 RAE20 SLP127 P0006 60006 70006 T02500228 10256 20244 51009 $
KDAN 201153Z AUTO 00000KT 10SM CLR 08/08 A3035 RMK AO2 SLP272 T00830083 10094 20072 53014
KDAW 201151Z AUTO 32005KT 10SM CLR 09/07 A3018 RMK AO2 SLP219 T00940072 10094 20050 53004
KDAY 201156Z 17005KT 10SM SCT080 SCT200 19/17 A3018 RMK AO2 SLP212 T01940172 10217 20183 52008
KDBN 201155Z AUTO 05004KT 10SM CLR 14/10 A3029 RMK AO2
KDBQ 201153Z 00000KT 4SM BR FEW024 SCT060 18/18 A3009 RMK AO2 SLP186 70144 T01830183 10200 20172 51003
KDCA 201152Z 24003KT 10SM SCT250 15/12 A3033 RMK AO2 SLP270 T01500122 10156 20128 53008
KDCM 201155Z AUTO 00000KT 7SM CLR 12/10 A3034 RMK AO2
KDCU 201153Z AUTO 12003KT 10SM BKN060 20/13 A3024 RMK AO2 SLP233 T02000128 10233 20200 51015
KDCY 201155Z AUTO 17005KT 7SM CLR 20/20 A3014 RMK AO2 T01980197 10222 20171
KDDC 201152Z AUTO 17013KT 10SM BKN021 21/18 A2997 RMK AO2 SLP117 7//// T02060178 10228 20189 53010
KDDH 201154Z AUTO 00000KT 10SM CLR 06/04 A3027 RMK AO2 SLP254 I6000 T00610044 10061 20017 53006
KDEC 201154Z 00000KT 10SM FEW065 19/16 A3014 RMK AO2 SLP202 T01940161 10206 20167 52019
KDED 201155Z AUTO 03004KT 10SM BKN038 BKN045 22/20 A3010 RMK AO2
KDEH 201155Z AUTO 17003KT 4SM BR FEW060 19/19 A3008 RMK AO2
KDEN 201153Z 19020KT 10SM FEW150 SCT180 BKN220 18/09 A2984 RMK AO2 PK WND 19027/1152 SLP018 T01780089 10189 20156 58006
KDEQ 201153Z AUTO 13005KT 1 3/4SM +RA BR SCT007 BKN013 OVC020 22/20 A3001 RMK AO1 SLP155 P0045 60067 70067 T02170200 10250 20217 51008
KDET 201153Z 16003KT 10SM CLR 18/16 A3015 RMK AO2 SLP208 T01780161 10178 20167 53004 $
KDEW 201153Z AUTO 00000KT 10SM OVC085 08/07 A2996 RMK AO2 SLP145 T00780067 10078 20044 53002
KDFI 201153Z AUTO 00000KT 6SM BR CLR 16/14 A3015 RMK AO2 SLP207 T01610144 10183 20156 53007
KDFW 201153Z 17008KT 10SM OVC011 25/23 A2991 RMK AO2 SLP120 60000 T02500228 10250 20239 51009
KDGW 201153Z AUTO 28005KT 10SM CLR 12/09 A2982 RMK AO2 SLP042 60000 7//// T01220089 10183 20122 55008
KDHN 201153Z 08008KT 10SM CLR 19/14 A3023 RMK AO2 SLP230 T01890144 10211 20183 53012
KDHT 201153Z AUTO 23009KT 7SM -RA OVC095 17/14 A3002 RMK AO2 LTG DSNT SE AND S RAB16 SLP117 P0004 60031 70031 T01670144 10189 20167 56014
KDIJ 201156Z AUTO 32004KT 10SM FEW120 04/03 A2994 RMK AO2 SLP110 60000 T00390028 10089 20039 58011 $
KDIK 201156Z AUTO 17003KT 8SM FEW025 19/18 A2972 RMK AO2 SLP046 T01890178 10200 20183 58004
KDKB 201135Z AUTO 18005KT 4SM BR SCT040 BKN080 18/18 A3013 RMK AO2 T01830183
KDKK 201153Z AUTO 00000KT 10SM CLR 13/09 A3023 RMK AO2 SLP235 T01330094 10178 20117 53009 $
KDKR 201130Z AUTO 00000KT 10SM OVC007 25/24 A3000 RMK AO2 PWINO
KDKX 201155Z AUTO 00000KT 10SM BKN095 17/17 A3029 RMK A01
KDLF 201056Z AUTO 12016KT 10SM OVC021 28/23 A2986 RMK AO2 SLP096 T02770228 RVRNO $
KDLH 201155Z 10007KT 10SM FEW003 16/13 A3009 RMK AO2 SLP190 T01610133 10178 20156 53000
KDLL 201155Z AUTO 00000KT M1/4SM FG OVC002 15/15 A3012 RMK AO2 70032 T01450145 10169 20142
KDLN 201153Z AUTO 00000KT 10SM OVC035 07/06 A2994 RMK AO2 SLP115 70003 T00720056 10078 20056 53001
KDLO 201155Z AUTO 15003KT 10SM 10/06 A2992 RMK AO2 T00950055 10148 20094
KDLP 201155Z AUTO 11017KT 9SM CLR 30/20 A3004 RMK A01
KDLS 201153Z AUTO 29011KT 10SM OVC095 17/09 A3000 RMK AO2 SLP157 T01670089 10183 20167 56004
KDLZ 201155Z AUTO 15004KT 10SM SCT070 17/14 A3019 RMK AO2
KDMA 201058Z AUTO 10006KT 10SM CLR 19/11 A2986 RMK AO2 SLP068 T01870105 $
KDMH 201154Z AUTO 16/09 A3032 RMK AO1 SLP267 T01560094 10156 20133 53006
KDMN 201153Z AUTO 24003KT 10SM CLR 15/14 A2998 RMK AO2 SLP087 70011 T01500139 10200 20150 53005 TSNO
KDMO 201153Z AUTO 13005KT 8SM CLR 19/18 A3005 RMK AO2 SLP168 T01890183 10217 20189 53002
KDMW 201120Z AUTO 00000KT 10SM CLR 11/08 A3031 RMK AO2
KDNA 201155Z AUTO 20004KT 10SM SCT100 22/13 A2997 RMK AO2
KDNL 201153Z AUTO 00000KT 10SM CLR 17/11 A3030 RMK AO2 SLP256 T01670106 10194 20161 53015
KDNN 201135Z AUTO 00000KT 10SM SCT075 17/13 A3030 RMK AO2
KDNS 201155Z AUTO 14007G12KT 10SM CLR 22/22 A3001 RMK AO2
KDNV 201155Z AUTO 33003KT 7SM OVC060 18/18 A3013 RMK AO2 T01840182 10190 20174
KDOV 201056Z AUTO 18005KT 10SM CLR 10/08 A3030 RMK AO2 SLP264 T01000081 $
KDPA 201152Z 16004KT 5SM BR CLR 19/18 A3012 RMK AO2 SLP194 70007 T01940178 10211 20189 53009
KDPL 201155Z AUTO 00000KT 7SM CLR 13/ A3033 RMK AO2
KDQH 201135Z AUTO 05006KT 10SM OVC060 18/13 A3023 RMK AO2 T01810127
KDRA 201153Z AUTO 01006KT 10SM CLR 14/00 A2993 RMK AO2 SLP096 T01390000 10189 20117 53009
KDRI 201155Z AUTO 00000KT 10SM SCT020 BKN110 24/23 A3004 RMK AO2 60001 70080 T02350226 10240 20231
KDRM 201156Z AUTO 00000KT 10SM SCT120 17/17 A3014 RMK AO2 T01730168 10187 20172
KDRO 201153Z AUTO 05003KT 10SM CLR 08/07 A3007 RMK AO2 SLP117 70005 T00830067 10122 20078 57001
KDRT 201153Z AUTO 12013KT 10SM OVC022 28/22 A2986 RMK AO2 SLP092 T02830222 10311 20283 53012
KDSF 201155Z AUTO 09008KT 9SM SCT035 BKN045 OVC080 26/22 A3005 RMK A01
KDSM 201154Z 14005KT 10SM FEW120 FEW250 22/19 A3002 RMK AO2 SLP158 70009 T02170194 10228 20206 53003
KDSV 201154Z AUTO 13009KT 10SM CLR 09/08 A3027 RMK AO2 SLP260 T00940078 10111 20083 53008
KDTA 201135Z AUTO 30008KT 10SM SCT070 BKN090 BKN120 07/04 A2995 RMK AO1
KDTL 201055Z AUTO 13010KT 10SM CLR 18/16 A2997 RMK AO2 LTG DSNT W
KDTN 201153Z 14008KT 10SM OVC100 22/20 A3002 RMK AO2 RAE19 SLP164 P0001 60058 70079 T02170200 10244 20217 53007
KDTO 201153Z 19007KT 10SM OVC010 24/22 A2993 RMK AO2 RAB15E25 SLP126 P0000 60000 70001 T02440222 10244 20233 53007
KDTS 201153Z 09009KT 10SM CLR 22/17 A3014 RMK AO2 SLP205 T02220167 10256 20200 53013 $
KDTW 201153Z 00000KT 7SM FEW150 BKN220 19/14 A3015 RMK AO2 SLP208 T01890139 10189 20172 53006
KDUA 201136Z AUTO 16004KT 5SM -RA OVC004 24/22 A2995 RMK AO2
KDUB 201135Z AUTO 31007KT 10SM DZ SCT032 BKN041 OVC046 06/05 A2992 RMK AO2
KDUC 201155Z AUTO 11005KT 10SM BKN048 21/20 A2995 RMK AO2 T02080205 10229 20205
KDUG 201156Z AUTO 11004KT 10SM CLR 16/09 A2999 RMK AO2 SLP086 T01610089 10194 20161 53004
KDUH 201136Z AUTO 00000KT 10SM CLR 16/14 A3015 RMK AO2 T01630142
KDUJ 201153Z AUTO 10005KT 10SM CLR 09/07 A3027 RMK AO2 SLP250 T00890067 10100 20078 52010
KDUX 201155Z AUTO 29005KT 10SM -RA BKN010 BKN014 17/15 A3002 RMK AO2 P0002 60002 7//// T01680150 10180 20151
KDVK 201135Z AUTO 20004KT 10SM CLR 18/15 A3023 RMK AO2
KDVL 201156Z AUTO 15018G26KT 10SM SCT036 19/17 A2979 RMK AO2 PK WND 15026/1154 SLP669 T01940167 10194 20178 56022
KDVN 201152Z AUTO 17008KT 8SM SCT060 BKN075 22/19 A3011 RMK AO2 LTG DSNT SE-SW SLP187 60036 70043 T02170194 10222 20194 51013
KDVO 201155Z AUTO 00000KT 2SM HZ CLR 12/09 A2993 RMK AO2 VIS 1 1/4V4
KDVP 201038Z AUTO 15006KT 3/4SM BR OVC002 20/19 A3000 RMK AO2 T01950192
KDVT 201153Z AUTO 09005KT 10SM CLR 23/02 A2978 RMK AO2 SLP058 T02330017 10283 20200 53005
KDWH 201153Z 00000KT 6SM BR FEW110 26/24 A2997 RMK AO2 SLP145 70207 T02560239 10256 20250 53012
KDWU 201156Z AUTO 11004KT 10SM OVC090 19/14 A3022 RMK AO2 SLP233 60000 T01890144 10211 20183 53009
KDWX 201130Z AUTO 15015G21KT 10SM CLR 16/00 A2992 RMK AO2 T01571003
KDXR 201153Z 00000KT 10SM CLR 07/06 A3028 RMK AO2 SLP255 T00720056 10072 20039 53007
KDXX 201139Z AUTO 14005KT 10SM CLR 21/20 A2994 RMK AO2
KDYA 201155Z AUTO 00000KT 10SM CLR 20/15 A3017 RMK AO2 T02040145 10227 20203
KDYB 201155Z AUTO 03004KT 10SM FEW032 16/15 A3026 RMK AO2
KDYL 201154Z AUTO 00000KT 10SM CLR 09/07 A3030 RMK AO2 SLP261 T00890067 10100 20072 53009
KDYR 201156Z AUTO 15006KT 10SM BKN048 23/21 A3014 RMK AO2 SLP209 T02330211 10233 20222 53016
KDYS 201056Z 06006KT 10SM OVC012 23/19 A2993 RMK SLP085 T02320187 PNO FZRANO $
KDYT 201156Z AUTO 04005KT 1/2SM FG OVC002 12/10 A3011 RMK AO2
KDZB 201140Z AUTO 17006KT 10SM SCT030 26/22 A2995 RMK AO2
KDZJ 201155Z AUTO 00000KT 10SM BKN070 A3035 RMK AO2
KE11 201135Z AUTO 09004KT 10SM CLR 19/19 A2996 RMK AO2 T01930193
KE16 201155Z AUTO 00000KT 10SM CLR 11/08 A2996 RMK AO2 PWINO PNO
KE38 201155Z AUTO 19005KT 10SM CLR 21/14 A3007 RMK AO2 70016 T02110141 10221 20175
KEAN 201135Z AUTO 16007KT 10SM CLR 16/11 A2980 RMK AO2 T01550112
KEAR 201156Z AUTO 15011KT 10SM CLR 21/19 A2995 RMK AO2 SLP122 T02060189 10228 20206 53005
KEAT 201155Z AUTO 28009KT 10SM SCT100 BKN120 16/08 A2995 RMK AO2 RAB33E42 SLP135 P0000 60000 T01560078 10167 20156 $
KEAU 201152Z 00000KT 1 3/4SM BR OVC002 17/16 A3009 RMK AO2 SLP186 T01670161 10178 20150 53007
KEBG 201135Z AUTO 14006KT 10SM CLR 25/23 A2987 RMK AO2 T02510231
KEBS 201115Z AUTO 12004KT 1 1/4SM BR OVC002 19/19 A3002 RMK AO2
KECG 201154Z 00000KT 10SM CLR 16/13 A3032 RMK AO2 SLP267 T01560133 10156 20111 51014
KECP 201153Z 04005KT 10SM SCT022 21/16 A3014 RMK AO2 SLP218 T02110156 10228 20206 53013
KECS 201155Z AUTO 12011G20KT 092V162 10SM SCT120 18/10 A2978 RMK AO2 LTG DSNT NE
KECU 201155Z AUTO 15015KT 10SM OVC012 23/21 A3001 RMK AO2
KEDC 201155Z AUTO 17004KT 10SM SCT009 SCT026 BKN049 25/24 A2996 RMK AO2
KEDE 201120Z AUTO 00000KT 10SM CLR 12/11 A3032 RMK AO2 T01210112
KEDJ 201155Z AUTO 14007KT 10SM CLR 18/ A3018 RMK AO1
KEDN 201155Z AUTO 09006KT 10SM CLR 18/15 A3019 RMK AO2 T01820148 10219 20182
KEDU 201155Z AUTO 35006KT 10SM CLR 17/07 A2992 RMK AO1
KEDW 201058Z 20006KT 50SM CLR 12/02 A2989 RMK AO2A SLP108 T01230016
KEED 201156Z AUTO 28008KT 10SM CLR 23/M04 A2977 RMK AO2 SLP050 T02281039 10278 20211 53006
KEEN 201156Z AUTO 00000KT 3SM BR BKN001 03/03 A3026 RMK AO2 SLP255 T00330033 10039 20011 53005 $
KEEO 201153Z AUTO 00000KT 10SM CLR 09/02 A2990 RMK AO2 SLP045 T00890022 10139 20083 55002
KEET 201153Z AUTO VRB04KT 10SM CLR 19/11 A3024 RMK AO2 SLP232 T01940111 10228 20194 51017
KEFD 201150Z 00000KT 10SM FEW020 BKN090 BKN250 25/23 A2994
KEFK 201156Z AUTO 21003KT 10SM CLR 07/07 A3025 RMK AO2 T00710071 10071 20046
KEFT 201155Z AUTO 18005KT 3SM BR CLR 18/18 A3011 RMK AO2 70023 T01810178 10192 20176
KEGE 201156Z AUTO 00000KT 10SM CLR 08/01 A3000 RMK AO2 SLP103 T00780011 10144 20078 53003
KEGI 201156Z AUTO 08005KT 10SM CLR 20/15 A3015 RMK AO2 SLP209 T02000152 10231 20185 52010 $
KEGV 201155Z AUTO 00000KT M1/4SM FG OVC002 14/14 A3014 RMK AO2 T01440144 10155 20127
KEHA 201135Z AUTO 20010KT 10SM CLR 20/15 A2994 RMK AO2 LTG DSNT S T01970153
KEHO 201155Z AUTO 04003KT 10SM CLR 11/11 A3034 RMK AO2 T01100109 10132 20105
KEHR 201156Z AUTO 18004KT 9SM SCT037 BKN060 21/20 A3016 RMK AO2 SLP208 T02110200 10217 20194 53015
KEHY 201130Z AUTO 10SM SCT120 12/M03 A2991 RMK AO2 PWINO
KEIK 201153Z AUTO 00000KT 10SM CLR A2990 RMK AO2
KEIR 201155Z AUTO VRB07G14KT 10SM FEW021 SCT034 SCT046 28/23 A3003 RMK A01
KEKM 201052Z 00000KT 10SM CLR 15/14 A3014 RMK AO2
KEKN 201151Z AUTO 00000KT 9SM FEW002 07/06 A3032 RMK AO2 SLP275 T00720056 10111 20067 53012
KEKO 201156Z AUTO 21008KT 10SM -RA BKN036 BKN047 OVC065 06/04 A2999 RMK AO2 RAB03 SLP141 P0002 60002 70094 T00610039 10072 20044 51003
KEKQ 201156Z AUTO 07006KT 10SM CLR 18/14 A3026 RMK AO2 SLP237 6//// 7//// T01830144 10211 20161 52013
KEKS 201155Z AUTO 36004KT 10SM FEW031 BKN046 OVC065 06/05 A2998 RMK AO2
KEKX 201155Z AUTO 22005KT 10SM SCT045 SCT055 SCT080 20/16 A3020 RMK AO2 T01970162 10215 20195
KEKY 201156Z AUTO 11005KT 10SM CLR 19/12 A3024 RMK AO2 SLP087 T01940117 10228 20194 53017
KELA 201155Z AUTO 11010KT 10SM CLR 26/25 A2994 RMK AO2 70049 T02570252 10265 20256
KELD 201153Z AUTO 19003KT 10SM -RA FEW028 SCT035 BKN100 21/21 A3007 RMK AO2 RAB44 SLP181 P0000 60000 70009 T02110211 10233 20211 53016
KELK 201135Z AUTO 19004KT 10SM SCT011 SCT017 OVC023 20/19 A2995 RMK AO2 LTG DSNT W T02040190
KELM 201153Z 30003KT M1/4SM R24/1000V1200FT FG VV002 08/08 A3028 RMK AO2 SLP257 T00780078 10083 20050 51009
KELN 201153Z AUTO 31014KT 10SM FEW065 OVC090 15/08 A2997 RMK AO2 SLP140 T01500083 10156 20144 55002
KELO 201155Z AUTO 00000KT 1/2SM FG BKN001 08/08 A3011 RMK AO2
KELP 201151Z 17005KT 10SM FEW070 FEW120 24/13 A2994 RMK AO2 SLP058 T02390133 10278 20233 53001
KELY 201153Z AUTO 00000KT CLR 02/M01 A3000 RMK AO2 SLP130 7//// T00221011 10061 20017 53003 $
KELZ 201156Z AUTO 00000KT 10SM CLR 08/07 A3029 RMK AO2 SLP261 T00780072 10111 20061 51011
KEMK 201155Z AUTO 15018KT 10SM CLR 30/25 A2997 RMK A01
KEMM 201135Z AUTO 34010KT 10SM SCT070 SCT080 07/00 A2990 RMK AO2
KEMP 201153Z AUTO 13004KT 10SM CLR 21/20 A2999 RMK AO2 SLP146 T02060200 10222 20206 53003
KEMV 201155Z AUTO 00000KT 10SM CLR 09/09 A3035 RMK AO2 T00920091 10096 20075
KEND 201155Z 15007KT 3SM DZ BR SCT008 BKN015 OVC019 21/21 A2995 RMK AO2A SLP131 60000 70000 52017
KENL 201155Z AUTO 14003KT 5SM BR CLR 18/17 A3011 RMK AO2 T01820171 10186 20175
KENV 201156Z AUTO 32007KT 10SM SCT050 BKN065 OVC100 12/03 A2992 RMK AO2 SLP116 T01220028 10133 20117 53002
KENW 201153Z 00000KT 1/4SM FG CLR 17/17 A3012 RMK AO2 SLP197 70001 T01720172 10194 20161 51005
KEOD 201058Z AUTO 18005KT 10SM CLR 21/16 A3017 RMK AO2 SLP214 T02090163
KEOK 201155Z AUTO 00000KT 22/20 A3006 RMK AO2
KEPH 201153Z AUTO 30007KT 10SM BKN090 OVC120 17/07 A2993 RMK AO2 SLP129 T01670067 10167 20139 53001
KEQA 201135Z AUTO 12007KT 10SM CLR 22/20 A2998 RMK AO2
KEQY 201153Z AUTO 04006KT 10SM CLR 12/09 A3033 RMK AO2 SLP276 T01220094 10133 20106 53014
KERI 201151Z 17012KT 10SM CLR 16/09 A3021 RMK AO2 SLP227 T01560089 10172 20150 51006
KERV 201155Z AUTO 17009KT 10SM BKN017 BKN024 25/22 A2997 RMK AO2 T02470220 10255 20241
KERY 201155Z AUTO 00000KT 4SM BR OVC055 17/15 A3014 RMK AO2 70001 T01660152 10185 20154
KESC 201156Z AUTO 00000KT 1/2SM FG OVC008 17/17 A3012 RMK AO2 SLP203 P0001 60001 70013 T01670167 10178 20150 53004
KESF 201153Z AUTO 00000KT 10SM SCT024 SCT031 BKN120 22/21 A3006 RMK AO2 SLP176 70135 T02170211 10222 20211 53015
KESN 201153Z 00000KT 10SM FEW030 13/11 A3035
KEST 201152Z AUTO 16006KT 3/4SM BR VV002 20/20 A3001 RMK AO2 SLP156 60008 70008 T02000200 10200 20194 51002
KETB 201115Z AUTO 00000KT 3SM BR BKN002 BKN070 14/14 A3012 RMK AO2
KETC 201155Z AUTO 00000KT 7SM CLR 11/10 A3034 RMK AO2 PWINO T01060104 10109 20085
KETN 201155Z AUTO 16005KT 10SM CLR 21/20 A2993 RMK AO2 T02130205 10222 20211
KEUG 201154Z AUTO 17003KT 10SM OVC060 13/12 A3011 RMK AO2 SLP193 60000 T01330122 10156 20122 56003
KEUL 201156Z AUTO 27007KT 10SM SCT110 08/06 A2994 RMK AO2 SLP136 70002 T00830056 10117 20083 53001
KEVB 201147Z 09013G22KT 10SM SCT034 26/19 A3011
KEVM 201156Z AUTO 04005KT 7SM CLR 12/12 A3010 RMK AO2 T01220120 10129 20110
KEVV 201154Z 19005KT 7SM CLR 22/19 A3016 RMK AO2 SLP208 T02170194 10228 20211 53016
KEVW 201153Z AUTO 23011KT 10SM OVC090 06/01 A2992 RMK AO2 SLP061 7//// T00560006 10061 20050 56009 $
KEWB 201153Z 00000KT 10SM CLR 09/08 A3021 RMK AO2 SLP229 T00940083 10094 20039 51005
KEWK 201156Z AUTO 13009KT 10SM 20/19 A2999 RMK AO2 SLP140 T02000189 10222 20200 53010 $
KEWN 201154Z 03005KT 10SM CLR 16/14 A3032 RMK AO2 SLP267 T01560144 10156 20133 53017
KEWR 201151Z 20003KT 10SM SCT250 12/09 A3029 RMK AO2 SLP256 T01220089 10128 20100 53010 $
KEXX 201135Z AUTO 00000KT 10SM CLR 09/09 A3034 RMK AO2 T00910091
KEYE 201153Z AUTO 00000KT 6SM BR CLR 18/17 A3014 RMK AO2 SLP199 T01830172 10200 20172 53012
KEYF 201155Z AUTO 00000KT 10SM CLR 14/13 A3032 RMK AO2 T01390127 10151 20126
KEYW 201153Z 05009G19KT 10SM FEW025 BKN040 27/23 A2994 RMK AO2 SLP137 60000 T02720228 10272 20256 53012
KEZF 201135Z AUTO 00000KT 10SM CLR 09/09 A3032 RMK AO2 T00900090
KEZM 201135Z AUTO 04003KT 10SM CLR 14/11 A3028 RMK AO2 T01390113
KEZS 201155Z AUTO 00000KT M1/4SM FG OVC002 18/17 A3012 RMK AO2 T01760174 10177 20168
KEZZ 201155Z AUTO 14005KT 7SM BR CLR 20/19 A3003 RMK AO2 T01980190 10225 20197 70002
KF00 201155Z AUTO 17003KT 5SM BR OVC004 23/23 A2994 RMK AO2 LTG DSNT SE T02330229 10233 20225 60016 70018
KF05 201155Z AUTO 10006KT 10SM SCT011 SCT016 SCT035 21/20 A2993 RMK AO1 T02110203 10356 20210
KF17 201155Z AUTO 14003KT 10SM OVC005 22/21 A3002 RMK AO2 60001 70065 T02200209 10220 20215
KF44 201155Z AUTO 16008KT 10SM OVC008 25/23 A2995 RMK AO2 LTG DSNT N
KF45 201150Z AUTO 07014G19KT 10SM FEW025 SCT055 BKN075 24/22 A3003 RMK AO2 TSNO
KF46 201155Z AUTO 18009KT 10SM BKN010 OVC015 24/24 A2993 RMK AO2 LTG DSNT NE AND E 60001 70002 T02400240 10240 20227
KF70 201135Z AUTO 00000KT 10SM OVC012 16/13 A2990 RMK AO1
KFAF 201056Z 00000KT 10SM CLR 12/09 A3030 RMK AO2A SLP264 T01240094 $
KFAM 201156Z AUTO 14003KT 8SM CLR 19/19 A3012 RMK AO2 SLP203 6//// 7//// T01940189 10217 20189 53008 PNO $
KFAR 201153Z 14014G25KT 10SM CLR 21/18 A2986 RMK AO2 SLP109 T02110178 10211 20194 58015
KFAT 201153Z 04003KT 10SM CLR 14/09 A2991 RMK AO2 SLP127 T01440089 10194 20139 53001
KFAY 201153Z 00000KT 10SM CLR 14/12 A3032 RMK AO2 SLP261 T01390117 10139 20117 53016
KFBG 201156Z AUTO 34004KT 10SM CLR 13/13 A3032 RMK AO2 SLP270 T01270125 10135 20112 52015 $
KFCH 201155Z AUTO 00000KT 10SM CLR 14/09 A2992 RMK A01
KFCI 201156Z AUTO 00000KT 10SM CLR 10/09 A3034 RMK AO2 SLP285 T01000089 10100 20067 51010
KFCM 201153Z 10005KT 7SM CLR 19/18 A3004 RMK AO2 SLP168 T01940178 10211 20189 53002
KFCS 201058Z AUTO 33004KT 9SM FEW120 11/09 A2996 RMK AO2 SLP089 T01090092 $
KFDK 201155Z 00000KT 10SM SKC 08/08 A3032
KFDR 201153Z AUTO 11007KT 10SM OVC039 21/21 A2990 RMK AO2 SLP108 T02110206 10239 20211 51011
KFDW 201155Z AUTO 05005KT 10SM CLR 13/11 A3031 RMK AO1
KFDY 201153Z AUTO 16005KT 10SM CLR 18/13 A3016 RMK AO2 SLP204 T01830133 10206 20178 53007
KFEP 201155Z AUTO 00000KT 2SM BR BKN034 BKN041 BKN047 16/16 A3012 RMK AO2 70041 T01630163 10184 20159
KFET 201155Z AUTO 12003KT 10SM CLR 23/22 A2997 RMK AO2 70008 T02260215 10248 20225
KFEW 201058Z 25006KT 10SM SCT150 11/10 A2992 RMK AO2A SLP058 T01060101 $
KFFA 201120Z AUTO 10SM CLR 18/12 A3029 RMK AO2 T01780122
KFFC 201153Z AUTO 00000KT 10SM CLR 14/13 A3029 RMK AO2 SLP255 T01440128 10194 20139 53015
KFFL 201155Z AUTO 08008KT 2 1/2SM BR CLR 19/19 A3006 RMK A01
KFFM 201156Z AUTO 14012G17KT 10SM CLR 21/18 A2992 RMK AO2
KFFO 201056Z AUTO 00000KT 10SM SCT075 19/17 A3016 RMK AO2 SLP211 T01870167
KFFT 201153Z AUTO 21004KT 10SM SCT080 OVC100 21/17 A3020 RMK AO2 RAB17E26 SLP218 P0000 60000 T02060172 10228 20200 51014
KFFX 201155Z AUTO 00000KT 10SM SCT090 15/15 A3014 RMK AO2 T01540147 10200 20153
KFFZ 201154Z AUTO 12006KT 10SM CLR 23/07 A2977 RMK AO2 SLP057 T02330067 10283 20233 53003
KFGN 201136Z AUTO 11004KT 10SM 16/13 A2999 RMK AO2
KFGX 201135Z AUTO 19004KT 10SM CLR 18/16 A3022 RMK AO2 T01830164
KFHB 201155Z AUTO 08015KT 10SM SCT042 SCT060 25/18 A3015 RMK AO2 T02540179 10255 20230 60001 70002
KFHR 201153Z AUTO 00000KT 5SM BR FEW001 OVC060 12/11 A3006 RMK AO2 SLP179 T01220111 10122 20117 55002 $
KFHU 201117Z AUTO 32005KT 9SM CLR 17/08 A3001 RMK AO2 PRESRR SLP088
KFIG 201157Z AUTO 00000KT 1 1/2SM BR SCT004 07/06 A3030 RMK AO2 T00720061
KFIN 201150Z 09010KT 7SM SCT038 25/19 A3011 RMK ATIS A VA06
KFIT 201152Z AUTO 30006KT 10SM CLR 13/06 A3021 RMK AO2 SLP231 T01330061 10133 20078 53001
KFKA 201136Z AUTO 15003KT 7SM SCT014 SCT065 18/17 A3009 RMK AO2 LTG DSNT S AND SW T01800173
KFKL 201156Z AUTO 16003KT 10SM CLR 10/09 A3027 RMK AO2 SLP251 7//// T01000089 10117 20083 51008
KFKN 201135Z AUTO 00000KT 10SM CLR 08/07 A3033 RMK AO2 T00770074
KFKR 201155Z AUTO 00000KT 4SM BR BKN110 17/15 A3016 RMK AO2 T01660154 10180 20157
KFKS 201156Z AUTO 00000KT 7SM CLR 18/16 A3013 RMK AO2 T01810158 10190 20175
KFLD 201153Z AUTO 00000KT M1/4SM FG VV001 17/16 A3012 RMK AO2 SLP198 70040 T01670161 10172 20156 50007
KFLG 201157Z AUTO 25006KT 10SM CLR 11/M04 A3004 RMK AO2 SLP079 T01061044 10133 20106 53003
KFLL 201153Z 07011G20KT 10SM SCT030 BKN050 27/21 A2997 RMK AO2 RAB1058E09 SLP147 P0000 60000 T02670211 10267 20261 53014
KFLO 201153Z 04007KT 10SM CLR 14/12 A3032 RMK AO2 SLP264 T01440122 10156 20133 53018
KFLP 201156Z AUTO 00000KT 10SM CLR 21/20 A3008 RMK AO2 SLP179 T02110200 10239 20211 53011
KFME 201121Z AUTO 00000KT 10SM CLR 05/05 A3034 RMK AO1
KFMH 201145Z 00000KT 10SM CLR 09/08 A3021
KFMM 201155Z AUTO 16012KT 10SM CLR 16/11 A2985 RMK AO2 T01550110 10197 20149
KFMN 201153Z 08008KT 10SM CLR 13/08 A2998 RMK AO2 SLP099 T01280078 10189 20128 53001
KFMY 201153Z 04007KT 10SM CLR 23/21 A3001 RMK AO2 SLP163 T02280206 10228 20222 53016
KFNB 201153Z AUTO 14003KT 7SM CLR 20/19 A2998 RMK AO2 SLP142 T02000189 10222 20200 55002
KFNL 201156Z AUTO 02006KT 10SM CLR 12/10 A2984 RMK AO2 SLP048 T01220100 10189 20122 56006
KFNT 201153Z 00000KT 5SM BR CLR 16/14 A3015 RMK AO2 SLP209 T01610139 10167 20150 53007 $
KFOD 201156Z AUTO 09005KT 3SM BR CLR 18/18 A3003 RMK AO2 SLP190 6//// 7//// T01830183 10211 20183 53005
KFOE 201153Z 13003KT 9SM CLR 21/19 A2999 RMK AO2 SLP145 T02110194 10228 20211 53000
KFOK 201153Z 00000KT 10SM CLR 09/07 A3027 RMK AO2 SLP251 T00890072 10089 20017 53005
KFOT 201155Z AUTO 14004KT 10SM BKN009 12/12 A3003 RMK AO1
KFOZ 201116Z AUTO 00000KT 5SM CLR 12/11 A3011 RMK AO1
KFPK 201136Z AUTO 00000KT 7SM CLR 15/14 A3014 RMK AO2 T01450137
KFPR 201153Z 07011G21KT 10SM SCT033 BKN047 26/21 A3003 RMK AO2 PK WND 07030/1122 SLP170 60002 70006 T02560211 10261 20233 53016
KFQD 201155Z AUTO 00000KT 10SM CLR 11/11 A3034 RMK AO2
KFRG 201153Z 00000KT 10SM CLR 13/09 A3028 RMK AO2 SLP252 T01330094 10133 20106 53008
KFRH 201155Z AUTO 21004KT 10SM SCT044 21/18 A3017 RMK AO1
KFRI 201156Z AUTO 16012KT 10SM BKN140 23/19 A2996 RMK AO2 SLP133 T02290192 10248 20225 55003
KFRM 201156Z AUTO 14007KT 7SM FEW004 OVC010 21/20 A3004 RMK AO2 LTG DSNT NE AND E CIG 007V013 SLP170 T02060200 10206 20200 53007
KFRR 201155Z AUTO 00000KT 10SM CLR 08/08 A3030 RMK AO1
KFSD 201156Z 15010KT 10SM FEW095 SCT200 22/20 A2995 RMK AO2 SLP134 T02220200 10228 20222 55001
KFSE 201136Z AUTO 14006KT 10SM CLR 16/14 A2997 RMK AO2
KFSI 201156Z AUTO 14004KT 10SM SCT011 20/20 A2992 RMK AO2 SLP124 T02030203 10227 20203 52015
KFSM 201153Z 10006KT 10SM FEW038 OVC090 23/21 A3001 RMK AO2 RAB04E18 SLP158 P0001 60001 70032 T02280211 10244 20222 53009
KFSO 201156Z AUTO 15003KT 10SM CLR 11/10 A3023 RMK AO2 T01140095 10122 20087
KFST 201153Z AUTO 15006KT 10SM CLR 22/16 A2992 RMK AO2 SLP081 70006 T02220156 10239 20211 53009
KFSW 201155Z AUTO 08003KT 7SM CLR 21/21 A3008 RMK AO2
KFTG 201148Z AUTO 20016KT 10SM CLR 18/10 A2987 RMK AO2 T01800096
KFTK 201138Z AUTO 18006KT 10SM -DZ SCT045 SCT050 BKN080 BKN100 OVC120 20/18 A3019 RMK AO2 RAB1059E30DZB30E36DZB38 SLP220
KFTW 201153Z 17007KT 10SM OVC009 24/23 A2992 RMK AO2 RAE04 CIG 009V012 SLP123 P0000 60000 T02440228 10244 20233 52009
KFTY 201153Z 04003KT 10SM CLR 16/13 A3030 RMK AO2 SLP253 T01610128 10206 20156 53015
KFUL 201153Z AUTO 10003KT 10SM FEW020 SCT029 OVC034 19/15 A2986 RMK AO2 SLP111 T01940150 10211 20189 53003
KFVE 201153Z AUTO 28004KT 10SM FEW110 12/09 A3008 RMK AO2 SLP187 T01170089 10122 20100 55000
KFVX 201155Z AUTO 00000KT 10SM CLR 08/08 A3034 RMK AO2 T00800079 10083 20051
KFWA 201154Z 00000KT 3SM BCFG BR FEW060 SCT190 16/16 A3015 RMK AO2 SLP207 T01560156 10178 20144 53008
KFWB 201155Z AUTO 11006KT 10SM CLR 21/21 A3008 RMK AO2 P0002 PWINO PNO
KFWC 201135Z AUTO 00000KT 7SM CLR 17/17 A3011 RMK AO1 T01660166
KFWN 201153Z AUTO 00000KT 10SM -RA CLR 06/05 A3030 RMK AO2 RAB47 SLP261 P0000 60000 T00560050 10061 20028 53008
KFWS 201150Z 16005KT 7SM OVC012 25/23 A2994
KFWZ 201155Z AUTO 36012G19KT 10SM SCT070 SCT080 07/03 A2990 RMK AO2 LTG DSNT NW
KFXE 201153Z AUTO 07010G21KT 10SM FEW024 27/22 A2998 RMK AO2 RAB16E36 SLP153 P0000 60000 70014 T02670217 10267 20256 53014
KFXY 201155Z AUTO 00000KT 5SM BR SCT044 BKN070 BKN090 20/20 A3006 RMK AO2
KFYE 201155Z AUTO VRB04KT 10SM FEW031 FEW040 SCT050 23/19 A3013 RMK A01
KFYG 201155Z AUTO 00000KT 7SM CLR 20/20 A3007 RMK AO2
KFYJ 201135Z AUTO 00000KT 1/4SM OVC001 08/08 A3035 RMK AO1 T00790079
KFYM 201155Z AUTO 17004KT 10SM FEW080 19/13 A3024 RMK A01
KFYV 201153Z 14008KT 10SM BKN110 23/18 A3003 RMK AO2 SLP156 T02280183 10239 20200 53005
KFZG 201155Z AUTO 04004KT 10SM CLR 18/13 A3026 RMK AO2 T01750132 10190 20170 PWINO
KFZY 201154Z AUTO VRB03KT 10SM CLR 11/09 A3026 RMK AO2 SLP247 T01110089 10111 20089 53011
KGAD 201156Z AUTO 00000KT 10SM CLR 17/14 A3028 RMK AO2 SLP253 T01670139 10200 20156 51016
KGAF 201155Z AUTO 13016KT 10SM FEW060 SCT070 SCT080 18/16 A2987 RMK AO2
KGAG 201153Z AUTO VRB03KT 7SM BKN028 18/17 A2998 RMK AO2 SLP130 70001 T01780167 10228 20172 53016
KGAI 201156Z AUTO 00000KT 10SM CLR 09/08 A3033 RMK AO2 SLP284 T00940083 10094 20078 53008
KGAO 201155Z AUTO 11004KT 10SM CLR 27/21 A3005 RMK AO2 T02650205 10276 20246
KGBD 201156Z AUTO 14006KT 10SM CLR 20/19 A2996 RMK AO2 SLP128 T02000189 10233 20200 53009 $
KGBG 201155Z AUTO 05011KT 10SM VCTS SCT048 SCT060 SCT080 21/18 A3015 RMK AO2 LTG DSNT NW THRU E T02120177 10229 20207
KGBK 201155Z AUTO 09016KT 10SM 29/25 A2999 RMK A01
KGCC 201153Z AUTO 34009KT 10SM FEW100 12/08 A2982 RMK AO2 LTG DSNT N SLP051 60000 T01170083 10139 20106 58011
KGCD 201155Z AUTO 25005KT 10SM OVC028 09/08 A3005 RMK AO2 70001 T00920077 10098 20078
KGCK 201154Z AUTO 15010KT 10SM SCT090 17/17 A2994 RMK AO2 SLP105 T01720167 10217 20167 50003
KGCM 201155Z AUTO 13007KT 5SM BR SCT021 BKN038 OVC045 21/19 A3000 RMK AO2
KGCN 201154Z AUTO 21004KT 10SM CLR 06/M05 A3001 RMK AO2 SLP085 T00611050 10106 20044 52003
KGCY 201155Z AUTO 00000KT 10SM FEW033 FEW080 15/12 A3029 RMK A01
KGDB 201137Z AUTO 12008KT 10SM CLR 21/20 A2998 RMK AO2 T02110200
KGDJ 201155Z AUTO 12007KT 10SM BKN010 BKN013 OVC037 26/23 A2993 RMK AO2 T02560229 10260 20242
KGDP 201151Z AUTO 00000KT 10SM FEW065 SCT085 BKN120 19/13 A3007 RMK AO2 SLP099 60009 70009 T01940133 10211 20172 55004
KGDV 201156Z AUTO 28011KT 10SM CLR 13/12 A2980 RMK AO2 LTG DSNT NW PRESRR SLP076 60000 T01330117 10161 20128 53019
KGED 201154Z AUTO 00000KT 10SM CLR 10/09 A3033 RMK AO2 SLP271 T01000094 10100 20078 51012
KGEG 201153Z 17006KT 10SM BKN085 OVC120 09/06 A2995 RMK AO2 SLP139 60000 T00890056 10133 20089 55000
KGEV 201155Z AUTO 00000KT 1 3/4SM BR VV007 08/08 A3036 RMK AO2 VIS 1/2V5 T00840082 10101 20068
KGEZ 201153Z AUTO 14004KT 7SM SCT060 19/17 A3015 RMK AO2 SLP203 T01890167 10194 20183 53012
KGFA 201058Z AUTO 15003KT 10SM FEW090 07/05 A2991 RMK AO2 SLP135 T00660047 $
KGFK 201153Z 13015KT 10SM FEW060 SCT160 BKN200 19/15 A2984 RMK AO2 SLP101 CB DSNT S-SW 60000 T01890150 10189 20183 58024
KGFL 201153Z AUTO 00000KT 10SM FEW002 06/05 A3027 RMK AO2 SLP254 I6000 T00610050 10061 20017 53008
KGGE 201155Z AUTO 01006KT 10SM CLR 16/15 A3027 RMK AO2
KGGG 201153Z 14007KT 10SM OVC004 23/23 A2999 RMK AO2 SLP149 P0008 60063 70255 T02280228 10228 20222 51010
KGGI 201155Z AUTO 09004KT 1 3/4SM BR VV007 19/19 A3006 RMK AO2 70004 T01900185 10210 20188
KGGP 201135Z AUTO 00000KT 4SM BR CLR 15/15 A3015 RMK AO2
KGGW 201153Z AUTO 28006KT 10SM CLR 12/10 A2983 RMK AO2 SLP099 60005 70005 T01170100 10156 20117 53014
KGHB 201150Z AUTO 13011G20KT 10SM FEW023 FEW031 29/24 A3000 RMK A01
KGHG 201155Z AUTO 26005KT 10SM CLR 09/09 A3020 RMK AO2
KGHW 201136Z AUTO 12006KT 7SM CLR 18/18 A2999 RMK AO2
KGIC 201155Z AUTO 00000KT 10SM OVC070 08/07 A3000 RMK AO1
KGIF 201153Z AUTO 06006KT 10SM SCT019 BKN025 OVC070 24/21 A3009 RMK AO2 SLP187 60000 T02390211 10244 20228 51014
KGJT 201153Z AUTO 17009G18KT 10SM CLR 19/04 A2983 RMK AO2 SLP028 T01940039 10222 20183 53001
KGKJ 201153Z AUTO 00000KT 10SM CLR 13/09 A3025 RMK AO2 SLP241 T01280089 10139 20111 53008 TSNO
KGKT 201155Z AUTO 00000KT 10SM OVC048 17/15 A3028 RMK A01
KGKY 201153Z 16007KT 10SM OVC014 25/23 A2993 RMK AO2 SLP126 70005 T02500228 10256 20244 52008
KGLD 201153Z AUTO 19019G26KT 10SM -RA FEW055 BKN080 OVC095 21/14 A2986 RMK AO2 PK WND 20048/1129 WSHFT 1059 RAB38 SLP062 P0000 60000 T02110139 10261 20161 56016
KGLE 201135Z AUTO 16005KT 10SM BKN011 OVC017 23/22 A2994 RMK AO2 T02290220
KGLH 201153Z 13005KT 9SM FEW048 BKN060 OVC070 23/22 A3009 RMK AO2 SLP195 70046 T02280217 10233 20222 53016 $
KGLR 201153Z AUTO 00000KT 10SM OVC100 17/14 A3015 RMK AO2 RAB39E49 SLP206 P0000 60000 T01720144 10189 20167 53005
KGLS 201152Z 15012KT 10SM FEW021 29/26 A2997 RMK AO2 SLP147 70681 T02890256 10289 20278 53012
KGLW 201155Z AUTO 20004KT 10SM CLR 19/15 A3022 RMK AO2 T01940148 10225 20193
KGLY 201115Z AUTO 00000KT 7SM FEW050 20/20 A3003 RMK AO2
KGMJ 201155Z AUTO 08003KT 10SM CLR 20/18 A3002 RMK AO2
KGMU 201153Z 04005KT 10SM CLR 16/13 A3034 RMK AO2 SLP267 T01610133 10172 20144 53013
KGNA 201156Z AUTO 04003KT 16/14 A3012 RMK AO1 SLP197 7//// T01560139 10161 20128 53003 $
KGNB 201153Z AUTO 08004KT 10SM CLR 03/00 A3008 RMK AO2 T00251001
KGNC 201135Z AUTO 08004KT 10SM CLR 19/17 A3001 RMK AO2 T01920174
KGNR 201156Z AUTO 04005KT 14/07 A3015 RMK AO1 SLP212 T01440072 10144 20089 50003
KGNT 201155Z AUTO 00000KT 10SM CLR 08/07 A3011 RMK AO2 70003 T00790070 10120 20079
KGNV 201153Z 04004KT 3SM -RA BR BKN039 OVC049 21/20 A3017 RMK AO2 RAB14 SLP213 P0001 60001 70001 T02110200 10211 20200 53017
KGOK 201153Z AUTO 14003KT 3SM -RA BR BKN006 OVC014 22/21 A2995 RMK AO2 RAB37 SLP131 P0000 60000 T02170211 10239 20211 51016
KGON 201156Z 01003KT 10SM CLR 11/08 A3024 RMK AO2 SLP238 T01110078 10111 20061 53006
KGOO 201155Z AUTO 10007KT 10SM CLR 14/02 A2998 RMK A01
KGOP 201155Z AUTO 16006KT 10SM FEW031 BKN040 26/24 A2996 RMK AO2
KGOV 201058Z AUTO 00000KT 10SM BKN055 OVC110 16/15 A3014 RMK AO2 SLP209 T01550149 $
KGPC 201155Z AUTO 00000KT 2 1/2SM BR CLR 16/15 A3015 RMK AO2
KGPH 201215Z AUTO 00000KT 7SM CLR 20/19 A3002 RMK AO2
KGPI 201155Z AUTO 00000KT 3SM BR BKN002 OVC060 06/05 A2995 RMK AO2 VIS 1/2 NE SLP143 70007 T00560050 10078 20044 53002
KGPM 201155Z AUTO 18004KT 10SM SCT009 OVC013 25/25 A2994 RMK AO2 70003 T02470247 10247 20240
KGPT 201153Z 07008KT 10SM CLR 24/20 A3008 RMK AO2 SLP186 T02440200 10283 20244 51012
KGPZ 201156Z AUTO 13005KT 10SM CLR 14/13 A3008 RMK AO2 SLP185 T01390133 10150 20133 58004
KGRB 201153Z 00000KT 1/8SM FG VV002 17/17 A3012 RMK AO2 SLP199 70039 T01720167 10178 20167 51007 RVRNO
KGRD 201156Z AUTO 01003KT 7SM CLR 12/12 A3033 RMK AO2 SLP269 T01170117 10139 20100 53015
KGRF 201108Z AUTO 17003KT 10SM FEW007 OVC017 14/14 A3005 RMK AO2 CIG 007V017 SLP179 $
KGRI 201153Z AUTO 17008KT 10SM SCT120 22/19 A2995 RMK AO2 SLP130 T02170189 10228 20217 53002
KGRK 201113Z AUTO 14010KT 10SM BKN009 OVC014 25/23 A2993 RMK AO2 CIG 009V012 SLP124
KGRN 201155Z AUTO 17005KT 10SM CLR 18/13 A2983 RMK AO2 T01830127 10258 20178
KGRR 201153Z 00000KT 10SM BKN120 BKN180 BKN250 18/14 A3014 RMK AO2 SLP203 T01780144 10178 20161 53007
KGRY 201150Z AUTO 00000KT 10SM SCT032 29/21 A3001 RMK A01
KGSB 201156Z AUTO 07003KT 10SM CLR 13/12 A3031 RMK AO2 SLP267 T01340123 10137 20118 52014 $
KGSH 201153Z AUTO 00000KT 3SM BR CLR 16/14 A3014 RMK AO2 SLP204 T01560144 10161 20144 53006
KGSO 201154Z 00000KT 10SM FEW250 12/11 A3034 RMK AO2 SLP269 T01170106 10133 20106 53013
KGSP 201153Z 00000KT 10SM CLR 14/12 A3033 RMK AO2 SLP266 T01390117 10156 20133 53013
KGTB 201056Z AUTO 15007KT 10SM CLR 10/07 A3023 RMK AO2 SLP238 T00950073
KGTF 201153Z 24005KT 10SM CLR 05/03 A2988 RMK AO2 SLP120 T00500033 10094 20050 58002 $
KGTR 201156Z 10008KT 10SM OVC045 23/16 A3018 RMK AO2 SLP226 T02280161 10256 20222 53020
KGTU 201156Z 16009KT 10SM BKN014 OVC020 26/24 A2996 RMK AO2 RAE07B30E50 SLP140 P0002 60002 70003 T02560239 10261 20256 53011
KGUC 201156Z AUTO 36003KT 10SM CLR 06/03 A3010 RMK AO2 SLP119 60000 T00610028 10150 20061 56002
KGUL 201155Z AUTO 14016KT 10SM FEW025 29/23 A2999 RMK A01
KGUP 201153Z AUTO 19007KT 10SM CLR 13/03 A3005 RMK AO2 SLP029 T01330033 10150 20094 56001
KGUR 201058Z AUTO 10007KT 9SM OVC160 16/11 A2983 RMK AO2 SLP056 T01550113
KGUS 201056Z AUTO 00000KT 10SM CLR 17/17 A3013 RMK AO2 SLP202 T01730173 $
KGUY 201153Z AUTO 17007KT 10SM -RA BKN120 18/14 A2995 RMK AO2 RAB32 SLP106 P0000 60000 T01830144 10200 20178 58010
KGVE 201155Z AUTO 00000KT 10SM CLR 09/09 A3032 RMK AO1 T00870087 10095 20070
KGVL 201153Z AUTO 07006KT 10SM CLR 16/13 A3034 RMK AO2 SLP262 T01610133 10183 20156 53017
KGVQ 201156Z AUTO 21007KT 10SM CLR 14/09 RMK AO2 SLPNO P0001 60004 70021 T01440089 10150 20128 $
KGVT 201135Z AUTO 17012KT 10SM TS OVC010 26/25 A2994 RMK AO2 LTG DSNT NE AND E
KGWB 201155Z AUTO 00000KT 2SM BR CLR 15/15 A3016 RMK AO2
KGWO 201153Z AUTO 12005KT 10SM OVC065 24/21 A3012 RMK AO2 SLP198 T02440206 10256 20239 53018
KGWR 201155Z AUTO 14011KT 10SM CLR 18/18 A2986 RMK A01
KGWW 201155Z AUTO 00000KT 4SM BR CLR 11/11 A3033 RMK AO2 T01140114 10115 20095
KGXA 201058Z AUTO 24004KT 10SM CLR 11/M02 A2991 RMK AO2 SLP106 WND DATA ESTMD T01101017
KGXF 201058Z AUTO 00000KT 9SM CLR 20/01 A2974 RMK AO2 SLP058 T02020010
KGXY 201156Z AUTO 33003KT 10SM CLR 14/12 A2983 RMK AO2 SLP061 T01390122 10200 20139 56007
KGYB 201155Z AUTO 00000KT 10SM CLR 26/25 A2996 RMK AO2 70020 T02560248 10260 20255
KGYH 201147Z 02004KT 10SM CLR 15/13 A3032
KGYI 201150Z 15004KT 7SM OVC010 24/23 A2995
KGYL 201135Z AUTO 09004KT 5SM BR CLR 19/19 A3002 RMK AO2 T01880190
KGYY 201145Z 00000KT 10SM SCT050 BKN250 20/18 A3013
KGZH 201153Z AUTO 03003KT 10SM CLR 18/14 A3018 RMK AO2 SLP217 T01830139 10233 20183 52015
KGZL 201155Z AUTO 13006KT 10SM -RA FEW007 BKN024 OVC050 21/20 A2999 RMK AO2
KGZN 201120Z AUTO 17007KT 10SM OVC016 22/21 A2993 RMK AO2
KGZS 201155Z AUTO 15004KT 10SM CLR 19/15 A3022 RMK A01
KH71 201155Z AUTO 15008KT 10SM FEW041 BKN050 OVC065 22/19 A2998 RMK AO2
KH78 201025Z 16012KT 20SM BKN020 28/21 A3002 RMK SEAS 4-6
KHAE 201155Z AUTO 10SM CLR 22/18 A3007 RMK AO2
KHAF 201155Z AUTO 00000KT 10SM OVC003 09/08 A2993 RMK AO2
KHAI 201158Z AUTO 00000KT 10SM CLR 15/14 A3015 RMK AO2 T01530138 10153 20137
KHAO 201153Z AUTO 00000KT 9SM CLR 19/18 A3018 RMK AO2 SLP215 T01890178 10206 20178 53011
KHBG 201153Z AUTO 00000KT 10SM CLR 21/19 A3013 RMK AO2 SLP201 T02110194 10222 20211 53016
KHBI 201155Z AUTO 00000KT 10SM CLR 10/09 A3036 RMK AO2 T00950092 10148 20090
KHBR 201153Z AUTO 12003KT 10SM CLR 21/19 A2994 RMK AO2 SLP120 T02060189 10239 20206 51012
KHBV 201130Z AUTO 00000KT 10SM OVC006 25/23 A2991 RMK AO2 T02480232
KHCD 201136Z AUTO 11003KT 5SM BR CLR 19/19 A3003 RMK AO2 T01880188
KHCO 201156Z AUTO 14014KT 10SM CLR 18/16 A2988 RMK AO2
KHCR 201155Z AUTO 09004KT 10SM CLR 06/02 A2988 RMK AO2
KHDC 201155Z AUTO 08004KT 10SM CLR 23/22 A3007 RMK AO2 PWINO
KHDE 201155Z AUTO 16007KT 10SM CLR 20/20 A2995 RMK AO2 T02030196 10233 20200
KHDN 201156Z AUTO 08011KT 10SM CLR 12/02 A2994 RMK AO2 SLP054 T01170022 10161 20106 56003
KHDO 201151Z AUTO 15010KT 10SM CLR 26/22 A2993 RMK AO2 SLP117 T02560222 10267 20256 52014 $
KHEF 201156Z 00000KT 10SM CLR 08/07 A3033 RMK AO2 SLP277 T00780072 10083 20050 53007
KHEG 201155Z AUTO 36005KT 5SM BR CLR 21/21 A3016 RMK AO2
KHEI 201156Z AUTO 12005KT 1SM BR VV001 16/16 A2976 RMK AO2 T01610161
KHEY 201058Z AUTO 08007KT 10SM CLR 19/15 A3017 RMK AO2 SLP216 T01850150
KHEZ 201156Z AUTO 13003KT 10SM CLR 23/22 A3009 RMK AO2 SLP186 T02280217 10239 20222 51015
KHFD 201153Z 20003KT M1/4SM FG VV002 08/08 A3026 RMK AO2 SLP246 T00780078 10089 20067 53009 $
KHFF 201156Z AUTO 01003KT 10SM CLR 11/11 A3033 RMK AO2 SLP286 T01130111 10118 20096 52017 $
KHFJ 201155Z AUTO 12006KT 10SM CLR 21/20 A3005 RMK AO2
KHGR 201153Z 00000KT 10SM CLR 12/07 A3031 RMK AO2 SLP273 T01170072 10139 20106 53010
KHHF 201155Z AUTO 00000KT 7SM SCT018 SCT022 OVC048 21/21 A2999 RMK AO2 LTG DSNT SW P0002 60002 7//// T02100206 10211 20197
KHHR 201153Z AUTO 00000KT 10SM CLR 18/14 A2987 RMK AO2 SLP113 T01830144 10206 20183 53003
KHHV 201155Z AUTO 14016KT 10SM FEW025 SCT034 SCT040 30/24 A2995 RMK A01
KHIB 201153Z AUTO 00000KT 1 3/4SM BR CLR 09/09 A3008 RMK AO2 SLP190 T00940094 10111 20083 55002
KHIE 201152Z AUTO 00000KT 10SM CLR 03/02 A3025 RMK AO2 SLP254 T00330017 10033 20000 51009
KHIF 201058Z 35005KT 10SM -RA SCT037 OVC050 12/02 A2989 RMK AO2A RAB16 SLP080 P0000 T01160023
KHII 201110Z AUTO 00000KT 10SM CLR 23/M03 A2975 RMK AO2
KHIO 201153Z AUTO 00000KT 10SM OVC030 14/13 A3008 RMK AO2 SLP184 T01390128 10156 20139 56005
KHJH 201155Z AUTO 14003KT 10SM CLR 21/20 A2996 RMK AO2 T02060195 10245 20206
KHJO 201153Z AUTO 00000KT 10SM CLR 11/08 A2992 RMK AO2 SLP131 T01060083 10194 20106 53000 $
KHKA 201153Z AUTO 17005KT 6SM HZ FEW040 BKN065 BKN110 24/21 A3012 RMK AO2 SLP196 T02440206 10250 20239 53014 $
KHKS 201153Z 12008KT 10SM CLR 23/21 A3012 RMK AO2 SLP191 70010 T02280206 10239 20228 53019
KHKY 201153Z 00000KT 1/4SM FG VV002 11/11 A3034 RMK AO2 SLP259 T01110111 10133 20106 53008
KHLB 201155Z AUTO 18004KT 8SM CLR 18/18 A3017 RMK A01
KHLC 201153Z AUTO 17007KT 10SM CLR 21/19 A2995 RMK AO2 SLP116 T02060189 10228 20206 53009 TSNO
KHLG 201153Z 15005KT 10SM SCT060 14/10 A3025 RMK AO2 SLP241 T01440100 10156 20144 53010
KHLN 201153Z 12004KT 10SM BKN065 OVC110 10/05 A2993 RMK AO2 SLP138 T01000050 10122 20089 51005
KHLR 201116Z AUTO 17009KT 10SM OVC010 26/24 A2994 RMK AO2 RAB06E16 SLP125
KHLX 201155Z AUTO 19004KT 10SM CLR 11/10 A3035 RMK AO2 T01060100 10106 20086
KHME 201050Z 31002KT CAVOK 38/02 Q1014
KHMN 201058Z AUTO 24003KT 10SM FEW100 19/16 A2998 RMK AO2 SLP081 T01940160 $
KHMZ 201135Z AUTO 00000KT M1/4SM FG OVC001 05/05 A3031 RMK AO2 T00510048
KHNB 201156Z AUTO 17005KT 10SM FEW047 21/20 A3016 RMK AO2 SLP209 T02110200 10228 20206 53015
KHND 201156Z AUTO 19006KT 10SM CLR 14/M03 A2988 RMK AO2 SLP114 T01441028 10211 20144 53007
KHNR 201155Z AUTO 00000KT 6SM BR CLR 20/20 A3000 RMK AO2 PWINO
KHNZ 201155Z AUTO 00000KT 10SM CLR 09/09 A3035 RMK AO2 T00880086 10111 20073
KHOB 201150Z 30008KT 10SM FEW014 BKN080 20/17 A3000
KHOE 201155Z AUTO 04004KT 10SM SCT050 SCT065 18/14 A3020 RMK AO2
KHON 201155Z AUTO 15012KT 10SM CLR 22/20 A2985 RMK AO2 SLP100 T02220200 10233 20222 55001
KHOP 201056Z AUTO 17005KT 10SM CLR 22/17 A3017 RMK AO2 SLP213 T02180169
KHOT 201153Z AUTO 14004KT 10SM BKN032 BKN040 OVC055 23/22 A3007 RMK AO2 SLP175 70015 T02280217 10233 20217 53015
KHOU 201153Z 14005KT 10SM SCT018 BKN140 BKN250 27/24 A2995 RMK AO2 SLP147 BLDG CU SE-SW 70344 T02670244 10267 20256 51009
KHPN 201156Z 30005KT 10SM CLR 13/09 A3027 RMK AO2 SLP249 T01280089 10128 20094 53008
KHPT 201155Z AUTO 00000KT 2 1/2SM BR SCT003 SCT070 18/18 A3006 RMK AO2
KHQG 201155Z AUTO 21010KT 10SM SCT090 BKN110 18/15 A2993 RMK AO2 60033 70033 T01750153 10181 20137
KHQI 201155Z AUTO 14016G22KT 10SM SCT024 30/24 A2997 RMK A01
KHQM 201153Z AUTO 30004KT 9SM FEW027 14/14 A3007 RMK AO2 SLP187 70001 T01440139 10144 20139 55004
KHQU 201155Z AUTO 12003KT 10SM CLR 11/10 A3030 RMK AO2 T01070100 10128 20102
KHQZ 201150Z 15008KT 10SM BKN011 BKN018 24/23 A2993
KHRI 201153Z AUTO 22009KT 10SM FEW085 16/09 A2996 RMK AO2 SLP142 T01610094 10161 20144 56006
KHRJ 201155Z AUTO 00000KT 10SM CLR 13/13 A3033 RMK AO2 T01270127 10130 20111
KHRL 201152Z 13005KT 10SM CLR 25/24 A2988 RMK AO2 SLP118 T02500239 10272 20250 53007
KHRO 201153Z AUTO 10005KT 10SM CLR 20/18 A3008 RMK AO2 SLP173 T02000183 10222 20194 53008
KHRT 201156Z 06005KT 10SM BKN200 22/17 A3013 RMK AO2A SLP205 T02160172 10253 20215 52014 $
KHRX 201155Z AUTO 06003KT 10SM VCTS OVC018 19/17 A3004 RMK AO2 LTG DSNT SW THRU N T01920165 10195 20180
KHSA 201150Z 06005KT 7SM SCT035 BKN042 24/22 A3008
KHSB 201155Z AUTO 00000KT 7SM CLR 17/16 A3014 RMK AO2 T01740156 10180 20172
KHSD 201155Z AUTO 16004KT 7SM BKN007 OVC012 22/22 A2995 RMK A01
KHSE 201151Z AUTO 04004KT 10SM FEW055 A3030 RMK AO2 SLP262 53017
KHSG 201135Z AUTO 00000KT 10SM SCT065 SCT080 OVC120 10/06 A2989 RMK AO2 T00970062
KHSI 201153Z AUTO 15005KT 10SM CLR 21/19 A2996 RMK AO2 SLP128 T02110189 10233 20211 53004
KHSP 201135Z AUTO 25009KT 10SM CLR 09/09 A3036 RMK AO2
KHST 201156Z AUTO 06008KT 10SM CLR 27/22 A2995 RMK AO2 SLP145 60006 70029 T02690216 10269 20249 52012 FZRANO TSNO $
KHSV 201153Z 12007KT 10SM BKN060 21/13 A3024 RMK AO2 SLP232 T02060133 10228 20200 51014
KHTH 201155Z AUTO 26005KT 10SM CLR 08/03 A3007 RMK A01
KHTL 201153Z AUTO 00000KT 10SM CLR 14/13 A3016 RMK AO2 SLP212 T01440133 10189 20144 53006
KHTO 201155Z AUTO 25005KT 10SM CLR 13/11 A3024 RMK AO2 T01290108 10129 20064
KHTS 201151Z 15004KT 10SM FEW055 SCT070 BKN110 18/14 A3022 RMK AO2 SLP227 T01780139 10200 20178 53009
KHUA 201058Z AUTO 16006KT 9SM BKN060 BKN070 OVC085 20/13 A3021 RMK AO2 SLP225 T02040126
KHUF 201153Z 00000KT 1/4SM R05/2000VP6000FT FG VV004 17/16 A3013 RMK AO2 SLP201 T01670161 10183 20156 53015
KHUL 201153Z AUTO 00000KT 10SM CLR 12/09 A3009 RMK AO2 SLP192 T01220094 10122 20044 58004
KHUM 201147Z 10004KT 7SM SCT032 25/23 A3005
KHUT 201152Z 13008KT 10SM CLR 21/19 A2996 RMK AO2 SLP122 T02060189 10233 20206 53004
KHVE 201155Z AUTO 21012G15KT 10SM CLR 20/M05 A2983 RMK AO2
KHVN 201153Z 00000KT 10SM CLR 11/09 A3026 RMK AO2 SLP246 T01060089 10106 20067 53008
KHVR 201153Z AUTO 25004KT 10SM CLR 07/06 A2986 RMK AO2 SLP113 T00670056 10083 20050 52002
KHVS 201155Z AUTO 06005KT 10SM CLR 15/13 A3032 RMK AO2
KHWD 201154Z AUTO 07004KT 10SM CLR 14/09 A2992 RMK AO2 SLP142 T01390089 10172 20139 56003
KHWO 201153Z 07013KT 10SM SCT037 SCT060 BKN075 28/21 A2999 RMK AO2 SLP154 70003 T02780211 10278 20267 53013
KHWV 201156Z AUTO 28004KT 10SM CLR 12/09 A3027 RMK AO2 SLP248 T01220089 10122 20083 53006
KHWY 201155Z AUTO 00000KT 10SM CLR 08/07 A3032 RMK AO2 T00790065 10079 20038
KHXD 201150Z 02009KT 10SM CLR 20/17 A3023
KHYA 201156Z 00000KT 10SM CLR 12/09 A3019 RMK AO2 SLP225 T01220094 10122 20061 50002
KHYI 201156Z 16008KT 10SM BKN013 OVC020 26/24 A2995 RMK AO2 SLPNO 7//// T02610244 10267 20256 53013
KHYR 201153Z AUTO 02003KT 1/4SM FG VV002 14/13 A3011 RMK AO2 SLP194 T01390133 10156 20122 53002
KHYS 201156Z AUTO 17009KT 10SM CLR 21/19 A2995 RMK AO2 SLP126 70004 T02060194 10222 20200 53009
KHYW 201115Z AUTO 02004KT 5SM BR CLR 14/13 A3029 RMK AO2
KHYX 201155Z AUTO 00000KT 7SM CLR 15/14 A3014 RMK AO2
KHZD 201155Z AUTO 15006KT 10SM OVC035 22/19 A3016 RMK A01
KHZE 201155Z AUTO 00000KT 10SM OVC010 20/20 A2975 RMK AO2
KHZL 201156Z AUTO 00000KT 10SM CLR 06/05 A3033 RMK AO2
KHZR 201138Z AUTO 08004KT 10SM SCT019 23/23 A3006 RMK AO2
KHZX 201155Z AUTO 10004KT 3/4SM OVC001 15/15 A3007 RMK AO2
KHZY 201153Z AUTO 17006KT 10SM CLR 13/11 A3023 RMK AO2 SLP235 T01330106 10156 20122 53005
KI16 201155Z AUTO 10SM BKN047 BKN060 14/12 A3035 RMK AO2 T01390122 10139 20123
KI19 201136Z AUTO 00000KT 10SM CLR 19/17 A3019 RMK AO2 T01850169
KI23 201155Z AUTO 00000KT 10SM CLR 17/16 A3019 RMK AO1
KI35 201155Z AUTO 00000KT 10SM BKN047 OVC095 17/14 A3030 RMK AO2 T01700135 10178 20159
KI43 201155Z AUTO 00000KT 10SM CLR 15/13 A3023 RMK AO2
KI63 201135Z AUTO 00000KT 10SM CLR 19/19 A3008 RMK AO2 T01900188
KI67 201155Z AUTO 00000KT 7SM CLR 17/16 A3017 RMK AO1
KI68 201155Z AUTO 15003KT 10SM CLR 19/19 A3018 RMK AO1 T01900190 10213 20188
KI69 201158Z AUTO 00000KT 10SM CLR 19/18 A3020 RMK AO2 T01870175
KI74 201155Z AUTO 00000KT 10SM CLR 17/17 A3018 RMK AO2
KI75 201135Z AUTO 15004KT 10SM CLR 21/20 A3003 RMK AO2 T02070195
KIAB 201156Z AUTO 09006KT 10SM SCT032 BKN200 21/18 A2998 RMK AO2 SLP142 T02100182 10240 20210 53013 $
KIAD 201152Z 00000KT 10SM FEW250 11/08 A3032 RMK AO2 SLP266 T01060083 10106 20072 53008
KIAG 201153Z 10003KT 10SM CLR 12/10 A3021 RMK AO2 SLP234 T01170100 10133 20100 51007
KIAH 201153Z 11004KT 10SM FEW015 BKN120 BKN160 26/25 A2996 RMK AO2 SLP145 70921 T02610250 10267 20256 53010
KIBM 201155Z AUTO 14007KT 10SM CLR 14/12 A2986 RMK AO2 T01420117 10197 20142
KICL 201155Z AUTO 00000KT 10SM CLR 20/20 A3002 RMK AO2
KICR 201153Z AUTO 17013G21KT 10SM CLR 22/18 A2982 RMK AO2 SLP083 T02170178 10256 20217 50004
KICT 201153Z 13009KT 10SM BKN060 BKN200 22/19 A2997 RMK AO2 SLP133 T02220194 10244 20222 53012
KIDA 201153Z AUTO 20010KT 8SM -RA FEW045 OVC050 08/06 A2993 RMK AO2 SLP111 P0001 60001 70001 T00830061 10089 20078 55003
KIDI 201155Z AUTO 10003KT 10SM CLR 10/09 A3032 RMK A01
KIDP 201135Z AUTO 14009KT 10SM CLR 22/20 A2997 RMK AO2 T02220201
KIEN 201152Z AUTO 17020G34KT 10SM CLR 21/12 A2977 RMK AO2 PK WND 17037/1116 SLP044 T02060122 10261 20206 56013
KIER 201155Z AUTO 00000KT 22/22 A3004 RMK AO2 6//// 7//// T02220218 PWINO
KIFA 201155Z AUTO 06004KT 2 1/2SM BR 19/17 A3007 RMK AO2 70029 T01870167 10199 20186
KIFP 201155Z AUTO 04006KT 10SM CLR 24/M01 A2976 RMK AO2
KIGM 201151Z AUTO 11005KT 10SM CLR 12/M05 A2989 RMK AO2 SLP062 T01171050 10200 20111 53006
KIGQ 201155Z AUTO 00000KT 10SM BKN050 BKN060 20/18 A3013 RMK AO2 T01980180 10204 20189
KIIB 201155Z AUTO 00000KT 1 3/4SM BR VV007 19/19 A3007 RMK AO2 T01910187
KIIY 201155Z AUTO 00000KT 10SM CLR 13/12 A3030 RMK AO2 TSNO
KIJD 201152Z AUTO 00000KT 10SM SCT002 05/04 A3026 RMK AO2 SLP248 T00500044 10061 20039 51007
KIJX 201155Z AUTO 05008KT 10SM CLR 18/17 A3009 RMK AO2 T01820170 10230 20181
KIKG 201135Z AUTO 10004KT 10SM CLR 25/25 A2991 RMK AO2 T02510250
KIKK 201135Z AUTO 00000KT 10SM CLR 18/18 A3013 RMK AO2 LTG DSNT NW T01840180
KIKT 201155Z AUTO 11021KT 10SM FEW065 SCT090 27/20 A3007 RMK A01
KIKV 201155Z AUTO 00000KT M1/4SM FG VV000 19/19 A3003 RMK AO2
KIKW 201155Z AUTO 00000KT 10SM SCT120 17/15 A3015 RMK AO2 T01700150 10200 20166
KILE 201156Z AUTO 10SM BKN013 OVC027 26/24 A2995 RMK AO2 SLP128 T02610239 10261 20256 53012 $
KILG 201151Z 00000KT 10SM CLR 12/10 A3032 RMK AO2 SLP266 T01170100 10128 20094 53006 $
KILM 201153Z 03005KT 10SM CLR 17/14 A3030 RMK AO2 SLP260 T01670139 10172 20150 53018
KILN 201154Z AUTO 19005KT 10SM CLR 18/17 A3019 RMK AO2 SLP216 T01830172 10194 20178 53008
KIML 201153Z AUTO 14015KT 10SM CLR 17/14 A2987 RMK AO2 SLP084 70003 T01720144 10194 20156 56006
KIMM 201155Z AUTO 01005KT 10SM SCT024 22/21 A2999 RMK AO2
KIMS 201155Z AUTO 00000KT 10SM SCT055 SCT075 20/18 A3019 RMK AO1
KIMT 201154Z AUTO 00000KT 1/4SM FG VV002 17/17 A3012 RMK AO2 SLP199 T01720167 10189 20172 53005
KIND 201154Z 13003KT 7SM FEW055 SCT250 19/18 A3014 RMK AO2 SLP200 T01890178 10222 20189 53013
KINF 201155Z AUTO 02005KT 4SM BR BKN033 21/21 A3011 RMK AO2
KINJ 201155Z AUTO 16010KT 10SM OVC009 26/25 A2994 RMK AO2 T02600250 10260 20240
KINK 201153Z AUTO 11007KT 10SM OVC100 23/16 A2989 RMK AO2 SLP074 T02280156 10250 20206 53005
KINL 201155Z AUTO 12005KT 10SM CLR 12/12 A3006 RMK AO2 SLP182 T01170117 10133 20106 56009
KINS 201058Z AUTO 00000KT 10SM CLR 14/M02 A2990 RMK AO2 SLP087 T01431022 $
KINT 201154Z 00000KT 10SM CLR 11/09 A3035 RMK AO2 SLP273 T01110094 10133 20094 51011
KINW 201156Z AUTO VRB03KT 10SM CLR 12/03 A2994 RMK AO2 SLP076 T01170028 10189 20117 53001
KIOB 201155Z AUTO 23004KT 10SM SCT075 20/16 A3024 RMK AO2 PWINO
KIOW 201152Z AUTO 00000KT 10SM BKN110 22/20 A3006 RMK AO2 LTG DSNT SE RAE00 TSE1055 SLP175 P0000 60066 70083 T02170200 10233 20206 56007
KIPJ 201155Z AUTO 00000KT 10SM CLR 09/09 A3034 RMK AO2 T00930093 10111 20083
KIPL 201153Z AUTO 34009KT 10SM CLR 21/M01 A2973 RMK AO2 SLP069 T02061006 10244 20206 53004
KIPT 201154Z 00000KT 1/4SM FG VV002 08/07 A3030 RMK AO2 SLP262 T00780072 10094 20067 53011
KIRK 201155Z AUTO 15004KT 7SM CLR 19/18 A3006 RMK AO2 SLP176 70004 T01940183 10222 20189 53002
KIRS 201156Z AUTO 00000KT 3SM BR CLR 16/14 A3015 RMK AO2 T01620143 10173 20152
KISM 201156Z 10007KT 10SM BKN029 BKN037 OVC080 24/21 A3010 RMK AO2 SLP191 T02390211 10239 20228 53019
KISN 201152Z AUTO 07008KT 10SM OVC014 18/14 A2972 RMK AO2 SLP055 T01780139 10211 20178 50002
KISO 201156Z 00000KT 10SM CLR 13/12 A3033
KISP 201156Z 27004KT 10SM FEW250 13/11 A3027 RMK AO2 SLP249 T01280106 10128 20083 53009
KISQ 201139Z AUTO 00000KT M1/4SM FG OVC001 16/15 A3012 RMK AO2 T01550151
KISW 201154Z AUTO 00000KT 1/4SM FG VV002 16/16 A3012 RMK AO2 SLP197 70027 T01610156 10178 20156 53007
KITH 201156Z 08006KT 10SM CLR 08/08 A3028 RMK AO2 SLP256 T00830078 10083 20067 53007
KITR 201153Z AUTO 18016G25KT 10SM CLR 19/12 A2991 RMK AO2 PK WND 16030/1055 SLP071 T01890122 10217 20167 56004
KIWA 201147Z 11008KT 10SM SKC 21/08 A2980
KIWD 201156Z AUTO 00000KT M1/4SM FG OVC003 13/13 A3012 RMK AO2 SLP200 T01330133 10139 20111 53005 RVRNO
KIWI 201153Z AUTO 00000KT 10SM CLR 08/06 A3019 RMK AO2 SLP223 T00780061 10078 20033 53006
KIXA 201155Z AUTO 00000KT 2 1/2SM BR CLR 09/09 A3034 RMK AO2
KIXD 201153Z 14006KT 10SM CLR 21/19 A3002 RMK AO2 SLP152 T02110189 10222 20211 55002
KIYA 201135Z AUTO 08003KT 10SM SCT020 SCT025 SCT031 25/25 A3003 RMK AO2 T02450245
KIZA 201155Z AUTO 00000KT 1/4SM FG OVC002 10/10 A2990 RMK AO2
KIZG 201154Z AUTO 00000KT 10SM CLR 06/04 A3020 RMK AO2 SLP229 T00610044 10061 20017 53004
KJAC 201156Z AUTO 36004KT 10SM OVC095 07/04 A2990 RMK AO2 SLP084 60000 T00670039 10111 20067 56010
KJAN 201154Z 12009KT 10SM CLR 23/19 A3012 RMK AO2 SLP195 70021 T02280194 10239 20228 53018
KJAQ 201135Z AUTO 00000KT 10SM CLR 13/06 A2993 RMK AO1 T01280062
KJAS 201155Z AUTO 00000KT 10SM SCT006 BKN120 25/24 A3002 RMK AO2 T02480242
KJAU 201155Z AUTO 04004KT 10SM CLR 17/15 A3031 RMK A01
KJAX 201156Z 36005KT 10SM FEW033 SCT070 22/19 A3015 RMK AO2 SLP208 60000 70006 T02170194 10228 20217 53014
KJBR 201153Z AUTO 06003KT 9SM FEW065 FEW085 23/21 A3010 RMK AO2 SLP189 T02330211 10244 20233 53015 TSNO
KJCA 201130Z AUTO 04005KT 10SM CLR 15/13 A3032 RMK AO2 T01480130
KJCT 201151Z AUTO 14009KT 10SM BKN022 26/22 A2995 RMK AO2 SLP100 70006 T02560222 10272 20250 53012
KJDD 201155Z AUTO 16005KT 10SM TS OVC005 22/22 A2996 RMK AO2 LTG DSNT NW
KJDN 201148Z AUTO 30007KT 12/10 A2986 RMK AO1 SLP107 T01220100 10150 20106 53020
KJEF 201153Z 13005KT 10SM CLR 21/19 A3006 RMK AO2 SLP163 T02110189 10250 20211 53005
KJER 201153Z AUTO 25007KT OVC012 08/06 A2992 RMK AO2 SLP123 T00780056 10089 20067 56002 $
KJES 201101Z AUTO 03005KT 10SM CLR 18/14 A3019 RMK AO2
KJFK 201151Z 25007KT 10SM SCT250 15/11 A3029 RMK AO2 SLP257 T01500111 10150 20128 53009
KJFX 201155Z AUTO 10SM CLR 19/14 A3023 RMK AO2
KJFZ 201130Z AUTO 00000KT 10SM SCT033 BKN046 12/09 A3033 RMK AO2 T01240091
KJGG 201155Z AUTO 00000KT 10SM CLR 12/12 A3034 RMK AO1
KJHN 201155Z AUTO 18010G16KT 10SM CLR 18/16 A2991 RMK AO2 T01840156 10188 20155
KJHW 201156Z AUTO 18005KT 10SM CLR 10/08 A3027 RMK AO2 SLP256 T01000083 10117 20089 53008
KJKA 201155Z AUTO 09007KT 10SM SCT030 SCT034 24/21 A3011 RMK AO2 60002 70026 T02410206 10242 20205
KJKJ 201156Z AUTO 14009KT 10SM CLR 22/17 A2989 RMK AO2
KJKL 201153Z AUTO 00000KT 10SM BKN090 18/15 A3025 RMK AO2 SLP232 T01830150 10200 20183 53012
KJLN 201153Z 12007KT 10SM CLR 21/19 A3002 RMK AO2 SLP157 T02110189 10239 20211 53003
KJMR 201156Z AUTO 00000KT 1/2SM FG OVC001 16/16 A3008 RMK AO2
KJMS 201156Z AUTO 14012KT 10SM -RA CLR 20/18 A2981 RMK AO2 LTG DSNT S RAB56 SLP089 P0000 60000 T02000178 10200 20189 58013
KJNX 201155Z AUTO 00000KT 10SM CLR 10/10 A3033 RMK AO2
KJOT 201155Z AUTO 00000KT 5SM BR SCT050 BKN065 BKN080 21/21 A3012 RMK AO2 60001 70061 T02060206 10212 20201
KJQF 201055Z AUTO 00000KT 10SM CLR 10/10 A3035 RMK AO2
KJRB 201156Z AUTO 25005KT 10SM CLR 14/10 A3030 RMK AO2 SLP261 T01440100 10156 20144 53012
KJSL 201120Z AUTO 12020G26KT CLR 28/23 A2997 RMK A01
KJSO 201155Z AUTO 4SM BR OVC003 23/23 A3002 RMK AO2 T02320231
KJST 201154Z AUTO 21004KT 10SM CLR 12/08 A3029 RMK AO2 SLP258 T01170078 10117 20100 53009
KJSV 201155Z AUTO 11010KT 10SM SCT034 OVC040 23/18 A3000 RMK AO2
KJTC 201155Z AUTO 15011G17KT 10SM CLR 14/02 A3010 RMK AO2
KJVL 201145Z 00000KT 4SM BR SCT050 17/17 A3010
KJVW 201155Z AUTO 10005KT 10SM SCT009 SCT016 23/23 A3011 RMK AO2
KJVY 201155Z AUTO 21006KT 10SM SCT036 SCT047 SCT060 23/18 A3017 RMK AO2 T02300175 10235 20194
KJWG 201155Z AUTO 16003KT 10SM OVC034 21/20 A2998 RMK AO2 T02150196 10242 20211
KJWN 201155Z AUTO 18008KT 10SM OVC049 22/13 A3020 RMK A01
KJWY 201155Z AUTO 16008KT 5SM BR OVC007 24/24 A2994 RMK AO2 P0029 60029 70030 T02400240 10246 20230
KJXI 201155Z AUTO 13007KT 10SM OVC005 22/21 A2999 RMK AO2 60015 70088 T02160211 10218 20212
KJXN 201156Z 00000KT 6SM BR CLR 14/13 A3016 RMK AO2 SLP210 T01390128 10172 20117 53007
KJYL 201155Z AUTO 05004KT CLR 16/13 A3027 RMK AO2 T01560125 10170 20151 PWINO
KJYM 201156Z AUTO 00000KT M1/4SM FG BKN004 BKN070 OVC100 14/14 A3016 RMK AO2 T01400136 10166 20139
KJYO 201135Z AUTO 10SM CLR 07/07 A3033 RMK AO2
KJYR 201155Z AUTO 16007KT 10SM CLR 21/20 A2997 RMK AO2
KJZI 201155Z AUTO 34009KT 9SM CLR 18/16 A3024 RMK AO2
KJZP 201135Z AUTO 17005KT 10SM CLR 16/12 A3034 RMK AO2 T01620115
KK88 201155Z AUTO 14007KT 10SM CLR 21/19 A3000 RMK AO1 T02100192 10225 20210
KKLS 201156Z AUTO 04003KT 10SM BKN018 14/13 A3008 RMK AO2 SLP191 T01440128 10161 20144 56002
KKNB 201155Z AUTO 00000KT 10SM CLR 07/M05 A2995 RMK A01
KKY8 201155Z AUTO 19007KT 10SM SCT043 BKN050 23/23 A3016 RMK A01
KL08 201155Z AUTO 27005KT 10SM CLR 14/05 A2978 RMK AO2
KL18 201155Z AUTO 35004KT 10SM BKN029 14/13 A2988 RMK AO2
KL35 201155Z AUTO 00000KT 10SM CLR 00/M06 A3005 RMK AO2
KL52 201155Z AUTO 00000KT 10SM CLR 10/09 A2990 RMK A01
KLAA 201153Z AUTO 08008KT 10SM CLR 17/13 A2989 RMK AO2 RAE1056 SLP080 P0000 60001 70001 T01670133 10194 20156 58010
KLAF 201154Z 00000KT 5SM BR CLR 17/16 A3013 RMK AO2 SLP199 T01670161 10178 20161 53009 $
KLAL 201150Z 05004KT 10SM SCT018 BKN080 22/21 A3008
KLAM 201155Z AUTO 19007KT 10SM SCT120 13/08 A3015 RMK AO2 T01320076 10164 20132
KLAN 201153Z 00000KT 7SM FEW110 17/15 A3016 RMK AO2 SLP210 T01670150 10178 20156 53008
KLAR 201153Z AUTO 19010KT 10SM CLR 08/04 A2994 RMK AO2 SLP038 T00830039 10133 20078 56005
KLAS 201156Z 25004KT 10SM CLR 19/M01 A2984 RMK AO2 SLP084 T01891011 10233 20183 53008
KLAW 201153Z AUTO 07003KT 9SM FEW047 21/20 A2993 RMK AO2 SLP123 T02060200 10228 20200 51014
KLAX 201153Z 08003KT 10SM FEW014 FEW019 18/14 A2987 RMK AO2 SLP112 T01830144 10206 20183 53003 $
KLBB 201153Z 15015KT 8SM BKN006 OVC150 21/19 A2996 RMK AO2 SLP095 T02060189 10206 20194 53001
KLBE 201051Z 00000KT 10SM SKC 09/09 A3027
KLBF 201153Z AUTO 13008KT 10SM FEW120 19/17 A2990 RMK AO2 SLP097 T01940167 10206 20172 55000
KLBL 201156Z AUTO 17012KT 10SM CLR 18/14 A2995 RMK AO2 SLP114 T01830139 10194 20156 58003
KLBO 201155Z AUTO 15006KT 10SM CLR 21/18 A3008 RMK AO2
KLBX 201153Z AUTO 00000KT 10SM FEW026 SCT031 26/24 A2995 RMK AO2 SLP141 70445 T02560244 10272 20256 53010
KLCG 201155Z AUTO 15006KT 10SM CLR 21/20 A2995 RMK AO2 T02050195 10223 20205
KLCH 201153Z 09005KT 10SM SCT017 OVC100 25/24 A3001 RMK AO2 RAB32E44 SLP170 P0000 60000 70109 T02500239 10250 20250 53011
KLCI 201156Z AUTO 24003KT 10SM CLR 09/08 A3021 RMK AO2 SLP234 T00940078 10094 20050 53006
KLCK 201155Z AUTO 15003KT 10SM CLR 17/15 A3019 RMK AO2 T01720150 10337 20098
KLCQ 201135Z AUTO 03006KT 10SM BKN080 18/17 A3015 RMK AO2
KLDJ 201155Z AUTO 00000KT 10SM CLR 12/08 A3030 RMK AO2 T01210082 10130 20110
KLDM 201155Z AUTO 00000KT 1/2SM FG VV005 15/14 A3012 RMK AO2 T01500143 10180 20137
KLEB 201153Z 36003KT 1/4SM FG VV001 07/04 A3026 RMK AO2 SLP248 T00670044 10067 20033 53008
KLEE 201153Z 02006KT 10SM CLR 23/21 A3011 RMK AO2 SLP194 T02280206 10228 20217 53015
KLEW 201156Z AUTO 00000KT 10SM CLR 08/07 A3019 RMK AO2 SLP230 T00830067 10083 20033 53006
KLEX 201154Z AUTO 17006KT 10SM FEW049 20/16 A3022 RMK AO2 SLP224 T02000156 10222 20200 53013
KLFI 201056Z AUTO 00000KT 10SM CLR 13/13 A3031 RMK AO2 SLP270 T01280125 $
KLFK 201153Z AUTO 13006KT 7SM BKN003 OVC120 24/23 A2999 RMK AO2 SLP151 70022 T02440233 10244 20228 51008
KLFT 201153Z 09003KT 10SM CLR 24/23 A3004 RMK AO2 SLP171 T02440233 10244 20228 53014
KLGA 201151Z 31007KT 10SM FEW200 SCT250 16/07 A3028 RMK AO2 SLP252 T01610072 10167 20156 53010
KLGB 201153Z AUTO 00000KT 10SM BKN015 BKN021 19/16 A2987 RMK AO2 SLP113 T01890156 10217 20189 53003
KLGC 201135Z AUTO 00000KT 10SM CLR 16/10 A3027 RMK AO2 T01560099
KLGD 201156Z AUTO 09004KT 10SM OVC080 07/06 A3002 RMK AO2 SLP301 T00720056 10094 20067 56003
KLGF 201058Z AUTO 00000KT 10SM CLR 22/06 A2973 RMK AO2 SLP064
KLGU 201151Z AUTO 00000KT 10SM RA BKN048 OVC075 08/06 A2990 RMK AO2 RAB30 SLP092 P0003 60003 70003 T00780061 10111 20078 53002
KLHB 201155Z AUTO 13006KT 10SM OVC007 26/25 A2996 RMK AO2 T02600245 10261 20254
KLHM 201155Z AUTO 00000KT 10SM CLR 09/08 A2991 RMK AO1
KLHQ 201153Z AUTO 13004KT 10SM FEW050 BKN090 18/15 A3020 RMK AO2 SLP221 T01830150 10183 20172 51007
KLHW 201156Z AUTO 02008KT 10SM CLR 17/13 A3021 RMK AO2 SLP233 T01740131 10180 20163 52016 $
KLHX 201153Z AUTO 19009G20KT 10SM FEW090 FEW110 22/10 A2992 RMK AO2 RAB22E32 SLP060 P0000 60000 T02170100 10228 20183 50003
KLHZ 201120Z AUTO 00000KT 5SM BR CLR 08/08 A3036 RMK AO2
KLIC 201155Z AUTO 16012KT 10SM OVC006 12/12 A2996 RMK AO2 SLP070 T01220122 10161 20122 51003 $
KLIT 201153Z 13003KT 7SM FEW004 SCT070 BKN200 22/21 A3007 RMK AO2 SLP183 70006 T02220211 10233 20211 51015
KLJF 201136Z AUTO 12005KT 4SM BR CLR 19/19 A3002 RMK AO2
KLKR 201155Z AUTO 00000KT 10SM CLR 11/10 A3033 RMK AO2
KLKU 201155Z AUTO 20003KT 10SM CLR 10/10 A3037 RMK AO2 T00990097 10104 20057
KLKV 201153Z AUTO 35008KT 10SM FEW055 06/04 A3009 RMK AO2 SLP183 60001 70005 T00610044 10072 20061 56000
KLLJ 201155Z AUTO 31003KT 10SM FEW045 BKN050 OVC065 08/04 A2993 RMK AO2 SLP107 T00830044 10094 20072 56004
KLLQ 201153Z AUTO 13003KT 10SM CLR 22/21 A3008 RMK AO2 SLP184 T02220206 10233 20217 53013
KLMO 201155Z AUTO 00000KT 10SM CLR 15/09 A2986 RMK AO2 T01500086
KLMT 201153Z AUTO 00000KT 10SM CLR 02/01 A3010 RMK AO2 SLP182 T00220011 10089 20017 51000
KLNA 201155Z AUTO 07015G22KT SCT024 SCT033 BKN085 27/23 A3000 RMK AO2 T02740225 10274 20245 PWINO
KLNC 201155Z AUTO 15006KT 7SM SCT007 OVC013 24/23 A2994 RMK AO2 LTG DSNT NE T02390229 10248 20231
KLND 201153Z AUTO 15003KT 10SM BKN049 BKN100 12/07 A2986 RMK AO2 RAB08E26 SLP050 P0000 60000 T01170067 10150 20106 58005
KLNK 201154Z 19003KT 10SM CLR 22/19 A2997 RMK AO2 SLP136 70018 T02170194 10233 20211 55000
KLNL 201155Z AUTO 00000KT M1/4SM FG OVC001 15/15 A3015 RMK AO2 T01450145 10165 20134
KLNN 201155Z AUTO 15003KT 10SM SCT060 SCT070 17/10 A3018 RMK AO1 T01680097 10186 20161
KLNP 201155Z AUTO 20004KT 10SM OVC039 15/12 A3033 RMK AO2
KLNQ 201135Z AUTO 10005KT 10SM CLR 26/21 A3007 RMK AO2 T02600209
KLNR 201156Z AUTO 06003KT 1/4SM FG VV002 18/17 A3009 RMK AO2 SLP183 70052 T01780172 10189 20178 53004
KLNS 201153Z 00000KT 7SM CLR 09/08 A3031 RMK AO2 SLP265 T00940078 10100 20067 53007
KLOL 201153Z AUTO 09006KT 10SM CLR 02/01 A3005 RMK AO2 SLP173 70001 T00220006 10083 20017 53002
KLOM 201155Z AUTO 00000KT 10SM CLR 10/10 A3031 RMK AO2 T00980097 10100 20051
KLOR 201058Z AUTO 04003KT 9SM CLR 17/15 A3018 RMK AO2 SLP201 T01740146
KLOT 201135Z AUTO 00000KT 2SM BR OVC045 19/19 A3012 RMK AO2 T01920192
KLOU 201153Z 18007KT 10SM FEW039 22/17 A3018 RMK AO2 SLP214 60004 70004 T02220167 10244 20217 53014
KLOZ 201153Z AUTO 00000KT 10SM CLR 17/14 A3026 RMK AO2 SLP237 T01670144 10189 20167 53012
KLPC 201156Z AUTO 03003KT 1/4SM -RA FG OVC002 12/12 A2989 RMK AO2 SLP125 P0000 60000 T01220117 10139 20111 55002
KLPR 201153Z AUTO 18006KT 10SM CLR 16/10 A3019 RMK AO2 SLP220 T01560100 10172 20150 52005 $
KLQK 201155Z AUTO 00000KT 10SM CLR 12/12 A3032 RMK AO2 T01180118 10168 20112
KLRD 201156Z 13012KT 10SM FEW021 BKN060 27/23 A2986 RMK AO2 SLP107 T02720233 10289 20272 53008
KLRF 201056Z COR AUTO 09003KT 10SM SCT004 22/21 A3007 RMK AO2A SLPNO ALSTG ESTMD $ COR 1056
KLRJ 201155Z AUTO 13007KT 10SM CLR 22/22 A2996 RMK AO2
KLRO 201155Z AUTO 36005KT 6SM BR CLR 16/15 A3025 RMK AO2
KLRU 201155Z AUTO 00000KT 10SM BKN110 18/15 A2999 RMK AO2 T01770148 10230 20173
KLRY 201155Z AUTO 14004KT 10SM CLR 21/19 A3004 RMK AO2
KLSE 201153Z 00000KT 9SM FEW002 BKN046 19/18 A3008
KLSF 201156Z AUTO 04004KT 10SM CLR 14/14 A3024 RMK AO2 SLP244 T01390137 10182 20130 52018
KLSV 201058Z 02004KT 10SM CLR 17/M03 A2982 RMK AO2A SLP079 WND DATA ESTMD T01701026 $
KLTS 201056Z 11004KT 10SM SCT024 20/19 A2992 RMK AO2A SLP118 T01970187 $
KLUA 201155Z AUTO 00000KT 10SM CLR 08/08 A3031 RMK AO2
KLUD 201155Z AUTO 15007KT 10SM BKN008 OVC014 24/22 A2993 RMK AO2 T02430223 10243 20216
KLUF 201058Z AUTO 00000KT 10SM CLR 21/03 A2974 RMK AO2 SLP058 T02080026
KLUG 201155Z AUTO 14004G11KT 10SM SCT055 21/12 A3022 RMK A01
KLUK 201153Z 00000KT 10SM R21L/1000VP6000FT FEW075 17/17 A3018 RMK AO2 SLP216 T01720172 10206 20172 53010
KLUL 201155Z AUTO 10005KT 10SM CLR 21/19 A3014 RMK A02 T02150194 10225 20214 70005
KLUM 201155Z AUTO 00000KT M1/4SM FG OVC001 16/16 A3009 RMK AO2 60001 70001 T01580158 10163 20147
KLUV 201155Z AUTO 12012KT 10SM SCT080 BKN090 BKN120 20/20 A2997 RMK AO2
KLUX 201155Z AUTO 00000KT 7SM CLR 11/11 A3032 RMK AO2
KLVJ 201153Z AUTO 00000KT 7SM FEW030 26/24 A2997 RMK AO2 SLP148 70193 T02610244 10272 20261 53010
KLVK 201153Z AUTO 07003KT 10SM CLR 12/08 A2993 RMK AO2 SLP134 T01170083 10167 20111 55001
KLVL 201135Z AUTO 00000KT 5SM CLR 09/08 A3034 RMK AO1 T00850080
KLVM 201153Z AUTO 25006KT 10SM FEW023 SCT044 08/04 A2990 RMK AO2 SLP104 T00830044 10122 20078 50001
KLVN 201130Z AUTO 00000KT 1/4SM FG 17/17 A3005 RMK AO2 LTG DSNT SE
KLVS 201153Z AUTO 20006KT 10SM SCT012 BKN020 BKN120 12/12 A3016 RMK AO2 SLP105 60000 70001 T01220117 10133 20106 51002
KLWA 201155Z AUTO 00000KT 10SM CLR 17/17 A3014 RMK AO2 T01680168 10189 20165
KLWB 201135Z AUTO 00000KT 10SM CLR 06/06 A3034 RMK AO2 T00590058
KLWC 201152Z AUTO 08003KT 7SM FEW120 21/19 A2999 RMK AO2 SLP148 T02060194 10217 20206 55002
KLWD 201153Z AUTO 16004KT 9SM CLR 21/19 A3003 RMK AO2 SLP159 T02110194 10228 20211 55001 $
KLWM 201154Z 00000KT 10SM CLR 08/06 A3022 RMK AO2 SLP233 T00830061 10083 20056 52005
KLWS 201156Z AUTO 10004KT 10SM OVC090 12/08 A2997 RMK AO2 SLP146 70017 T01220083 10144 20111 55000
KLWT 201154Z AUTO 00000KT 10SM OVC050 09/07 A2990 RMK AO2 SLP106 T00940067 10106 20089 50002
KLWV 201153Z AUTO 17003KT 4SM BR CLR 18/16 A3013 RMK AO2 SLP200 T01780161 10194 20167 53011
KLXL 201136Z AUTO 11006KT 1 1/2SM BR OVC002 17/17 A3003 RMK AO2
KLXN 201155Z AUTO 15009KT 10SM CLR 19/19 A2994 RMK AO2 T01930185 10229 20191
KLXT 201153Z AUTO 14006KT 10SM CLR 22/19 A3002 RMK AO2 SLP157 T02220189 10244 20222 55001
KLXV 201153Z AUTO 00000KT BKN065 06/M01 A3018 RMK AO2 SLP054 T00611006 10111 20061 56004 $
KLXY 201155Z AUTO 16007KT 10SM OVC012 25/24 A2995 RMK AO2 T02500240 10252 20240
KLYH 201154Z AUTO 00000KT 10SM CLR 11/09 A3034 RMK AO2 SLP273 T01060094 10106 20072 53010
KLYO 201155Z AUTO 15009KT 10SM CLR 21/19 A2995 RMK AO2 T02060191 10231 20204
KLYV 201158Z AUTO 13005KT 7SM SCT100 20/18 A2999 RMK AO2
KLZU 201156Z VRB03KT 10SM CLR 16/14 A3031 RMK AO2 SLP270 T01560139 10172 20150 53016
KLZZ 201135Z AUTO 15003KT 10SM SCT023 SCT028 25/23 A2994 RMK AO2 T02500227
KM02 201155Z AUTO 19010KT 10SM SCT070 21/14 A3020 RMK A01
KM04 201155Z AUTO 16005KT 10SM FEW055 SCT065 23/21 A3012 RMK A01
KM08 201155Z AUTO 13006KT 10SM CLR 22/18 A3015 RMK A01
KM19 201156Z AUTO 15006KT 10SM FEW085 23/22 A3010 RMK AO2 SLP188 T02280217 10228 20222 51017
KM21 201155Z AUTO 18004KT 10SM SCT039 21/16 A3018 RMK AO2 T02100155 10215 20191
KM25 201155Z AUTO 17007KT 10SM SCT034 BKN060 22/19 A3016 RMK AO2 PWINO
KM30 201135Z AUTO 17004KT 7SM SCT029 BKN035 BKN045 23/21 A3014 RMK AO2 T02320208
KM40 201155Z AUTO 14005KT 10SM OVC047 21/11 A3020 RMK AO2
KM54 201155Z AUTO 00000KT 10SM BKN047 BKN055 OVC070 21/14 A3022 RMK A01
KM75 201155Z AUTO 27007KT 10SM FEW120 11/10 A2982 RMK A01
KMAE 201153Z AUTO 00000KT 10SM CLR 12/08 A2991 RMK AO2 SLP128 T01170078 10156 20106 52001
KMAF 201153Z AUTO 11008KT 10SM CLR 23/17 A2993 RMK AO2 SLP092 70005 T02280172 10256 20228 53007
KMAI 201153Z AUTO 06007KT 10SM CLR 18/16 A3017 RMK AO2 SLP216 T01830161 10206 20172 51012
KMAN 201155Z AUTO 30010KT 10SM 10/08 A2993 RMK A01
KMAO 201155Z AUTO 06004KT 10SM CLR 15/13 A3032 RMK AO2
KMAW 201215Z AUTO 16007KT 10SM CLR 25/22 A3011 RMK AO2
KMBG 201152Z AUTO 14014KT 10SM CLR 22/19 A2975 RMK AO2 SLP062 T02220194 10228 20217 56007
KMBL 201156Z AUTO 00000KT 5SM BR FEW002 16/16 A3012 RMK AO2 SLP200 6//// 7//// T01560156 10178 20144 52003 PNO $
KMBO 201155Z AUTO 12006KT 10SM SCT008 22/22 A3014 RMK AO2 PWINO
KMBS 201153Z 00000KT 5SM BR CLR 17/14 A3016 RMK AO2 SLP210 T01670144 10178 20161 53007
KMBT 201155Z AUTO 18005KT 10SM SCT049 SCT060 BKN090 21/13 A3022 RMK A01
KMCB 201153Z AUTO 10004KT 10SM SCT006 23/22 A3010 RMK AO2 SLP185 T02280217 10239 20228 53012
KMCC 201200Z AUTO 30004KT 10SM CLR 12/10 A2993 RMK AO2
KMCD 201135Z AUTO 00000KT 3SM BR SCT085 OVC100 18/18 A3013 RMK AO2 T01760176
KMCE 201153Z AUTO 00000KT 10SM CLR 11/08 A2990 RMK AO2 SLP123 T01060083 10161 20106 58000
KMCF 201156Z AUTO 08012KT 10SM CLR 23/20 A3006 RMK AO2 SLP182 T02260201 10227 20218 52017 FZRANO $
KMCI 201153Z 15008KT 9SM BKN150 21/19 A3001 RMK AO2 SLP150 T02110194 10233 20206 55003 $
KMCJ 201155Z AUTO 00000KT 9SM FEW120 26/26 A2995 RMK A01
KMCK 201153Z AUTO 14010KT 10SM CLR 19/17 A2991 RMK AO2 SLP101 T01940172 10228 20189 53002
KMCN 201153Z 00000KT 10SM CLR 11/10 A3027 RMK AO2 SLP246 T01110100 10144 20100 53015
KMCO 201153Z 04007KT 10SM FEW028 BKN060 23/21 A3009 RMK AO2 RAB13E28 SLP186 P0001 60001 70001 T02330211 10233 20217 53018
KMCX 201155Z AUTO 00000KT 10SM CLR 16/15 A3013 RMK AO2 T01600152 10191 20157
KMDD 201155Z AUTO 10008KT 10SM CLR 23/17 A2994 RMK AO2 T02330174 10269 20233
KMDH 201152Z AUTO 14003KT 2 1/2SM BR CLR 19/18 A3012 RMK AO2 SLP195 T01940183 10211 20183 53013
KMDJ 201155Z AUTO 12018KT 10SM FEW035 28/21 A3005 RMK A01
KMDQ 201155Z AUTO 14007KT 10SM OVC055 21/11 A3025 RMK A02 T02090112 10230 20208
KMDS 201135Z AUTO 16009KT 10SM CLR 20/20 A2995 RMK AO2
KMDT 201156Z 02003KT 10SM SCT250 11/08 A3031 RMK AO2 SLP264 T01110083 10117 20100 53009
KMDW 201153Z 17004KT 10SM SCT048 BKN060 BKN100 OVC250 22/19 A3012 RMK AO2 SLP189 60001 70001 T02170189 10228 20206 53008
KMDZ 201155Z AUTO 00000KT M1/4SM FG OVC002 14/14 A3013 RMK AO2 T01440144 10155 20132
KMEB 201152Z AUTO 00000KT 10SM CLR 13/12 A3033 RMK AO2 SLP270 T01330122 10139 20122 53017
KMEH 201156Z AUTO 00000KT 10SM BKN042 BKN070 01/00 A3003 RMK AO2 SLP175 70002 T00110000 10039 20006 55002
KMEI 201058Z 11008KT 10SM CLR 23/18 A3013 RMK AO2 SLP200 T02330183
KMEM 201154Z 17006KT 10SM BKN047 OVC250 24/22 A3012 RMK AO2 SLP197 T02440222 10261 20244 53016 $
KMER 201115Z AUTO 33004KT 10SM CLR 13/11 A2990 RMK AO1
KMEV 201155Z AUTO 04003KT 10SM CLR M02/M03 A3010 RMK AO2
KMEZ 201135Z AUTO 13004KT 7SM BKN015 OVC022 23/20 A3004 RMK AO2
KMFD 201152Z 16006KT 10SM CLR 18/14 A3020 RMK AO2 SLP219 T01780144 10183 20167 51005
KMFE 201153Z 14010KT 10SM CLR 27/24 A2987 RMK AO2 SLP113 T02670239 10283 20267 53003
KMFI 201154Z AUTO 08005KT M1/4SM FG VV002 16/15 A3011 RMK AO2 SLP196 70050 T01560150 10172 20156 53006
KMFR 201153Z AUTO 00000KT 10SM FEW065 OVC080 12/09 A3011 RMK AO2 SLP192 70001 T01170089 10133 20100 57001
KMFV 201155Z AUTO 00000KT 10SM CLR 09/09 A3033 RMK AO2 T00940090 10097 20075
KMGC 201155Z AUTO 00000KT 10SM SCT075 16/16 A3013 RMK AO2
KMGE 201056Z 06003KT 10SM FEW250 17/13 A3028 RMK AO2A SLP248 T01670126 $
KMGG 201156Z AUTO 00000KT 5SM BR 19/19 A3004 RMK AO2 T01920191 10193 20166
KMGJ 201154Z AUTO 21006KT 10SM CLR 08/07 A3027 RMK AO2 SLP254 60000 T00780067 10078 20033 53007
KMGM 201153Z 09005KT 10SM CLR 18/12 A3023 RMK AO2 SLP232 T01830122 10206 20178 51020
KMGN 201136Z AUTO 35005KT 10SM OVC050 17/16 A3013 RMK AO2 T01800169
KMGR 201155Z AUTO 04005KT 10SM SCT055 18/14 A3021 RMK AO2
KMGW 201153Z 00000KT 10SM FEW055 14/09 A3029 RMK AO2 SLP252 T01390094 10156 20117 53010
KMGY 201153Z AUTO 17005KT 10SM SCT075 20/17 A3017 RMK AO2 SLP209 T02000172 10217 20194 53010
KMHE 201153Z AUTO 16011G19KT 10SM CLR 23/20 A2988 RMK AO2 SLP109 T02280200 10233 20228 55000
KMHK 201152Z 30003KT 10SM CLR 22/19 A2996 RMK AO2 SLP136 T02220194 10239 20211 55003
KMHL 201155Z AUTO 29005KT 10SM CLR 20/18 A3004 RMK AO2 TSNO PWINO
KMHR 201145Z 00000KT 10SM SKC 12/09 A2990
KMHS 201156Z AUTO VRB03KT 10SM FEW024 08/06 A3008 RMK AO2 SLP195 70006 T00830056 10100 20083 55001
KMHT 201153Z 00000KT 10SM FEW250 08/05 A3019 RMK AO2 SLP237 T00780050 10083 20056 53002
KMHV 201120Z AUTO 31010KT 10SM OVC045 15/04 A2992 RMK A01
KMIA 201153Z 05008G17KT 10SM SCT025CB BKN033 BKN075 26/21 A2997 RMK AO2 SLP149 CB W-NW MOV W CB DSNT NE-SE MOV W 60000 T02610206 10278 20261 53014
KMIB 201056Z AUTO 05003KT 10SM OVC014 17/16 A2973 RMK AO2 CIG 013 RWY30 PRESFR SLP067 T01740161 $
KMIC 201153Z 12003KT 5SM BR CLR 19/18 A3003 RMK AO2 SLP166 T01890183 10206 20172 53001
KMIE 201153Z 17003KT 7SM SCT060 20/18 A3015 RMK AO2 SLP200 T02000178 10206 20178 53008
KMIO 201155Z AUTO 12005KT 10SM CLR 22/20 A2999 RMK AO2
KMIS 201155Z AUTO 12024KT 10SM FEW028 SCT034 SCT039 28/22 A3007 RMK A01
KMIV 201154Z AUTO 00000KT 10SM SCT002 10/08 A3032 RMK AO2 SLP266 T01000078 10100 20044 52010
KMIW 201153Z AUTO 13006KT 3SM BR CLR 19/19 A3004 RMK AO2 SLP167 70031 T01940194 10200 20189 53003
KMJQ 201155Z AUTO 15006KT 1 3/4SM OVC001 20/20 A3002 RMK AO2 PWINO
KMJX 201156Z AUTO 00000KT 10SM CLR 09/ A3032 RMK AO2 SLP270 70001 T0089 10089 20033 53012
KMKC 201154Z 07003KT 10SM CLR 24/19 A3000 RMK AO2 SLP150 T02440189 10261 20239 55001
KMKE 201152Z 00000KT 10SM FEW120 FEW250 19/16 A3011 RMK AO2 SLP193 T01890156 10211 20178 51007
KMKG 201155Z 09003KT 10SM SCT180 SCT250 17/14 A3013 RMK AO2 SLP200 T01670144 10206 20161 51008
KMKJ 201155Z AUTO 00000KT 7SM SCT036 SCT046 10/10 A3037 RMK AO2 T00950095 10117 20087
KMKL 201153Z 17005KT 10SM SCT033 23/18 A3017 RMK AO2 SLP210 T02280183 10239 20211 53017
KMKN 201155Z AUTO 17007KT 10SM SCT019 25/23 A2994 RMK AO2 T02500234 10250 20220
KMKO 201153Z AUTO 14011KT 5SM -RA BR FEW010 OVC043 21/20 A2999 RMK AO2 RAB13 SLP147 P0001 60001 70001 T02110200 10239 20211 53009
KMKS 201155Z AUTO 03003KT 7SM BKN029 BKN037 17/15 A3027 RMK AO2
KMKT 201156Z AUTO 14007KT 8SM BKN037 20/20 A3003 RMK AO2 LTG DSNT S SLP166 T02000200 10200 20189 55000
KMKY 201156Z AUTO 04007KT 10SM CLR 23/21 A3000 RMK AO2 SLP160 7//// T02280211 10228 20222 53014 TSNO $
KMLB 201153Z 08014G21KT 10SM SCT035 BKN075 BKN100 26/20 A3006 RMK AO2 RAE10 SLP177 P0000 60010 70014 T02610200 10267 20233 51010
KMLC 201153Z AUTO 14005KT 10SM BKN010 OVC023 22/21 A2997 RMK AO2 RAE1055 SLP139 P0000 60001 70001 T02170206 10239 20217 53008
KMLE 201155Z AUTO 13004KT 10SM CLR 23/21 A2997 RMK AO2 70108 T02250210 10243 20223
KMLF 201152Z AUTO 04008KT 10SM BKN095 08/02 A2995 RMK AO2 WSHFT 1102 RAB10E28 SLP092 P0000 60000 T00830017 10122 20078 50017
KMLI 201152Z 17009G19KT 10SM FEW080 FEW100 22/19 A3010 RMK AO2 LTG DSNT SE-W RAE22 TSE1053 SLP187 P0000 60026 70027 T02170194 10228 20206 51016
KMLJ 201155Z AUTO 07003KT 10SM CLR 15/12 A3029 RMK AO2
KMLP 201153Z AUTO 32004KT 10SM OVC044 04/02 A2999 RMK AO2 SLP100 70001 T00440017 50000 $
KMLS 201153Z AUTO 36016KT 10SM -RA BKN085 OVC110 13/11 A2979 RMK AO2 WSHFT 1132 LTG DSNT N AND SE RAB1055E05B44 PRESFR SLP075 P0000 60000 T01330106 10161 20122 50003
KMLT 201153Z AUTO 30007KT 10SM CLR 16/09 A3013 RMK AO2 SLP207 T01560089 10156 20072 56002
KMLU 201153Z VRB03KT 10SM CLR 23/22 A3008 RMK AO2 SLP183 T02330217 10239 20228 53014
KMMH 201155Z AUTO 27007KT 10SM CLR 00/M02 A3011 RMK AO2 T00001021 10062 21005
KMMI 201155Z AUTO 00000KT 10SM OVC085 16/14 A3030 RMK A01
KMMK 201153Z AUTO 00000KT 10SM CLR 07/07 A3026 RMK AO2 SLP249 T00720067 10072 20039 53009
KMML 201156Z AUTO 14009KT 7SM BKN006 20/19 A2997 RMK AO2 SLP143 T02000194 10200 20189 55004
KMMT 201156Z 04006KT 10SM CLR 15/12 A3030 RMK AO2A SLP262 T01460117 10151 20120 52015 $
KMMU 201145Z 00000KT 15SM FEW120 06/06 A3030
KMMV 201153Z AUTO 00000KT 10SM OVC044 14/13 A3008 RMK AO2 SLP184 T01440128 10150 20144 56005
KMNE 201155Z AUTO 10006KT 10SM -RA SCT041 SCT060 OVC070 22/21 A3004 RMK AO2 P0029 60037 70037 T02150205 10243 20215
KMNH 201148Z AUTO 18010KT 10SM SCT110 10/09 A3001 RMK AO2
KMNI 201155Z AUTO 04004KT 10SM CLR 13/12 A3029 RMK AO2
KMNM 201156Z AUTO 00000KT 1/4SM FG OVC001 16/16 A3013 RMK AO2 SLP202 70023 T01560156 10167 20139 53006 $
KMNN 201153Z AUTO 15006KT 10SM CLR 17/13 A3019 RMK AO2 SLP218 T01670133 10189 20167 53006
KMNV 201155Z AUTO 00000KT 10SM SCT085 15/14 A3028 RMK A01
KMNZ 201155Z AUTO 18013KT 10SM CLR 26/23 A2995 RMK AO2 7//// T02580226 10260 20248
KMOB 201156Z 08007KT 7SM FEW050 SCT150 BKN250 21/18 A3013 RMK AO2 SLP200 70157 T02060183 10228 20206 52014 $
KMOD 201153Z AUTO 00000KT 10SM CLR 15/10 A2990 RMK AO2 SLP124 T01500100 10200 20144 53003
KMOP 201155Z AUTO 00000KT 10SM SCT085 16/16 A3015 RMK AO2 T01600160 10171 20154
KMOR 201155Z AUTO 00000KT 10SM FEW090 16/14 A3028 RMK A01
KMOT 201154Z 32009KT 6SM BR OVC012 17/16 A2975 RMK AO2 SLP068 T01720161 10189 20161 51002
KMOX 201155Z AUTO 13010KT 10SM CLR 19/19 A2990 RMK AO2
KMPO 201153Z AUTO 29008KT 10SM CLR 11/06 A3030 RMK AO2 SLP265 T01060056 10106 20028 53006
KMPV 201151Z AUTO 00000KT 10SM CLR 06/06 A3028 RMK AO2 SLP263 T00560056 10061 20039 53007
KMQB 201155Z AUTO 11004KT 10SM BKN070 21/19 A3013 RMK AO2 LTG DSNT N AND NE T02070188 10223 20187
KMQE 201056Z AUTO 29007KT 10/06 A3019 RMK AO1 SLP234 T01000056
KMQI 201115Z AUTO 05004KT 10SM CLR 16/13 A3031 RMK AO2 T01610134
KMQJ 201155Z AUTO 16004KT 7SM CLR 18/18 A3015 RMK AO1
KMQS 201155Z AUTO 27004KT 10SM CLR 12/10 A3032 RMK AO2
KMQY 201156Z 15005KT 10SM SCT048 20/14 A3024 RMK AO2 SLP243 T02000144 10228 20200 53017
KMRB 201153Z 00000KT 10SM CLR 08/07 A3031 RMK AO2 SLP262 T00830072 10089 20056 53012
KMRC 201155Z AUTO 15004KT 10SM CLR 20/14 A3020 RMK A01
KMRF 201156Z AUTO 35006KT 10SM CLR 16/14 A3006 RMK AO2 SLP122 T01610139 10178 20156 53005
KMRH 201058Z AUTO 01003KT 10SM CLR 16/15 A3027 RMK AO2 SLP252 T01610150
KMRJ 201155Z AUTO 13003KT 3SM BR CLR A3010 RMK AO2
KMRN 201155Z AUTO 00000KT 2SM BR SCT001 09/08 A3038 RMK AO2 T00900083 10109 20082
KMRT 201156Z AUTO 20003KT 10SM SCT060 17/15 A3019 RMK AO2 T01690150 10190 20162
KMRY 201154Z 00000KT 10SM CLR 14/08 A2993 RMK AO2 SLP146 T01390078 10172 20133 55004
KMSL 201153Z AUTO 12006KT 10SM CLR 21/14 A3021 RMK AO2 SLP223 T02110144 10233 20206 51011
KMSN 201153Z 00000KT 4SM BR SCT250 16/15 A3010 RMK AO2 SLP189 70009 T01560150 10172 20150 53001
KMSO 201153Z AUTO 33003KT 10SM CLR 06/06 A2997 RMK AO2 SLP149 T00610056 10106 20061 55001
KMSP 201153Z 12006KT 4SM BR SCT004 BKN250 19/18 A3005 RMK AO2 SLP171 T01940183 10217 20194 53001
KMSS 201153Z AUTO 00000KT 10SM CLR 10/08 A3024 RMK AO2 SLP243 T01000083 10100 20078 53010
KMSV 201156Z AUTO 00000KT 10SM CLR 06/04 A3030 RMK AO2 SLP268 T00560044 10061 20033 53007
KMSY 201153Z 13007KT 10SM FEW025 SCT180 SCT250 27/22 A3005 RMK AO2 SLP180 60000 T02720217 10283 20256 51012
KMTC 201056Z AUTO 00000KT 10SM SCT055 17/17 A3014 RMK AO2 SLP210 T01710171
KMTH 201153Z AUTO 07010G20KT 10SM SCT033 SCT045 BKN080 28/22 A2993 RMK AO2 RAB04E35 SLP135 P0000 60000 70002 T02780217 10278 20261 53014
KMTJ 201153Z AUTO 08005KT 10SM CLR 13/03 A2995 RMK AO2 SLP063 T01330033 10183 20122 58002
KMTK 201155Z AUTO 09009G17KT 10SM SCT038 SCT048 SCT060 29/20 A3005 RMK A01
KMTN 201155Z 00000KT 10SM SCT200 12/11 A3033
KMTO 201153Z AUTO 00000KT 9SM BKN080 BKN110 20/18 A3011 RMK AO2 SLP191 T02000178 10211 20183 51010
KMTP 201154Z AUTO 26004KT 17/14 A3025 RMK AO1 SLP242 T01720139 10172 20150 53004
KMTV 201140Z AUTO 00000KT 10SM CLR 07/07 A3037 RMK AO2
KMTW 201156Z AUTO 00000KT 1 3/4SM BR CLR 14/14 A3013 RMK AO2 SLP204 7//// T01390139 10156 20139 53008
KMUI 201056Z 00000KT 10SM FEW250 05/04 A3029 RMK AO2A SLP261 T00490042
KMUO 201058Z AUTO 30016KT 10SM OVC055 10/10 A2991 RMK AO2 DZB16E27RAB27E41DZB41E54 SLP122 P0000 T01010101 $
KMUT 201155Z AUTO 11008KT 10SM OVC060 22/20 A3008 RMK AO2
KMVE 201155Z AUTO 17008KT 10SM CLR 20/19 A2996 RMK AO2
KMVH 201200Z AUTO 32004KT 10SM FEW085 BKN110 09/08 A2993 RMK AO2
KMVL 201156Z AUTO 00000KT 1 1/4SM BR OVC002 06/06 A3026 RMK AO2 T00560056
KMVN 201156Z AUTO 00000KT 8SM CLR 18/18 A3012 RMK AO2 SLP202 T01780178 10183 20161 51011
KMVY 201153Z 32003KT 10SM CLR 10/08 A3022 RMK AO2 SLP232 T01000078 10100 20022 53004
KMWA 201145Z 14003KT 7SM FEW200 21/21 A3014
KMWC 201155Z AUTO 00000KT 5SM BR CLR 17/15 A3012 RMK AO2
KMWH 201152Z AUTO 00000KT 10SM BKN095 OVC120 13/08 A2993 RMK AO2 SLP132 T01280078 10156 20117 55002
KMWK 201155Z AUTO 00000KT 10SM CLR 10/09 A3036 RMK AO2 T01030090 10120 20093
KMWL 201153Z AUTO 15005KT 10SM FEW008 OVC020 24/23 A2991 RMK AO2 SLP116 T02390228 10239 20217 53008
KMWN 201147Z 02014KT 80SM FEW160 FEW180 SCT200 10/05 RMK PTCHY VLY FG N-E W-NW 10109 20088
KMWO 201155Z AUTO 00000KT 3SM BR CLR 17/17 A3018 RMK AO2 T01690168 10193 20162
KMWT 201153Z AUTO VRB04KT 8SM -RA OVC022 22/21 A3004 RMK AO2 SLP160 P0004 60004 70013 T02170206 10228 20200 53010
KMXF 201156Z AUTO 06007KT 10SM CLR 20/12 A3022 RMK AO2 SLP235 T01970122 10240 20196 52020
KMXO 201155Z AUTO 10003KT 4SM BR FEW050 SCT070 19/19 A3008 RMK AO2
KMYF 201153Z AUTO 00000KT 10SM CLR 16/12 A2987 RMK AO2 SLP113 T01560117 10178 20150 55003
KMYJ 201215Z AUTO 13003KT 7SM CLR 17/17 A3007 RMK AO2
KMYL 201151Z AUTO 33005KT 10SM BKN095 05/02 A2996 RMK AO2 SLP131 T00500017 10089 20044 56005
KMYP 201149Z AUTO 10SM CLR 03/00 A3040 RMK AO2
KMYR 201156Z 01007KT 10SM CLR 17/14 A3029 RMK AO2 SLP256 T01670144 10189 20161 53021
KMYV 201153Z AUTO 36006KT 10SM CLR 15/09 A2992 RMK AO2 SLP134 T01500089 10156 20122 55001
KMYZ 201135Z AUTO 13005KT 10SM CLR 21/20 A2997 RMK AO2
KMZG 201155Z AUTO 24009G15KT 10SM FEW021 FEW026 FEW032 29/26 A2993 RMK A01
KMZH 201136Z AUTO 00000KT 4SM BR OVC001 15/14 A3006 RMK AO2
KN03 201155Z AUTO 36003KT 10SM CLR 06/06 A3029 RMK AO2
KN38 201155Z AUTO RMK AO2 PWINO TSNO
KN60 201152Z AUTO 22005KT 19/18 A2973 RMK AO1 SLP060 T01940183 10200 20178 55004
KNAK 201054Z AUTO 00000KT 10SM CLR 14/11 A3031 RMK AO2 SLP265 T01440106
KNBC 201156Z 01009KT 10SM CLR 18/16 A3024 RMK AO2 SLP241 T01780156 10189 20172 53016
KNBG 201155Z 07003KT 10SM FEW050 BKN250 24/24 A3006 RMK AO2 SLP177 T02440239 10272 20244 51012 $
KNBT 201156Z AUTO 02009KT 10SM CLR 22/14 A3030 RMK AO2 SLP264 T02170139 10217 20200 53020
KNCA 201156Z 03003KT FEW250 16/13 A3031 RMK AO2 SLP265 FIRST T01560133 10161 20139 53019 $
KNDZ 201056Z AUTO 09006KT 10SM CLR 19/16 A3013 RMK AO2 SLP189 T01940156 $
KNEL 201145Z AUTO 00000KT 10SM SCT006 07/07 A3030 RMK AO2 T00670067 $
KNEW 201153Z 12006KT 10SM CLR 26/22 A3006 RMK AO2 SLP173 60145 70145 T02610222 10267 20239 51012
KNFE 201156Z AUTO 00000KT 10SM CLR 14/12 A3032 RMK AO2 SLP269 T01440117 10144 20106 51013
KNFG 201155Z AUTO 00000KT 10SM CLR 13/11 A2987 RMK AO2 SLP114 T01280106 10172 20111 55000
KNFL 201156Z AUTO 16005KT 10SM CLR 04/01 A3005 RMK AO2 SLP146 T00440011 10078 20033 53002
KNFW 201152Z 15005KT 10SM OVC012 26/23 A2993 RMK AO2 CIG 008 N SLP119 60000 T02560228 10261 20250 53011 VISNO N $
KNGP 201156Z 17008KT 10SM FEW024 SCT036 BKN300 28/26 A2990 RMK AO2 SLP124 T02830256 10289 20283 53007 $
KNGU 201059Z 00000KT 10SM SCT035 12/11 A3032 RMK AO2 SLP268 T01170106
KNHK 201152Z 00000KT 10SM CLR 15/13 A3032 RMK AO2 SLP267 T01500128 10150 20100 53009
KNID 201156Z AUTO 30004KT 10SM CLR 16/M01 A2990 RMK AO2 SLP112 T01561006 10189 20128 53009 $
KNIP 201153Z 02006KT 10SM FEW025 SCT050 24/19 A3015 RMK AO2 SLP203 70055 T02440194 10244 20222 53015 $
KNJK 201156Z AUTO 32013KT 10SM CLR 22/M07 A2976 RMK AO2 SLP092 T02221067 10250 20194 53004 $
KNJM 201157Z AUTO 01008KT 10SM CLR 17/14 A3031 RMK AO2 SLP266 T01670144 10172 20156 53019 TSNO $
KNKT 201154Z 36007KT 10SM CLR 18/14 A3032 RMK AO2 SLP263 T01830144 10183 20178 53020
KNKX 201055Z AUTO 13003KT 10SM CLR 15/11 A2986 RMK AO2 SLP107 T01500111
KNLC 201156Z AUTO 32003KT 10SM CLR 11/04 A2992 RMK AO2 SLP130 T01060044 10167 20106 53001
KNMM 201156Z 13006KT 10SM BKN280 20/17 A3017 RMK AO2 SLP224 T02000167 10233 20200 53018
KNOG 201156Z AUTO 12006KT 10SM CLR A2991 RMK AO2 SLPNO 51010 $
KNOW 201130Z AUTO 24005KT 10SM OVC070 13/12 A3006 RMK AO2 T01340123
KNOZ 201059Z AUTO 36004KT 10SM CLR 19/07 A2974 RMK AO2 SLP020 T01940067 $
KNPA 201156Z 09013KT 10SM SCT026 BKN250 24/21 A3012 RMK AO2 SLP201 70001 T02440206 10256 20239 53016
KNQA 201150Z 13003KT 10SM FEW065 23/22 A3012
KNQI 201156Z 13006KT 10SM FEW025 SCT250 26/23 A2990 RMK AO2 SLP122 T02610233 10289 20261 51013 $
KNQX 201153Z 05010KT 10SM SCT030 27/23 A2993 RMK AO2 SLP134 T02720228 10272 20267 53012
KNRB 201152Z COR 08016G20KT 10SM SCT038 SCT080 27/19 A3014 RMK AO2 SLP205 70081 T02670189 10267 20244 53016
KNRS 201156Z AUTO 9SM CLR A2987 RMK AO2 SLP116 57007 $
KNSE 201156Z 08005KT 10SM SCT250 19/16 A3016 RMK AO2 SLP197 T01890156 10217 20189 53017 $
KNSI 201156Z AUTO 24004KT 9SM CLR A2986 RMK AO2 SLPNO 54000 $
KNTD 201157Z AUTO 01003KT 10SM CLR 13/12 A2986 RMK AO2 SLP113 T01280117 10167 20128 53004 CHINO N VISNO N $
KNTU 201156Z 00000KT 10SM FEW020 FEW250 13/12 A3031 RMK AO2 SLP267 T01330117 10133 20106 51012
KNUC 201156Z AUTO 19005KT CLR 14/ A2988 RMK AO2 SLP115 T0139 10161 20139 53002 $
KNUI 201153Z AUTO 00000KT 10SM 15/12 A3032 RMK AO2 SLP265 T01500122 10150 20111 51009
KNUQ 201156Z A2994 RMK AO2 SLP143 55000 PWINO $
KNUW 201156Z 00000KT 10SM FEW025 BKN045 OVC060 14/11 A3010 RMK AO2 SLP192 T01390111 10156 20139 55000
KNXF 201156Z AUTO 07004KT 10SM CLR 15/12 A2987 RMK AO2 SLP200 T01500117 10206 20144 53000
KNXP 201056Z AUTO 31010KT 10SM CLR 18/02 A2993 RMK AO2 SLP102 T01780017
KNY0 201137Z AUTO 00000KT 10SM CLR 07/06 A3026 RMK AO2
KNYC 201151Z AUTO 27005KT 10SM CLR 14/08 A3031 RMK AO2 SLP255 T01440078 10150 20133 53010 $
KNYG 201156Z 30005KT 10SM FEW100 12/11 A3033 RMK AO2 SLP272 T01220106 10133 20117 53008
KNYL 201157Z AUTO 31005KT 10SM CLR 22/11 A2974 RMK AO2 SLP067 T02170106 10267 20217 53000
KNZY 201052Z 15005KT 10SM FEW023 17/12 A2986 RMK AO2 SLP112 T01720122
KO22 201155Z AUTO 00000KT 10SM CLR 08/06 A2995 RMK A01
KO32 201155Z AUTO 00000KT 10SM CLR 12/09 A2992 RMK AO2
KO54 201155Z AUTO 00000KT 10SM BKN110 05/04 A3008 RMK AO1
KO86 201150Z AUTO 27005KT 10SM 07/04 A3007 RMK AO1
KOAJ 201156Z 00000KT 10SM CLR 14/13 A3032 RMK AO2 SLP271 T01440128 10144 20111 53018
KOAK 201153Z 00000KT 10SM CLR 14/10 A2993 RMK AO2 SLP134 T01440100 10189 20133 58004
KOBE 201155Z AUTO 17003KT 22/22 A3003 RMK AO2 PWINO
KOCF 201151Z 05005KT 10SM FEW050 22/21 A3012 RMK AO2 SLP203 70007 T02170206 10217 20206 53016
KOCH 201156Z AUTO RMK AO2 SLPNO 6//// 7//// PWINO FZRANO RVRNO $
KOCQ 201155Z AUTO 00000KT M1/4SM OVC002 16/16 A3012 RMK AO1 70111 T01600160 10160 20141
KOCW 201155Z AUTO 00000KT 7SM CLR 13/13 A3033 RMK AO2 T01310125 10131 20110
KODO 201153Z AUTO 11007KT 10SM CLR 22/17 A2994 RMK AO2 SLP093 70019 T02170167 10233 20211 53007
KODX 201153Z AUTO 16009KT 10SM CLR 21/19 A2991 RMK AO2 SLP118 T02060189 10217 20189 53000 $
KOEB 201156Z AUTO 00000KT 2SM BR SCT003 15/15 A3016 RMK AO2 T01450145 10162 20140
KOEL 201135Z AUTO 19011KT 10SM CLR 18/17 A2993 RMK AO1 T01760170
KOEO 201155Z AUTO 12003KT 3SM BR SCT002 17/17 A3010 RMK AO2 T01710171 10180 20154
KOFF 201056Z 10005KT 10SM SCT250 22/20 A3001 RMK AO2A SLP143 RVRNO $
KOFK 201156Z AUTO 16007KT 10SM CLR 21/19 A2994 RMK AO2 SLP125 T02110194 10239 20206 56002
KOFP 201154Z AUTO 00000KT 9SM CLR 09/08 A3035 RMK AO2 SLP276 T00940078 10106 20083 51010
KOGA 201155Z AUTO 06003KT 10SM CLR 16/15 A2988 RMK AO2 70009 T01620147 10182 20162
KOGB 201153Z AUTO 05006KT 10SM CLR 16/11 A3029 RMK AO2 SLP255 7//// T01560111 10161 20150 53015
KOGD 201153Z AUTO 09005KT 10SM -RA OVC050 11/07 A2988 RMK AO2 SLP079 P0000 60000 T01060072 10133 20106 55003
KOGS 201155Z AUTO 00000KT 10SM CLR 11/10 A3021 RMK AO2
KOIN 201135Z AUTO 16008KT 10SM CLR 19/18 A2996 RMK AO1 T01880182
KOJA 201155Z AUTO 00000KT 10SM BKN037 20/20 A2996 RMK AO2
KOJC 201153Z 14004KT 10SM CLR 21/19 A3001 RMK AO2 SLP151 T02110194 10228 20206 55002
KOKB 201152Z AUTO 04003KT 10SM CLR 12/10 A2987 RMK AO2 SLP113 T01170100 10172 20117 55000 $
KOKC 201152Z 16004KT 4SM -RA BR OVC005 21/21 A2995 RMK AO2 RAE1056B08 SLP126 P0001 60001 70001 T02110211 10228 20206 53015
KOKK 201156Z AUTO 00000KT 4SM BR CLR 16/16 A3015 RMK AO2 SLP206 7//// T01560156 10172 20150 53007
KOKM 201155Z AUTO 15011KT 7SM BKN006 OVC011 21/21 A2997 RMK AO2 P0001 60002 70002 T02130213 10232 20213
KOKV 201155Z AUTO 22004KT 10SM CLR 10/08 A3029 RMK AO2
KOKZ 201135Z AUTO 00000KT 10SM CLR 13/10 A3027 RMK AO2 T01290103
KOLE 201155Z AUTO 22003KT 10SM CLR 08/08 A3028 RMK AO2
KOLF 201153Z AUTO 26007KT 10SM CLR 13/11 A2979 RMK AO2 SLP082 60002 70038 T01330111 10167 20128 53008
KOLG 201155Z AUTO 00000KT 1/4SM OVC002 15/14 A3009 RMK AO1
KOLM 201154Z AUTO 00000KT 10SM OVC020 13/12 A3006 RMK AO2 SLP179 T01330122 10144 20128 56004
KOLS 201154Z AUTO 00000KT 10SM CLR 14/08 A2997 RMK AO2 SLP085 T01440078 10222 20139 53001
KOLU 201156Z AUTO 14005KT 10SM CLR 22/20 A2996 RMK AO2 SLP133 T02170200 10239 20217 53001
KOLV 201150Z 15007KT 10SM BKN045 BKN250 24/21 A3013
KOLY 201155Z AUTO 00000KT 2SM BR CLR 16/16 A3013 RMK AO2 T01550155 10178 20148
KOLZ 201155Z AUTO 11005KT 2SM BR FEW002 SCT045 19/19 A3007 RMK A01
KOMA 201152Z 14007KT 10SM BKN250 22/21 A2997 RMK AO2 SLP140 70074 T02220206 10239 20217 55001
KOMH 201155Z AUTO 00000KT 10SM CLR 08/07 A3032 RMK AO2
KOMK 201153Z AUTO 33005KT 10SM SCT085 BKN120 14/09 A2994 RMK AO2 SLP134 T01390089 10172 20133 55000
KOMN 201150Z 08008KT 7SM SCT038 SCT046 25/20 A3011
KONA 201156Z AUTO 15003KT 3/4SM BR OVC002 19/18 A3009 RMK AO2 LTG DSNT SW
KONL 201155Z AUTO 16008KT 10SM CLR 21/19 A2991 RMK AO2 T02130194 10243 20213
KONM 201155Z AUTO 24004KT 10SM SCT120 16/12 A3001 RMK AO2 T01630115 10186 20155
KONO 201153Z AUTO 31014G24KT 10SM OVC095 14/06 A2995 RMK AO2 SLP136 T01440061 10144 20133 55003
KONP 201155Z AUTO 00000KT 7SM SCT043 BKN050 OVC120 13/13 A3013 RMK AO2
KONT 201153Z 24007KT 10SM FEW010 OVC020 18/14 A2988 RMK AO2 SLP107 CIG 017V022 T01780144 10189 20172 53004
KONX 201155Z AUTO 00000KT 10SM CLR 14/13 A3032 RMK AO2 T01410128 10277 20126
KONZ 201155Z AUTO 19006KT 10SM CLR 20/17 A3015 RMK AO2 T01990166 10202 20177
KOOA 201155Z AUTO 11004KT 4SM BR CLR 19/18 A3005 RMK AO2 T01920182 10211 20192
KOPF 201153Z 07005KT 10SM FEW022 BKN070 BKN085 24/22 A2998 RMK AO2 PK WND 11026/1126 RAB10E44 SLP153 P0001 60001 70002 T02440217 10267 20233 53014
KOPL 201155Z AUTO 09005KT 7SM CLR 23/23 A3004 RMK AO2 70006 T02310225 10231 20218
KOPN 201155Z AUTO 05004KT 10SM CLR 13/08 A3030 RMK AO2
KOQN 201155Z AUTO 00000KT 10SM CLR 11/08 A3031 RMK AO2
KOQT 201153Z AUTO 00000KT 10SM BKN065 OVC095 19/14 A3029 RMK AO2 SLP245 T01940144 10211 20189 51014
KOQU 201150Z 00000KT 10SM FEW250 13/07 A3022
KORB 201154Z AUTO 00000KT 10SM CLR 11/09 A3007 RMK AO2
KORD 201151Z 18004KT 9SM FEW046 FEW075 OVC250 20/18 A3011 RMK AO2 SLP194 70001 T02000183 10211 20200 53009
KORE 201152Z AUTO 00000KT 10SM CLR 04/03 A3025 RMK AO2 SLP249 I6000 T00440028 10050 20022 53004
KORF 201151Z 00000KT 10SM CLR 15/12 A3032 RMK AO2 SLP266 T01500122 10167 20128 51011
KORG 201155Z AUTO 00000KT 10SM BKN007 BKN060 OVC090 25/25 A3002 RMK AO2 70299 T02530249 10271 20252
KORH 201154Z 30011KT 10SM CLR 13/06 A3021 RMK AO2 SLP233 T01280061 10128 20083 51005
KORL 201153Z 06007KT 10SM FEW045 BKN060 OVC085 24/20 A3009 RMK AO2 RAB1056E05 SLP192 P0000 60005 70008 T02440200 10244 20228 53017
KORS 201155Z AUTO 00000KT 10SM SCT003 OVC055 13/13 A3004 RMK AO2
KOSA 201135Z AUTO 13009G15KT 10SM OVC008 22/20 A2999 RMK AO1 P0001 T02170203
KOSC 201155Z AUTO 00000KT 10SM CLR 17/17 A3015 RMK AO2 T01670167 10180 20160
KOSH 201153Z 00000KT M1/4SM R36/0600V0700FT FG VV001 17/17 A3011 RMK AO2 SLP189 70033 T01720167 10189 20156 51007
KOSU 201153Z 17006KT 10SM SCT065 OVC080 19/15 A3019 RMK AO2 SLP215 T01940150 10200 20183 53007
KOTG 201156Z AUTO 08006KT 6SM BR FEW004 20/19 A3001 RMK AO2 SLP157 T02000194 10206 20189 53002
KOTH 201156Z AUTO 16004KT 10SM BKN011 BKN020 OVC026 14/13 A3013 RMK AO2 SLP202 T01390133 10139 20133 56006
KOTM 201153Z AUTO 17005KT 6SM BR CLR 19/19 A3004 RMK AO2 SLP166 70002 T01940189 10222 20194 53003
KOUN 201130Z AUTO 16004KT 2 1/2SM BR BKN005 OVC012 22/21 A2993 RMK AO2 T02160210
KOVE 201153Z AUTO 33003KT 10SM CLR 15/08 A2994 RMK AO2 SLP141 T01500078 10194 20133 50001
KOVL 201156Z AUTO 13008KT 7SM SCT035 SCT050 20/18 A2998 RMK AO2
KOVS 201153Z AUTO 00000KT 1/4SM FG VV002 18/18 A3009 RMK AO2 SLP188 70136 T01830178 10194 20183 53002
KOWA 201153Z AUTO 12006KT 10SM SCT021 SCT038 19/18 A3006 RMK AO2 LTG DSNT S AND SW
KOWB 201156Z 16005KT 10SM CLR 22/19 A3017 RMK AO2 SLP213 T02170189 10228 20217 53015
KOWD 201153Z 00000KT 10SM CLR 08/05 A3021 RMK AO2 SLP230 T00780050 10078 20028 51005
KOWI 201155Z AUTO 15004KT 9SM FEW050 21/21 A2999 RMK AO2 PWINO
KOWP 201155Z AUTO 15008KT 10SM SCT010 OVC017 23/21 A2997 RMK AO2 T02300210 10260 20230 PWINO
KOWX 201155Z AUTO 00000KT 10SM SCT065 15/13 A3018 RMK AO1
KOXB 201153Z AUTO 00000KT 10SM CLR 12/11 A3033 RMK AO2 SLP271 T01220106 10122 20083 53012
KOXC 201151Z 00000KT 10SM CLR 08/07 A3027 RMK AO2 SLP266 T00830067 10089 20044 53008
KOXD 201136Z AUTO 00000KT 7SM CLR 18/18 A3017 RMK AO2 T01790179
KOXI 201155Z AUTO 00000KT 10SM CLR 16/15 A3014 RMK AO1
KOXR 201151Z AUTO 08003KT 10SM CLR 15/11 A2985 RMK AO2 SLP108 T01500111 10189 20150 51005
KOXV 201155Z AUTO 15004KT 7SM CLR 20/20 A3003 RMK AO2
KOYM 201137Z AUTO 00000KT 10SM CLR 06/05 A3031 RMK AO2
KOZA 201155Z AUTO 17013G17KT 10SM BKN023 25/20 A2996 RMK AO2
KOZR 201156Z AUTO 05007KT 10SM CLR 17/15 A3019 RMK AO2 SLP224 T01690145 10201 20167 52013
KOZS 201135Z AUTO 12005KT 10SM CLR 20/17 A3006 RMK AO2
KOZW 201156Z AUTO 00000KT 7SM CLR 16/14 A3016 RMK AO2 T01550143 10165 20145
KP08 201155Z AUTO 12008KT 10SM CLR 21/05 A2980 RMK AO2
KP28 201156Z AUTO 13006KT 21/20 A2995 RMK AO1 SLP125 T02060200 10244 20206 53012
KP53 201156Z AUTO 18003KT 18/17 A3012 RMK AO1 SLP198 60001 70001 T01830172 10194 20178 53009
KP58 201151Z AUTO 00000KT 16/14 A3015 RMK AO1 SLP205 T01560139 10172 20156 53007
KP59 201151Z AUTO 23004KT 16/14 A3013 RMK AO1 SLP201 T01560144 10156 20139
KP60 201156Z AUTO 00000KT 02/02 A2996 RMK AO1 SLP090 70001 T00220017 10061 20022 58019
KP68 201153Z AUTO 00000KT 05/02 A3002 RMK AO1 SLP131 70006 T00500022 10056 20000 $
KP69 201152Z AUTO 01003KT 11/09 A3001 RMK AO1 SLP157 70003 T01060089 10117 20106 55001
KP92 201153Z AUTO 27/23 A3003 RMK AO1 SLP167 T02670233 10278 20256 53014
KPAE 201153Z AUTO 00000KT 10SM OVC010 14/12 A3007 RMK AO2 SLP183 70001 T01390122 10150 20139 55002
KPAH 201153Z 17006KT 7SM FEW037 BKN045 23/20 A3013 RMK AO2 SLP197 T02280200 10239 20206 53012
KPAM 201156Z AUTO 07007KT 10SM CLR 21/17 A3014 RMK AO2 SLP209 T02080168 10228 20204 52015 $
KPAN 201155Z AUTO 00000KT 10SM CLR 13/01 A3000 RMK AO2
KPBF 201153Z AUTO 12003KT 5SM BR CLR 22/20 A3008 RMK AO2 SLP182 70038 T02170200 10222 20211 53011
KPBG 201153Z AUTO 00000KT 10SM CLR 09/08 A3024 RMK AO2 SLP242 T00940078 10094 20056 53010
KPBH 201155Z AUTO 00000KT M1/4SM FG OVC003 14/14 A3012 RMK AO2 T01380138 10156 20129
KPBI 201153Z 07015G21KT 10SM SCT024 BKN085 BKN100 27/22 A3001 RMK AO2 SLP161 70001 T02670217 10267 20256 53015 $
KPBX 201155Z AUTO 00000KT 10SM SCT044 BKN050 BKN100 18/13 A3026 RMK AO2 T01750127 10185 20172
KPCD 201155Z AUTO 14004KT 5SM BR CLR 20/19 A3010 RMK AO2 T01970192 10213 20187
KPCM 201155Z AUTO 03003KT 10SM SCT080 SCT090 22/22 A3010 RMK AO2
KPCW 201155Z AUTO 19007KT 10SM CLR 18/14 A3015 RMK AO2
KPCZ 201155Z AUTO 00000KT M1/4SM FG OVC001 17/17 A3013 RMK AO2 70009 T01680165 10178 20167
KPDC 201135Z AUTO 00000KT 1 1/2SM BR BKN001 BKN070 18/17 A3007 RMK AO2 T01770171
KPDK 201153Z AUTO 08003KT 10SM CLR 16/13 A3030 RMK AO2 SLP254 T01560128 10183 20156 53017
KPDT 201153Z AUTO 15003KT 10SM FEW075 BKN090 12/08 A2999 RMK AO2 SLP146 70010 T01220078 10128 20106 56003
KPDX 201153Z 19003KT 10SM BKN037 OVC044 16/13 A3008 RMK AO2 SLP183 70001 T01560133 10172 20150 58006
KPEA 201155Z AUTO 00000KT 7SM CLR 20/19 A3005 RMK AO2 70002 T02000190 10215 20198
KPEO 201153Z AUTO 21009KT 10SM CLR 12/10 A3026 RMK AO2 SLP247 T01220100 10133 20111 53008
KPEQ 201130Z AUTO 30007KT 10SM OVC110 23/16 A2989 RMK AO2 T02270155
KPEX 201136Z AUTO 13005KT 7SM SCT055 19/19 A3002 RMK AO2 T01910192
KPEZ 201155Z AUTO 15007KT 10SM CLR 26/23 A2993 RMK AO2 T02550225 10273 20255
KPGA 201153Z AUTO 26003KT 10SM CLR 19/M07 A2986 RMK AO2 SLP044 T01891072 10233 20189 51011 TSNO
KPGD 201153Z 04008KT 10SM CLR 22/21 A3004 RMK AO2 SLP173 T02220211 10222 20211 51018
KPGV 201155Z AUTO 00000KT 10SM CLR 11/11 A3033 RMK AO2
KPHD 201153Z AUTO 00000KT 10SM CLR 13/11 A3024 RMK AO2 SLP237 T01280111 10139 20117 51009
KPHF 201154Z 00000KT 10SM CLR 13/12 A3033 RMK AO2 SLP270 T01280117 10128 20089 53012
KPHL 201154Z 26003KT 10SM SCT300 14/11 A3032 RMK AO2 SLP265 T01390106 10139 20128 53007 $
KPHN 201155Z AUTO 00000KT 1 3/4SM BR SCT050 15/14 A3016 RMK AO2
KPHP 201155Z AUTO 09007KT 9SM CLR 17/17 A2976 RMK AO2 SLP057 T01720172 10211 20172 58007
KPHT 201155Z AUTO 16010KT 10SM SCT032 SCT039 BKN120 22/18 A3017 RMK A01
KPHX 201151Z 08006KT 10SM CLR 24/03 A2974 RMK AO2 SLP052 T02390028 10317 20239 53004
KPIA 201154Z 10005KT 10SM BKN070 BKN085 OVC110 21/17 A3012 RMK AO2 LTG DSNT N AND NW SLP194 60000 T02110172 10244 20206 53002 $
KPIB 201156Z AUTO 11003KT 10SM CLR 21/19 A3015 RMK AO2 SLP206 7//// T02110194 10222 20211 53017
KPIE 201153Z 05011KT 10SM CLR 24/21 A3006 RMK AO2 SLP180 T02390206 10244 20233 51016
KPIH 201153Z AUTO 23008KT 10SM FEW030 BKN039 OVC046 09/05 A2993 RMK AO2 SLP117 T00890050 10094 20067 51001
KPIL 201153Z AUTO 15005KT 10SM CLR 26/23 A2988 RMK AO2 SLP118 T02610233 10283 20261 53006
KPIM 201155Z AUTO 05003KT 10SM CLR 16/10 A3027 RMK AO2 7//// T01640098 10209 20160
KPIR 201153Z AUTO 13011KT 10SM CLR 21/19 A2978 RMK AO2 SLP070 T02110189 10217 20206 50004
KPIT 201151Z 00000KT 10SM SCT060 SCT250 12/09 A3025 RMK AO2 SLP250 T01170089 10144 20111 53009
KPJC 201155Z AUTO 00000KT 7SM CLR 08/08 A3026 RMK AO2
KPKB 201153Z 00000KT 10SM SCT043 14/12 A3027 RMK AO2 SLP247 T01390117 10183 20128 53009
KPKD 201153Z AUTO 12006KT 10SM CLR 17/15 A3000 RMK AO2 SLP154 T01670150 10183 20161 56011
KPKV 201155Z AUTO 14004KT 10SM CLR 26/25 A2993 RMK AO2 70019 T02640250 10287 20262
KPLD 201155Z AUTO 00000KT 7SM SCT050 18/17 A3015 RMK AO2
KPLN 201154Z AUTO 00000KT 4SM BR BKN060 OVC100 17/17 A3014 RMK AO2 SLP205 60004 70016 T01720167 10189 20172 53006
KPLR 201155Z AUTO 07004KT 10SM CLR 15/15 A3027 RMK A01
KPLU 201155Z AUTO 00000KT 10SM BKN010 BKN019 OVC025 14/14 A3007 RMK AO2
KPMD 201153Z AUTO 16006KT 10SM CLR 11/01 A2994 RMK AO2 SLP121 T01110006 10172 20111 53005
KPMH 201156Z AUTO 00000KT 10SM CLR 14/14 A3022 RMK AO2 T01350135
KPMP 201153Z 07019G26KT 10SM FEW025 SCT036 BKN055 28/22 A2998 RMK AO2 PK WND 06026/1152 SLP154 70007 T02780217 10278 20267 53015 $
KPMU 201155Z AUTO 00000KT 23/22 A3013 RMK AO2
KPMV 201155Z AUTO 13004KT 10SM CLR 22/21 A2998 RMK AO2 70057 T02200212 10240 20220
KPNA 201135Z AUTO 29004KT 10SM BKN075 OVC090 07/04 A2990 RMK AO2 LTG DSNT W
KPNC 201153Z AUTO 14011KT 10SM OVC017 23/19 A2996 RMK AO2 SLP131 T02330194 10250 20228 53011
KPNE 201154Z 25003KT 10SM CLR 14/10 A3032 RMK AO2 SLP267 T01390100 10139 20106 53009 $
KPNM 201157Z AUTO 00000KT 1/4SM FG OVC001 18/18 A3005 RMK AO2
KPNS 201153Z 07007KT 10SM CLR 23/19 A3013 RMK AO2 SLP205 T02280189 10261 20228 53016
KPNT 201135Z AUTO 00000KT 4SM -RA BKN110 20/20 A3014 RMK AO2 LTG DSNT W P0005 T01970195
KPOB 201156Z AUTO 00000KT 10SM CLR 12/11 A3033 RMK AO2 SLP273 T01160105 10119 20095 52017 $
KPOE 201122Z AUTO 11004KT 10SM FEW018 OVC100 23/22 A3001 RMK AO2 RAB13E22 SLP162
KPOF 201153Z AUTO 16004KT 7SM CLR 23/21 A3010 RMK AO2 SLP187 T02280211 10228 20206 53010
KPOU 201153Z AUTO 00000KT 10SM CLR 07/04 A3028 RMK AO2 SLP250 T00720044 10072 20039 53009
KPOV 201155Z AUTO 00000KT 10SM CLR 12/10 A3022 RMK AO2 T01230103 PWINO
KPOY 201155Z AUTO 31013KT 10SM SCT120 08/04 A2985 RMK AO2
KPPA 201135Z AUTO 35004KT 10SM VCTS SCT006 BKN075 OVC120 18/17 A3003 RMK AO2 LTG DSNT N T01770167
KPPF 201152Z AUTO 15006KT 10SM CLR 22/21 A3000 RMK AO2 SLP148 60000 T02220206 10244 20222 53002
KPPO 201155Z AUTO 00000KT 10SM CLR 16/15 A3015 RMK AO2 T01550147 10170 20154
KPPQ 201135Z AUTO 00000KT 10SM CLR 20/20 A3009 RMK AO2 T01960195
KPQI 201156Z AUTO 19005KT 10SM CLR 11/09 A3010 RMK AO2 SLP222 T01060089 10106 20050 58004
KPQL 201153Z 07005KT 10SM CLR 23/19 A3010 RMK AO2 SLP194 70013 T02280189 10244 20228 53011
KPQN 201156Z AUTO 19008KT 7SM SCT095 21/20 A2998 RMK AO2
KPRB 201153Z AUTO 00000KT 10SM CLR 08/06 A2994 RMK AO2 SLP135 T00780056 10167 20078 53001 $
KPRC 201153Z AUTO 14005KT 10SM CLR 13/01 A2996 RMK AO2 SLP075 T01280006 10172 20111 53002
KPRG 201135Z AUTO 00000KT 7SM BKN070 BKN120 19/19 A3014 RMK AO2 T01910186
KPRN 201156Z AUTO 07006KT 10SM CLR 18/13 A3020 RMK AO2 SLP221 T01830133 10222 20183 53016
KPRO 201155Z AUTO 13004KT 2 1/2SM BR CLR 20/20 A3002 RMK AO2 70020 T02000200 10213 20197
KPRS 201155Z AUTO 04004KT 10SM CLR 24/16 A2993 RMK AO2 T02390160 10268 20231
KPRX 201156Z AUTO 12010KT 10SM -RA FEW007 SCT012 OVC018 21/21 A2997 RMK AO2 SLP155 P0003 60033 70042 T02060206 10217 20206 51005
KPSC 201153Z AUTO 00000KT 10SM CLR 12/10 A2995 RMK AO2 SLP142 T01220100 10150 20100 56003
KPSF 201154Z AUTO 00000KT 10SM CLR 05/04 A3026 RMK AO2 SLP245 T00500039 10050 20017 53007
KPSK 201135Z AUTO 00000KT M1/4SM FG OVC003 08/08 A3036 RMK AO2 T00800080
KPSM 201056Z 00000KT 10SM FEW250 06/05 A3017 RMK AO2A SLP220 T00590050
KPSN 201155Z AUTO 15005KT 10SM BKN009 OVC014 25/24 A2998 RMK AO2 T02500243
KPSO 201155Z AUTO 00000KT 10SM SCT085 08/08 A3015 RMK AO2 T00780078 10126 20078
KPSP 201153Z AUTO 31004KT 10SM CLR 22/08 A2980 RMK AO2 SLP086 T02170083 10261 20206 51013
KPSX 201153Z AUTO 16006KT 10SM CLR 29/24 A2993 RMK AO2 SLP135 T02890244 10294 20283 53010
KPTB 201155Z AUTO 00000KT 10SM CLR 07/06 A3034 RMK AO2 T00720061 10075 20046
KPTD 201155Z AUTO 19004KT 10SM CLR 12/10 A3023 RMK AO2
KPTK 201153Z 00000KT 7SM FEW085 SCT220 17/15 A3015 RMK AO2 SLP206 T01670150 10172 20156 53007
KPTN 201156Z AUTO 13005KT 10SM CLR 26/23 A3005 RMK AO2 SLP176 T02560233 10256 20239 51015
KPTS 201155Z AUTO 14006KT 10SM CLR 22/20 A3001 RMK AO2 T02150196
KPTT 201135Z AUTO 15004KT 10SM CLR 21/19 A2996 RMK AO2 T02060191
KPTV 201156Z AUTO RMK AO2 SLPNO 6//// 7//// PWINO FZRANO $
KPTW 201154Z AUTO 00000KT 8SM CLR 08/07 A3033 RMK AO2 SLP268 T00830072 10083 20050 53008
KPUB 201153Z 27005KT 10SM CLR 14/10 A2991 RMK AO2 SLP063 7//// T01390100 10222 20139 51006
KPUC 201153Z AUTO 10004KT 10SM FEW120 10/01 A2984 RMK AO2 SLP046 70002 T01000011 10156 20100 51004
KPUJ 201155Z AUTO 10003KT 10SM CLR 15/12 A3030 RMK AO2
KPUW 201153Z AUTO 00000KT 10SM BKN065 BKN080 06/04 A3000 RMK AO2 SLP160 T00610044 10094 20056 53000
KPVB 201155Z AUTO 13004KT 3SM CLR 18/18 A3010 RMK AO1 70107 T01820182 10190 20180
KPVC 201156Z AUTO 24004KT 10SM CLR 14/12 A3020 RMK AO2 SLP227 6//// 7//// T01440122 10144 20061 50001 PNO $
KPVD 201151Z 26004KT 10SM FEW300 11/08 A3023 RMK AO2 SLP235 T01110083 10111 20078 53005
KPVE 201155Z AUTO 15005KT 10SM CLR 21/16 A3017 RMK A01
KPVF 201135Z AUTO 10008KT 10SM CLR 13/02 A2997 RMK AO1
KPVG 201156Z AUTO 00000KT 10SM CLR 10/09 A3033 RMK AO2 SLP273 T01000094 10100 20050 51010
KPVJ 201155Z AUTO 00000KT 10SM BKN016 OVC055 22/22 A2994 RMK AO2 60008 70008 T02150215 10220 20213
KPVU 201156Z AUTO 07005KT 10SM SCT060 11/04 A2988 RMK AO2 SLP080 60000 T01060039 10144 20106 55000
KPVW 201155Z AUTO 19003KT 5SM BR SCT011 17/17 A2998 RMK AO2 LTG DSNT NW T01720169 10188 20170
KPWA 201153Z 17005KT 10SM SCT009 BKN014 OVC026 22/21 A2995 RMK AO2 RAE44 SLP125 P0001 60001 70001 T02220211 10256 20222 51004 $
KPWC 201155Z AUTO 11004KT 10SM BKN004 14/13 A3007 RMK AO2
KPWG 201156Z AUTO 17007KT 10SM -RA BKN018 OVC026 26/24 A2995 RMK AO2 RAE25B52 SLP134 P0000 60000 T02560239 10261 20250 50009 $
KPWK 201152Z 00000KT 9SM SCT044 BKN050 21/18 A3012 RMK AO2 SLP196 60001 70004 T02060183 10217 20200 53008
KPWM 201151Z 27003KT 10SM FEW200 11/08 A3019 RMK AO2 SLP221 T01060083 10106 20061 53007
KPWT 201156Z AUTO 00000KT 10SM SCT011 SCT037 BKN048 13/12 A3007 RMK AO2 SLP198 6//// 7//// T01280122 10139 20128 55001
KPXE 201155Z AUTO 04005KT 10SM CLR 14/11 A3026 RMK AO2 T01380112 10163 20126
KPYM 201152Z AUTO 00000KT 10SM CLR 07/07 A3021 RMK AO2 SLP231 T00720067 10078 20050 53002
KPYX 201155Z AUTO 00000KT 10SM OVC038 19/16 A2999 RMK AO2 70019 T01880155 10198 20160
KPZQ 201155Z AUTO 00000KT 10SM SCT075 OVC110 16/15 A3015 RMK AO2 T01580146 10192 20155
KPZZ 201155Z AUTO 12016KT 10SM CLR 28/23 A3003 RMK A01
KQAZ 201156Z AUTO 00000KT 9999 CLR 39/03 A2992 RMK AO2 SLP141 WND DATA ESTMD T03880029 10388 20271
KQBN 201155Z AUTO 00000KT 10SM SCT060 BKN095 09/07 A3000 RMK AO2 SHRAB1005E1112B1132E1148 SLP157 WND DATA ESTMD 70015 T00890068 10196 20072 57003
KQD3 201156Z AUTO 06010KT 9999 CLR 36/25 A2962 RMK AO2 LTG DSNT W SLP015 WND DATA ESTMD T03620249 10375 20343 57024
KQDG 201156Z AUTO 26006KT 9999 CLR M M RMK AO2 SLPNO 10213 20206 $
KQEI 201150Z AUTO 15002KT 9999 OVC140 16/14 A3013 RMK A02 TSNO
KQEJ 201150Z AUTO 18002KT 9999 BKN150 16/15 A3012 RMK A02 TSNO
KQEL 201150Z AUTO 01001KT / // OVC140 17/15 A3021 RMK A02 TSNO
KQEN 201150Z AUTO 16001KT 9999 OVC150 13/14 / RMK A02 TSNO
KQEP 201150Z AUTO 10001KT 4000 HZ OVC170 19/16 A3012 RMK A02 TSNO
KQEQ 201150Z AUTO 18002KT 9999 BKN150 18/17 A3013 RMK A02 TSNO
KQER 201150Z AUTO 13001KT 6000 HZ OVC140 16/14 A3009 RMK A02 TSNO
KQES 201150Z AUTO 08002KT 9999 CLR 20/13 A3011 RMK A02 TSNO
KQEV 201150Z AUTO 06002KT 9999 OVC170 20/14 A3005 RMK A02 TSNO
KQEW 201150Z AUTO 36003KT 9999 OVC160 19/15 A3009 RMK A02 TSNO
KQEX 201150Z AUTO 03001KT 9999 OVC190 21/15 A3001 RMK A02 TSNO
KQEY 201150Z AUTO 04003KT 9999 BKN150 19/14 A2978 RMK A02 TSNO
KQFB 201150Z AUTO 10001KT 9999 FEW045 BKN190 20/14 A3013 RMK A02 TSNO
KQFT 201150Z AUTO 09001KT 9999 FEW140 BKN180 19/16 A3010 RMK A02 TSNO
KQFU 201150Z AUTO 15001KT 9999 BKN150 19/15 A3014 RMK A02 TSNO
KQFV 201150Z AUTO 35002KT 9999 BKN140 16/16 A3017 RMK A02 TSNO
KQFW 201150Z AUTO 27002KT 9999 FEW140 OVC180 18/15 A3013 RMK A02 TSNO
KQFX 201150Z AUTO 12002KT 9999 BKN130 18/17 A3009 RMK A02 TSNO
KQN3 201156Z AUTO VRB06KT 9999 FEW220 34/19 A2991 RMK AO2 SLP121 WND DATA ESTMD 70029 T03430186 10343 20246
KQRH 201156Z AUTO M M /// /// CLR 34/27 A2965 RMK AO2 SLP027 WND DATA ESTMD T03390267 10352 20335 $
KQVF 201156Z AUTO 19009G14KT 140V230 9999 FEW028 29/20 A2994 RMK AO2 SLP141 WND DATA ESTMD T02910200 10303 20268 57024
KQWX 201155Z AUTO 09001KT 10SM BKN230 22/20 A3003 RMK AO2 SLP150 WND DATA ESTMD 70026 T02230202 10281 20235 55000
KRAC 201153Z AUTO 00000KT 8SM CLR 17/16 A3013 RMK AO2 SLP200 T01670156 10194 20167 53008
KRAL 201153Z AUTO 00000KT 10SM OVC016 17/14 A2988 RMK AO2 SLP104 T01720139 10200 20161 53005
KRAP 201152Z 18010KT 10SM CLR 19/11 A2977 RMK AO2 SLP055 T01890111 10222 20172 53001
KRAS 201155Z AUTO 15013G16KT 10SM SCT023 SCT028 29/25 A2992 RMK AO2 P0003 T02870251 10293 20275 60003 70045
KRAW 201115Z AUTO 00000KT 10SM CLR A3004 RMK AO2
KRBD 201153Z 17008KT 9SM OVC007 24/23 A2992 RMK AO2 SLP124 60000 70001 T02390228 10244 20228 51006
KRBG 201153Z AUTO 00000KT 10SM CLR 12/11 A3011 RMK AO2 SLP196 60000 T01220106 10144 20122 56003
KRBL 201154Z AUTO 34009KT 10SM CLR 16/07 A2997 RMK AO2 SLP145 T01560072 10183 20150 53001
KRBO 201130Z AUTO 11004KT 10SM CLR 25/23 A2991 RMK AO2 T02540227
KRBW 201155Z AUTO 01005KT 10SM CLR 16/13 A3027 RMK AO2
KRCA 201058Z 32009KT 10SM CLR 19/15 A2975 RMK SLP049 T01930145 10237 20182 57007 $
KRCE 201155Z AUTO 16004KT 10SM CLR 21/21 A2995 RMK AO2
KRCM 201215Z AUTO 00000KT 7SM CLR 19/18 A3003 RMK AO2
KRCR 201155Z AUTO 00000KT 7SM CLR 16/14 A3015 RMK AO2
KRCV 201155Z AUTO 00000KT 10SM SCT060 OVC080 09/05 A3013 RMK AO2 T00900050 10140 20078
KRCX 201155Z AUTO 00000KT M1/4SM FG OVC002 16/16 A3013 RMK AO2 T01600160 10183 20160
KRCZ 201135Z AUTO 03003KT 10SM CLR 12/10 A3032 RMK AO2 T01200100
KRDD 201153Z AUTO 36003KT 10SM CLR 17/08 A2997 RMK AO2 SLP144 T01670078 10189 20150 53001
KRDG 201154Z 00000KT 10SM CLR 09/09 A3030 RMK AO2 SLP266 T00940089 10100 20072 53008
KRDK 201155Z AUTO 00000KT 9SM SCT250 BKN270 21/20 A3000 RMK AO2
KRDM 201156Z 18005KT 10SM -RA OVC050 09/06 A3006 RMK AO2 RAB30 SLP169 P0000 60000 T00890061 10100 20078 56008
KRDR 201056Z AUTO 16011KT 10SM CLR 17/17 A2988 RMK AO2 SLP121 T01730170 $
KRDU 201151Z 05003KT 10SM FEW250 12/11 A3034 RMK AO2 SLP272 T01170111 10144 20100 51013
KREG 201155Z AUTO 00000KT 7SM CLR 26/25 A3005 RMK AO2 T02560245 10265 20256
KREO 201152Z AUTO 21004KT 07/05 A3001 RMK AO1 SLP161 60002 70019 T00670050 10083 20056 53000
KRFD 201154Z 16004KT 3SM BR SCT045 BKN080 18/18 A3012 RMK AO2 SLP196 70019 T01830178 10206 20183 53006
KRFI 201155Z AUTO 16004KT 7SM OVC004 23/22 A3002 RMK AO2 LTG DSNT NW 60036 70107 T02250220 10225 20212
KRGA 201155Z AUTO 20008KT 10SM SCT095 20/15 A3022 RMK AO2
KRGK 201136Z AUTO 11004KT 5SM BR SCT004 18/18 A3006 RMK AO2 LTG DSNT S
KRHI 201153Z AUTO 09003KT M1/4SM FG VV002 14/13 A3014 RMK AO2 SLP204 T01440133 10172 20133 52002
KRHP 201155Z AUTO 00000KT 10SM BKN075 13/13 A3033 RMK AO2 T01300130 10150 20120
KRIC 201154Z 00000KT 10SM FEW300 13/11 A3033 RMK AO2 SLP275 T01280106 10128 20094 51009
KRID 201155Z AUTO 16005KT 4SM BR CLR 16/16 A3018 RMK AO2
KRIL 201153Z AUTO 20003KT 10SM CLR 14/04 A2988 RMK AO2 SLP045 T01440039 10211 20139 55002
KRIV 201113Z AUTO 00000KT 10SM OVC015 16/16 A2988 RMK AO2 CIG 014 RWY14 SLP108
KRIW 201153Z AUTO 03011KT 10SM BKN110 12/06 A2985 RMK AO2 SLP043 60000 T01220056 10150 20122 50000 TSNO
KRKD 201156Z AUTO 26003KT 10SM CLR 09/08 A3016 RMK AO2 SLP214 T00940078 10094 20050 53007
KRKP 201153Z AUTO 15008KT 10SM FEW024 29/24 A2991 RMK AO2 SLP128 T02940239 10300 20294 51009
KRKR 201155Z AUTO 00000KT 10SM OVC030 22/20 A2999 RMK AO2 P0002
KRKS 201154Z AUTO 22008KT 10SM CLR 06/01 A2990 RMK AO2 SLP054 60000 T00610006 10139 20061 55002
KRKW 201155Z AUTO 00000KT 10SM FEW050 BKN085 16/14 A3029 RMK A01
KRLD 201135Z AUTO 00000KT 10SM CLR 15/09 A2995 RMK AO2 T01500086
KRME 201153Z 00000KT 10SM CLR 08/08 A3028 RMK AO2 SLP255 T00830078 10094 20072 53007
KRMG 201153Z AUTO 00000KT 10SM BKN070 17/13 A3029 RMK AO2 SLP247 T01720133 10206 20161 53017
KRMN 201155Z AUTO 00000KT 10SM CLR 08/08 A3037 RMK AO2 T00780078 10093 20061
KRMY 201156Z AUTO 00000KT 5SM BR CLR 15/14 A3015 RMK AO2 T01480138 10156 20126
KRNC 201155Z AUTO 00000KT 10SM OVC060 18/13 A3025 RMK A01
KRND 201156Z AUTO 17009KT 10SM SCT016 BKN024 26/24 A2994 RMK AO2 CIG 015 RWY15R CIG 014 RWY33R SLP129 70224 T02580240 10264 20253 52014 $
KRNH 201135Z AUTO 11005KT 4SM BR CLR 17/17 A3008 RMK AO2 T01700170
KRNM 201153Z AUTO 00000KT 10SM CLR 11/09 A2988 RMK AO2 SLP108 T01110089 10172 20100 55004
KRNO 201155Z 00000KT 10SM FEW060 06/02 A3008 RMK AO2 SLP163 70001 T00610022 10111 20061 53001
KRNP 201157Z AUTO 00000KT 4SM BR CLR 16/16 A3015 RMK AO2 T01600160 10176 20150
KRNT 201153Z AUTO 16004KT 10SM BKN024 OVC045 16/13 A3006 RMK AO2 SLP185 T01560128 10161 20150 55001
KRNV 201135Z AUTO 11007KT 10SM BKN034 OVC043 23/23 A3010 RMK AO2 T02300230
KROA 201154Z 00000KT 10SM CLR 11/09 A3036 RMK AO2 SLP278 T01060094 10122 20094 52009
KROC 201154Z 23006KT 10SM SCT200 BKN250 13/09 A3024 RMK AO2 SLP244 T01280094 10133 20117 52009
KROG 201158Z 12006KT 10SM CLR 21/19 A3006 RMK AO2 SLP164 70033 T02110189 10228 20211 53006
KROS 201156Z AUTO 00000KT 1/4SM FG OVC001 15/14 A3007 RMK AO2 T01490143 10155 20139
KROW 201151Z 05007KT 8SM BKN110 20/18 A2997 RMK AO2 RAE25 SLP078 P0001 60025 70025 T02000183 10256 20194 58006
KRPD 201155Z AUTO 00000KT M1/4SM HZ OVC002 18/11 A3011 RMK AO2 70001 T01780107 10187 20155
KRPH 201135Z AUTO 00000KT 10SM SCT017 BKN030 22/22 A2992 RMK AO2 T02200215
KRPJ 201155Z AUTO 16003KT 4SM BR BKN042 BKN050 OVC075 19/19 A3012 RMK AO2 70013 T01850185 10195 20173
KRQB 201155Z AUTO 00000KT 10SM CLR 16/15 A3015 RMK AO2 T01560146 10182 20154
KRQE 201153Z AUTO 00000KT 10SM CLR A3007 RMK AO2 SLPNO 52003
KRQO 201155Z AUTO 16006KT 10SM BKN009 OVC015 22/20 A2996 RMK AO2 T02170205 10222 20215
KRRL 201155Z AUTO 00000KT M1/4SM FG OVC002 16/16 A3013 RMK AO2 T01580158 10158 20135 TSNO
KRRT 201155Z AUTO 13009KT 10SM CLR 14/12 A2999 RMK AO2
KRSL 201153Z AUTO 15007KT 10SM CLR 21/19 A2993 RMK AO2 SLP119 T02060189 10228 20206 53005
KRSN 201155Z AUTO 00000KT 10SM OVC018 22/21 A3011 RMK AO2 70028 T02200210 10225 20217
KRST 201154Z 14005KT 5SM BR BKN012 18/17 A3009 RMK AO2 SLP183 70003 T01830172 10183 20167 53002
KRSV 201155Z AUTO 00000KT 3/4SM BR OVC003 14/14 A3013 RMK AO2 T01390139 10150 20131
KRSW 201153Z 04006KT 10SM CLR 23/21 A3001 RMK AO2 SLP161 T02280206 10228 20222 53015
KRTN 201101Z AUTO 16016KT 10SM SCT010 BKN016 OVC029 14/11 A3012 RMK AO2 T01390111
KRTS 201155Z AUTO 36006KT 10SM CLR 01/00 A3010 RMK AO2
KRUE 201153Z AUTO VRB04KT 10SM BKN110 22/21 A3005 RMK AO2 SLP168 T02170206 10233 20206 53014
KRUG 201155Z AUTO 15014G24KT 10SM 19/19 A2972 RMK AO2 LTG DSNT N
KRUQ 201155Z AUTO 00000KT 10SM CLR 09/09 A3034 RMK AO2 T00870085 10103 20076
KRUT 201156Z AUTO 16004KT 10SM CLR 07/06 A3026 RMK AO2 SLP247 T00720056 10072 20050 51005 $
KRVL 201155Z AUTO 00000KT 3/4SM BR VV005 07/07 A3030 RMK AO2
KRVS 201153Z 16007KT 10SM BKN018 BKN023 OVC027 23/19 A2996 RMK AO2 SLP149 T02330194 10256 20233 53007
KRWF 201153Z AUTO 10005KT 6SM BR CLR 20/20 A2998 RMK AO2 SLP148 T02000200 10206 20189 56005
KRWI 201153Z AUTO 04003KT 10SM CLR 12/12 A3033 RMK AO2 SLP271 T01220117 10122 20094 53014
KRWL 201153Z AUTO 16008KT 10SM CLR 11/01 A2989 RMK AO2 SLP030 T01060006 10150 20083 55001 $
KRWV 201155Z AUTO 13005KT 10SM BKN019 BKN025 BKN110 25/24 A2996 RMK AO2 T02490242 10258 20248 70001
KRXE 201153Z AUTO 00000KT 10SM FEW013 BKN060 OVC080 08/05 A2992 RMK AO2 SLP105 7//// T00780050 10100 20078 55002
KRYM 201056Z AUTO 00000KT 1/4SM FG CLR 14/14 A3003 RMK AO2 VIS 1/4V7/8 LTG DSNT NW SLP169 T01430141 $
KRYV 201155Z AUTO 00000KT 1 3/4SM BR VV007 15/15 A3011 RMK AO2 VIS 1 1/4V3 T01540154 10166 20145
KRYW 201155Z AUTO 15005KT 7SM OVC004 25/24 A2997 RMK AO2 70010 T02480241 10253 20242
KRYY 201150Z 09005KT 10SM CLR 17/13 A3031 RMK AO2 SLP982 T01670133 10194 20167 53015 $
KRZL 201155Z AUTO 00000KT 10SM SCT060 16/15 A3014 RMK AO2
KRZN 201155Z AUTO 00000KT M1/4SM FG OVC002 15/15 A3008 RMK AO2 T01500146 10159 20143
KRZR 201155Z AUTO 00000KT 10SM OVC080 17/17 A3028 RMK A01
KRZT 201155Z AUTO 18005KT 10SM CLR 17/15 A3019 RMK AO2
KS25 201155Z AUTO 13004KT 10SM BKN008 BKN015 OVC035 19/19 A2970 RMK AO2
KS32 201155Z AUTO 14011KT 10SM CLR 19/19 A2985 RMK AO2
KS33 201155Z AUTO 18004KT 10SM BKN037 OVC049 10/07 A3007 RMK AO2
KS39 201155Z AUTO 00000KT 10SM FEW030 BKN037 OVC050 08/07 A3006 RMK AO2
KS52 201155Z AUTO 34003KT 10SM CLR 09/08 A2997 RMK AO2 T00930077 10171 20090
KSAA 201155Z AUTO 15005KT 10SM CLR 12/00 A2993 RMK AO2
KSAC 201153Z AUTO 00000KT 10SM CLR 13/09 A2991 RMK AO2 SLP129 T01280089 10172 20128 53003
KSAD 201151Z AUTO 00000KT 10SM CLR 18/07 A2988 RMK AO2 SLP065 T01780067 10267 20167 53001 $
KSAF 201153Z AUTO 12009KT 10SM FEW120 14/10 A3010 RMK AO2 RAB1055E13 SLP093 P0000 60000 T01440100 10183 20144 50004
KSAN 201151Z 19003KT 10SM FEW010 18/14 A2988 RMK AO2 SLP118 T01830139 10194 20183 56004
KSAR 201155Z AUTO 10003KT 7SM CLR 19/19 A3012 RMK AO2 T01930193 10227 20185
KSAT 201151Z 17010KT 10SM FEW017 FEW250 26/22 A2994 RMK AO2 SLP118 70086 T02560222 10261 20256 53013
KSAV 201153Z 01006KT 10SM FEW025 17/14 A3023 RMK AO2 SLP236 T01720144 10183 20161 53015
KSAW 201150Z 00000KT 1/2SM FG OVC003 18/18 A3013
KSAZ 201156Z AUTO 00000KT 7SM BKN003 16/16 A3001 RMK AO2
KSBA 201153Z 04003KT 9SM CLR 14/12 A2984 RMK AO2 SLP106 T01440122 10183 20122 53005
KSBD 201143Z AUTO 24007KT 10SM BKN026 18/14 A2989 RMK AO2 T01800141 10191 20180
KSBM 201153Z AUTO 00000KT 3/4SM BR CLR 14/13 A3012 RMK AO2 SLP199 T01390133 10156 20133 51007
KSBN 201154Z 00000KT 10SM CLR 17/15 A3014 RMK AO2 SLP204 T01720150 10183 20167 53005
KSBO 201135Z AUTO 07007KT 10SM CLR 15/12 A3026 RMK AO2
KSBP 201156Z AUTO 15004KT 10SM CLR 12/08 A2990 RMK AO2 SLP124 T01220083 10133 20111 55001
KSBS 201155Z AUTO 10005KT 10SM CLR 07/02 A2996 RMK AO1 T00710020 10139 20064
KSBY 201154Z 00000KT 10SM CLR 09/07 A3033 RMK AO2 SLP272 T00890067 10089 20056 51011
KSCD 201155Z AUTO 11006KT 10SM CLR 18/11 A3025 RMK AO2 T01820105 10220 20180
KSCF 201155Z AUTO 13017KT 8SM BKN022 BKN029 OVC120 29/25 A3002 RMK A01
KSCH 201154Z 00000KT 15SM CLR 08/08 A3028 RMK FIRST
KSCK 201155Z AUTO 35004KT 10SM CLR 14/10 A2990 RMK AO2 SLP125 T01390100 10200 20117 53000
KSCR 201155Z AUTO 00000KT 10SM CLR 10/08 A3034 RMK AO2 T00960083 10119 20071
KSCX 201155Z AUTO 20007KT 10SM SCT046 18/13 A3027 RMK A01
KSDA 201155Z AUTO 00000KT 8SM CLR 21/20 A2998 RMK AO2
KSDB 201153Z AUTO 33016KT 10SM CLR 10/03 A2999 RMK AO2 PK WND 34026/1104 SLP119 T01000033 10122 20100 55005 $
KSDC 201155Z AUTO 00000KT 10SM CLR 11/09 A3025 RMK AO2
KSDF 201156Z 20007KT 10SM FEW040 FEW060 SCT100 BKN250 23/16 A3018 RMK AO2 SLP213 MDT CU NW AND SW 60000 T02330161 10261 20233 53015
KSDL 201153Z AUTO 00000KT 10SM CLR 24/02 A2979 RMK AO2 SLP060 T02390017 10294 20239 53005
KSDM 201153Z AUTO 00000KT 10SM CLR 13/11 A2987 RMK AO2 SLP111 T01330111 10178 20133 56004
KSDY 201156Z AUTO 31013KT 10SM CLR 15/14 A2972 RMK AO2 SLP461 T01500144 10189 20150 50004
KSEA 201153Z 13004KT 10SM BKN009 BKN025 OVC048 15/13 A3007 RMK AO2 SLP188 60001 70004 T01500128 10156 20144 55001
KSEE 201155Z AUTO 26004KT 10SM OVC015 15/12 A2987 RMK AO2
KSEF 201155Z AUTO 04008KT 10SM SCT035 BKN045 OVC070 23/22 A3006 RMK AO2 T02280216 10229 20210
KSEG 201153Z AUTO 00000KT M1/4SM FG VV001 08/08 A3031 RMK AO2 SLP265 T00780078 10078 20050 53008
KSEM 201155Z AUTO 10005KT 10SM 20/12 A3020 RMK AO2
KSEP 201155Z AUTO 16006KT 10SM SCT013 BKN019 OVC027 25/23 A2996 RMK AO2 T02520225 10252 20223
KSEQ 201058Z AUTO 16007KT 10SM BKN016 BKN024 OVC036 26/25 A2997 RMK AO2 BKN016 V OVC SLP143 T02560247 $
KSET 201154Z AUTO A3008 RMK AO2 SLPNO 53007 PWINO $
KSEZ 201155Z AUTO 21005KT 10SM CLR 16/M02 A2995 RMK AO2
KSFB 201153Z 05004KT 10SM FEW041 BKN055 OVC070 23/20 A3009 RMK AO2 SLP188 70001 T02330200 10233 20222 53016
KSFF 201153Z AUTO 00000KT 10SM OVC080 11/07 A2995 RMK AO2 SLP138 T01110072 10111 20094 55001
KSFM 201156Z AUTO 00000KT 10SM CLR 07/06 A3019 RMK AO2 SLP228 7//// T00720061 10072 20006 53005
KSFO 201156Z 25003KT 10SM CLR 14/10 A2993 RMK AO2 SLP133 T01440100 10167 20144 55003
KSFQ 201155Z AUTO 00000KT 10SM CLR 12/11 A3034 RMK AO2 T01180110 10118 20095
KSFY 201135Z AUTO 00000KT 7SM CLR 18/18 A3009 RMK AO2 LTG DSNT SE THRU W
KSFZ 201156Z AUTO 00000KT 10SM CLR 09/07 A3022 RMK AO2 SLP180 T00940072 10094 20056 53004
KSGF 201152Z 16010KT 10SM SCT120 23/19 A3006 RMK AO2 SLP165 70011 T02280194 10233 20217 53007
KSGH 201156Z AUTO 10SM CLR 17/17 A3018 RMK AO2 SLP218 T01670167 10200 20161 53007 $
KSGJ 201156Z 09013KT 10SM SCT036 SCT048 BKN075 27/ A3014 RMK AO2 SLP204 60000 70029 T0265 51014 $
KSGR 201153Z 13006KT 10SM OVC120 26/26 A2995 RMK AO2 SLP143 70429 T02610261 10261 20250 53006
KSGS 201155Z AUTO 00000KT 1SM BR OVC002 19/19 A3005 RMK AO2 70003 T01890189 10210 20183
KSGT 201156Z AUTO 14006KT 10SM CLR 23/22 A3009 RMK AO2 SLP186 T02280217 10233 20222 51014
KSGU 201156Z AUTO 26004KT 10SM CLR 17/01 A2986 RMK AO2 SLP080 T01720011 10233 20167 53014
KSHD 201135Z AUTO 00000KT 10SM CLR 05/04 A3035 RMK AO2 T00490044
KSHN 201153Z AUTO 26005KT 10SM OVC015 14/12 A3004 RMK AO2 SLP172 T01440122 10150 20144 56000
KSHR 201153Z AUTO 30013G20KT 10SM BKN037 12/07 A2988 RMK AO2 SLP099 60005 70005 T01220072 10144 20111 55016
KSHV 201156Z 14010KT 10SM BKN100 22/21 A3002 RMK AO2 SLP162 60055 70117 T02220211 10233 20217 53010
KSIF 201155Z AUTO 00000KT 10SM CLR 08/08 A3035 RMK AO2 T00760076 10093 20067
KSIK 201155Z AUTO 13003KT 10SM CLR 22/22 A3012 RMK AO2
KSIY 201153Z AUTO 17003KT 10SM FEW090 06/04 A3012 RMK AO2 SLP204 T00560039 10111 20050 52001
KSJC 201153Z AUTO 14003KT 10SM CLR 14/11 A2993 RMK AO2 SLP135 T01390106 10183 20139 55002
KSJN 201154Z AUTO 00000KT 10SM CLR 11/03 A3001 RMK AO2 SLP078 70001 T01110033 10178 20111 55000
KSJS 201155Z AUTO 16005KT 10SM BKN100 18/13 A3026 RMK AO2 T01810132 10197 20173
KSJT 201151Z 15003KT 10SM CLR 26/21 A2992 RMK AO2 SLP101 T02560211 10289 20250 53012
KSJX 201156Z AUTO 00000KT 4SM BR BKN042 OVC050 17/17 A3014 RMK AO2 T01700170 10180 20159
KSKA 201058Z AUTO 17004KT 10SM OVC080 09/09 A2994 RMK AO2 SLP139 T00930093 $
KSKF 201156Z AUTO 16010KT 10SM CLR 26/22 A2992 RMK AO2 SLP123 7//// T02550224 10275 20255 52016 $
KSKX 201156Z AUTO 10004KT 10SM FEW075 OVC090 12/04 A3015 RMK AO2 RAB13E26 SLP138 P0000 60000 T01170044 10133 20094 53003
KSLB 201155Z AUTO 13003KT 3SM BR CLR 19/19 A2998 RMK AO2
KSLC 201154Z 36007KT 10SM BKN055 BKN070 OVC110 12/07 A2988 RMK AO2 RAB01E35 SLP081 P0000 60001 70001 T01220067 10150 20117 55001
KSLE 201156Z AUTO 18003KT 10SM FEW041 OVC065 14/12 A3008 RMK AO2 SLP187 T01440122 10156 20144 56003
KSLG 201156Z AUTO 11005KT 10SM SCT085 OVC100 21/18 A3004 RMK AO2 SLP162 T02060183 10217 20200 53006
KSLH 201155Z AUTO 00000KT 7SM SCT075 OVC110 16/16 A3012 RMK AO2 T01560155 10167 20156
KSLI 201058Z AUTO 00000KT 10SM BKN023 17/14 A2986 RMK AO2 SLP114 T01710138
KSLK 201151Z AUTO 00000KT 10SM SCT002 05/03 A3026 RMK AO2 SLP255 T00500028 10050 20011 51007
KSLN 201153Z 16009KT 10SM CLR 22/19 A2994 RMK AO2 SLP127 T02170189 10239 20217 53002
KSLO 201155Z AUTO 00000KT 7SM CLR 19/18 A3012 RMK AO2 T01850178 10200 20181
KSLR 201155Z AUTO 15007KT 1/2SM +TSRA OVC005 23/23 A2998 RMK AO2 LTG DSNT E SE AND NW P0154 60190 70194 T02320230 10235 20228
KSME 201135Z AUTO 00000KT 10SM SCT050 SCT070 18/12 A3026 RMK AO2
KSMF 201153Z 33005KT 10SM CLR 12/09 A2991 RMK AO2 SLP127 T01170089 10156 20111 52002
KSMN 201156Z AUTO 31003KT 10SM OVC070 08/07 A2995 RMK AO2 RAE15 SLP143 6//// 7//// T00780072 10078 20067 56003 PNO $
KSMO 201151Z AUTO 00000KT 10SM SCT014 17/14 A2987 RMK AO2 SLP113 T01670144 10189 20167 53002
KSMP 201056Z AUTO VRB05KT 1/4SM FG VV002 08/07 A3005 RMK AO2 SLP173 T00780067
KSMQ 201153Z AUTO 10SM CLR 06/05 A3029 RMK AO2 SLP258 T00610050 10067 20033 53008
KSMS 201155Z AUTO 00000KT 8SM CLR 13/12 A3031 RMK AO2
KSMX 201151Z AUTO 15003KT 6SM BR CLR 11/09 A2990 RMK AO2 SLP126 T01110089 10144 20106 55002
KSNA 201153Z AUTO 11005KT 10SM OVC030 20/13 A2987 RMK AO2 SLP113 T02000133 10206 20194 53004
KSNC 201155Z AUTO 00000KT 10SM CLR 13/06 A3025 RMK AO2
KSNH 201155Z AUTO 14005KT 10SM CLR 21/17 A3018 RMK A01
KSNK 201155Z AUTO 10008KT 10SM CLR 22/21 A2995 RMK AO2 T02180210
KSNL 201155Z AUTO 16007KT 10SM OVC005 21/21 A2996 RMK AO2 60001 70001 T02120207 10231 20210
KSNS 201153Z AUTO 13004KT 10SM CLR 11/08 A2993 RMK AO2 SLP144 T01110078 10150 20100 56003
KSNT 201151Z AUTO 00000KT 05/03 A2996 RMK AO1 SLP089 P0001 60001 70001 T00500028 10056 20050 56003
KSNY 201153Z AUTO 15009KT 10SM CLR 16/11 A2988 RMK AO2 SLP065 60000 T01560111 10194 20156 55012
KSOA 201155Z AUTO 15008KT 10SM SCT015 25/22 A2998 RMK AO2
KSOP 201156Z AUTO 00000KT 10SM CLR 12/11 A3035 RMK AO2 SLP281 T01170111 10133 20083 53018
KSOW 201155Z AUTO 19011KT 10SM CLR 14/00 A3005 RMK AO2
KSPA 201155Z AUTO 00000KT 10SM CLR 13/11 A3032 RMK AO2
KSPB 201153Z AUTO 00000KT 10SM BKN034 OVC047 14/13 A3007 RMK AO2 SLP181 T01440128 10161 20139 56005
KSPD 201156Z AUTO 23013KT 15/12 A2996 RMK AO1 PK WND 22029/1057 SLP089 T01500122 10183 20150 55001
KSPF 201155Z AUTO 24004KT 10SM CLR 13/11 A2981 RMK AO2
KSPG 201153Z 05014KT 10SM CLR 25/22 A3005 RMK AO2 SLP176 T02500217 10250 20244 53019
KSPI 201152Z 06007KT 10SM CLR 20/17 A3012 RMK AO2 SLP193 T02000172 10217 20194 53013
KSPS 201152Z VRB05KT 10SM SCT009 BKN017 BKN050 22/21 A2991 RMK AO2 SLP116 T02170211 10228 20200 51012
KSPW 201153Z AUTO 16008KT 4SM BR SCT100 21/20 A3001 RMK AO2 SLP153 T02110200 10228 20211 57001
KSQI 201156Z 00000KT 10SM FEW075 21/19 A3011 RMK AO2 LTG DSNT S SLP059 7//// T02060194 10206 20183 53007
KSRB 201155Z AUTO 15005KT 10SM OVC055 20/12 A3025 RMK A01
KSRC 201156Z AUTO 09003KT 10SM CLR 22/22 A3010 RMK AO2 SLP191 70003 T02170217 10233 20211 51018
KSRE 201155Z AUTO VRB04KT 8SM OVC004 22/21 A2996 RMK AO2
KSRQ 201153Z 05009KT 10SM CLR 24/21 A3003 RMK AO2 SLP168 T02390206 10244 20233 53018
KSRR 201155Z AUTO 00000KT 1 3/4SM BR BKN075 12/12 A3017 RMK AO2
KSSC 201056Z AUTO 04006KT 10SM CLR 13/11 A3028 RMK AO2 SLP254 T01260107 $
KSSF 201153Z 17007KT 10SM CLR 27/23 A2992 RMK AO2 SLP116 70001 T02670228 10283 20267 53016
KSSI 201153Z AUTO 36008KT 10SM FEW038 SCT065 22/19 A3017 RMK AO2 SLP219 60001 70001 T02170189 10256 20206 53015
KSTC 201153Z 10005KT 1/4SM FG VV002 18/17 A3003 RMK AO2 SLP172 T01780172 10178 20167 55003
KSTE 201155Z AUTO 00000KT M1/4SM FG OVC002 15/15 A3013 RMK AO2 70011 T01530153 10154 20135
KSTF 201155Z AUTO 11004KT OVC036 21/17 A3018 RMK AO2 PWINO
KSTJ 201153Z 16004KT 8SM CLR 21/19 A3000 RMK AO2 SLP149 T02110189 10233 20194 56003 $
KSTK 201120Z AUTO 00000KT 10SM CLR 13/12 A2984 RMK AO2
KSTL 201151Z 10005KT 10SM FEW100 FEW250 22/18 A3010 RMK AO2 SLP180 T02170183 10244 20217 53007 $
KSTP 201153Z 15006KT 7SM BKN005 18/18 A3006 RMK AO2 SLP174 T01830183 10206 20172 53003
KSTS 201153Z AUTO 33005KT 10SM CLR 11/10 A2994 RMK AO2 SLP133 T01060100 10144 20094 57002
KSUA 201147Z 11015KT 5SM RA SCT015 BKN025 25/22 A3003
KSUE 201156Z AUTO 21003KT 1/4SM FG OVC002 16/16 A3014 RMK AO2 SLP204 P0002 60022 7//// T01560156 10178 20150 53007 RVRNO
KSUN 201155Z AUTO 30004KT 10SM -RA SCT034 BKN041 OVC050 05/05 A2994 RMK AO2 P0001
KSUS 201154Z 00000KT 3SM BR CLR 21/19 A3008 RMK AO2 SLP177 T02060194 10222 20200 53007
KSUT 201155Z AUTO 02005KT 10SM CLR 17/14 A3029 RMK AO2 T01660144 10185 20157
KSUU 201058Z AUTO 00000KT 10SM CLR 11/07 A2991 RMK AO2 SLP135 T01130072 $
KSUW 201155Z AUTO 00000KT 1SM BR OVC002 13/13 A3010 RMK AO2 T01290129 10142 20097
KSUX 201152Z 14006KT 7SM CLR 21/20 A2996 RMK AO2 SLP137 T02060200 10217 20200 55001
KSUZ 201155Z AUTO 10004KT 6SM BR SCT003 SCT039 BKN048 22/21 A3006 RMK A01
KSVC 201155Z AUTO 35008KT 10SM SCT110 14/09 A3004 RMK AO2 T01370092 10175 20134
KSVE 201155Z AUTO 26005KT 10SM CLR 04/03 A3009 RMK AO2
KSVH 201155Z AUTO 00000KT 10SM CLR 11/11 A3034 RMK AO2 T01140105 10125 20096
KSVN 201156Z AUTO 02007KT 10SM CLR 18/14 A3020 RMK AO2 SLP229 T01770142 10202 20175 52016 $
KSWF 201145Z 26006KT 20SM SKC 09/07 A3028
KSWO 201153Z AUTO 14008KT 3SM -RA BR OVC007 22/20 A2996 RMK AO2 RAB45 SLP130 P0000 60000 T02220200 10256 20222 53011
KSWW 201135Z AUTO 00000KT 10SM CLR 22/21 A2998 RMK AO2 T02200212
KSXK 201155Z AUTO 14009KT 8SM 21/21 A2997 RMK AO2
KSXS 201136Z AUTO 10005KT 10SM CLR M A3019 RMK AO2 SLPNO $
KSXT 201137Z AUTO VRB04KT 1/4SM FG VV002 08/08 A3012
KSYF 201135Z AUTO 15010KT 7SM CLR 17/13 A2987 RMK AO2 T01710130 PWINO
KSYI 201155Z AUTO 14004KT 10SM BKN055 19/13 A3024 RMK A01
KSYM 201155Z AUTO 18003KT 10SM BKN050 BKN060 19/16 A3024 RMK AO2
KSYN 201155Z AUTO 00000KT 7SM CLR 19/18 A3005 RMK AO2 LTG DSNT S AND SW 70003 T01860176 10200 20163
KSYR 201154Z 10003KT 10SM SCT180 BKN250 09/07 A3026 RMK AO2 SLP244 T00890072 10111 20083 53008
KSZL 201056Z 14004KT 10SM FEW200 20/20 A2998 RMK AO2A SLP147 T02030203 $
KSZT 201155Z AUTO 00000KT 10SM OVC110 06/06 A2995 RMK AO2
KSZY 201155Z AUTO 16008KT 10SM CLR 22/16 A3017 RMK A01
KT20 201135Z AUTO 16005KT 10SM CLR 26/25 A2993 RMK AO2 T02600250
KT35 201155Z AUTO 15003KT 10SM OVC013 26/24 A2995 RMK AO2 T02550240 10264 20245
KT70 201128Z AUTO 11010KT 10SM BKN023 27/22 A2983 RMK AO2 SLP086
KT82 201135Z AUTO 19006KT 10SM SCT018 24/20 A2997 RMK AO2 T02380202
KTAD 201154Z AUTO 19012G22KT 10SM CLR 17/11 A3003 RMK AO2 SLP082 T01670106 10200 20167 51009
KTAN 201152Z AUTO 00000KT 10SM CLR 08/06 A3021 RMK AO2 SLP232 T00780056 10078 20017 53006
KTAZ 201140Z AUTO 00000KT 10SM CLR 19/17 A3010 RMK AO2
KTBN 201156Z AUTO 14008KT 10SM FEW150 20/18 A3008 RMK AO2 SLP178 T01970178 10222 20193 53003
KTBR 201135Z AUTO 00000KT 10SM CLR 15/12 A3025 RMK AO2 T01530118
KTBX 201135Z AUTO 10SM SCT110 07/03 A3001 RMK AO2
KTCC 201153Z AUTO 15008KT 10SM -RA SCT016 OVC095 17/16 A3000 RMK AO2 SLP096 P0001 60095 70095 T01720161 10200 20172 51005
KTCL 201153Z 11007KT 10SM FEW065 22/13 A3021 RMK AO2 SLP226 T02170128 10256 20217 53018
KTCM 201114Z AUTO 17004KT 9SM BKN005 BKN009 OVC016 14/14 A3006 RMK AO2 CIG 005V009 BKN005 V SCT CIG 003 RWY34 SLP182 $
KTCS 201153Z AUTO 28003KT 10SM CLR 16/13 A3000 RMK AO2 SLP088 7//// T01610133 10194 20161 53002 TSNO $
KTCY 201155Z AUTO 32006KT 10SM CLR 19/07 A2991 RMK A01
KTDF 201155Z AUTO 00000KT 10SM CLR 07/07 A3037 RMK AO2
KTDR 201156Z AUTO 07007KT 10SM CLR 20/17 A3014 RMK AO2 SLP210 T02020169 10224 20201 52015 $
KTDZ 201153Z AUTO 18004KT 10SM CLR 17/13 A3016 RMK AO2 SLP211 T01720133 10194 20167 53008
KTEB 201151Z 00000KT 10SM MIFG CLR 13/09 A3028 RMK AO2 SLP253 T01280089 10128 20094 53010
KTEW 201155Z AUTO 00000KT 5SM BR CLR 14/13 A3016 RMK AO2 T01420134 10162 20135
KTEX 201135Z AUTO 24004KT 10SM OVC060 12/00 A3018 RMK AO2
KTFP 201155Z AUTO 17005KT 10SM SCT026 SCT037 SCT048 29/25 A2990 RMK AO2 T02850248 PNO
KTGI 201142Z AUTO 00000KT 10SM CLR 16/12 A3032 RMK AO1
KTHA 201155Z AUTO 15011KT 10SM BKN055 BKN070 20/11 A3024 RMK A01
KTHV 201153Z AUTO 00000KT 10SM CLR 08/06 A3031 RMK AO2 SLP269 T00780061 10078 20044 53006
KTIF 201155Z AUTO 16011KT 10SM CLR 20/17 A2990 RMK AO2 T01980167 10245 20187
KTIK 201156Z AUTO 18005KT 10SM FEW011 BKN017 OVC026 21/21 A2995 RMK AO2 DZE04RAB04E22DZB22E39 CIG 012 RWY31 CIG 012 RWY36 SLP136 P0003 60005 70005 T02120212 10224 20209 53014
KTIP 201155Z AUTO 00000KT 10SM SCT065 SCT075 SCT090 20/18 A3014 RMK AO2 LTG DSNT NW T02000177 10207 20190
KTIW 201153Z AUTO 00000KT 10SM OVC006 13/13 A3006 RMK AO2 SLP178 60002 70004 T01330133 10139 20128 58002
KTIX 201147Z 09009G17KT 7SM BKN050 27/21 A3009
KTKC 201059Z AUTO 17008KT 5SM BR OVC004 21/21 A2997 RMK AO2
KTKI 201153Z 19005KT 10SM OVC005 24/22 A2993 RMK AO2 SLP131 60000 T02440222 10244 20233 53006
KTKV 201135Z AUTO 00000KT 1/4SM FG OVC001 13/13 A3013 RMK AO2 T01270125
KTKX 201155Z AUTO 15006KT 10SM 24/23 A3010 RMK AO2
KTLH 201153Z 04006KT 10SM FEW080 BKN200 21/17 A3017 RMK AO2 SLP215 T02110167 10222 20200 53016
KTMA 201155Z AUTO 04005KT 10SM CLR A3022 RMK AO2
KTMB 201153Z 06005KT 10SM CLR 25/23 A2996 RMK AO2 SLP146 60004 70009 T02500228 10261 20244 53013 $
KTME 201155Z AUTO 13004KT 6SM BR BKN110 26/26 A2997 RMK AO2
KTMK 201155Z AUTO 15003KT 10SM SCT009 SCT015 BKN033 14/13 A3011 RMK AO2
KTMT 201135Z AUTO 00000KT 7SM -DZ BKN031 OVC037 05/03 A3006 RMK AO2 T00540028
KTNB 201155Z AUTO 00000KT 3SM BR CLR 07/07 A3037 RMK AO2 T00670067 10084 20061
KTNU 201155Z AUTO 08004KT 2 1/2SM BR CLR 19/19 A3004 RMK AO2 PWINO
KTOB 201157Z AUTO 00000KT 5SM BR SCT065 18/17 A3008 RMK AO2
KTOC 201155Z AUTO 00000KT 10SM CLR 16/13 A3033 RMK AO2 T01560128 10192 20155
KTOI 201153Z AUTO 06003KT 10SM CLR 16/14 A3022 RMK AO2 SLP229 T01610144 10200 20161 51016
KTOL 201152Z 00000KT 10SM CLR 17/14 A3015 RMK AO2 SLP207 T01670139 10200 20161 53007 $
KTOP 201153Z 11004KT 10SM FEW120 22/19 A2999 RMK AO2 SLP145 T02170194 10233 20211 53001
KTOR 201153Z AUTO 10005KT 10SM CLR 16/12 A2980 RMK AO2 SLP041 T01560122 10211 20150 56009
KTPA 201153Z 04007KT 10SM FEW200 23/20 A3007 RMK AO2 SLP182 T02280200 10233 20222 51015 $
KTPF 201155Z AUTO 06008KT 10SM SCT044 BKN110 A3007 RMK AO2
KTPH 201156Z AUTO 03009KT 10SM CLR 06/01 A3003 RMK AO2 SLP135 T00610011 10089 20061 51006
KTPL 201151Z AUTO 16012KT 10SM OVC013 26/25 A2995 RMK AO2 SLP130 T02560250 10261 20256 53012
KTQE 201154Z AUTO 14006KT 10SM CLR 21/21 A2996 RMK AO2 SLP133 70001 T02110206 10228 20211 55002
KTQH 201155Z AUTO 13006KT 10SM 21/18 A3000 RMK AO2
KTQK 201155Z AUTO 13004KT 7SM CLR 17/17 A2992 RMK AO1 T01700170
KTRI 201153Z 00000KT 10SM FEW080 FEW250 13/11 A3031 RMK AO2 SLP247 T01280111 10161 20128 53011
KTRK 201135Z AUTO 00000KT 1/2SM FG OVC003 00/00 A3011 RMK AO2
KTRL 201153Z AUTO 18009KT 10SM FEW015 SCT045 BKN075 24/23 A2994 RMK AO2 RAB06E15 SLP131 P0000 60000 T02440233 10250 20244 51006
KTRM 201152Z AUTO 33012KT 10SM CLR 23/12 A2974 RMK AO2 SLP072 T02280117 10256 20222 51008 $
KTSP 201155Z AUTO 34004KT 10SM 07/04 A3001 RMK AO2
KTTD 201153Z AUTO 00000KT 10SM FEW008 BKN028 OVC060 16/13 A3007 RMK AO2 RAB05E30 SLP183 P0001 60001 70002 T01560128 10172 20150 58005
KTTF 201158Z AUTO 00000KT 10SM CLR 16/14 A3015 RMK AO2 T01580137 10202 20156
KTTN 201153Z 31003KT 10SM CLR 11/09 A3030 RMK AO2 SLP255 T01060089 10111 20078 53010
KTTS 201056Z 09011G20KT 10SM FEW034 BKN065 26/21 A3006 RMK AO2A SLP184 T02560210 FZRANO $
KTUL 201153Z 12007KT 10SM FEW020 SCT033 OVC047 23/21 A2995 RMK AO2 SLP135 T02330206 10250 20222 53008
KTUP 201153Z 14006KT 10SM OVC042 23/16 A3018 RMK AO2 SLP214 T02330156 10261 20228 53018 $
KTUS 201153Z 00000KT 10SM CLR 19/08 A2988 RMK AO2 SLP073 T01940083 10261 20194 55000
KTVC 201153Z 00000KT 10SM BKN110 18/17 A3011 RMK AO2 SLP195 T01830167 10200 20183 53006
KTVF 201156Z AUTO 11011KT 10SM CLR 16/14 A2994 RMK AO2 SLP138 T01610144 10172 20156 56016
KTVI 201155Z AUTO 00000KT 10SM CLR 17/15 A3020 RMK AO2
KTVK 201135Z AUTO 00000KT 8SM CLR 19/19 A3006 RMK AO2
KTVL 201153Z AUTO 17003KT 10SM CLR M01/M02 A3009 RMK AO2 SLP172 70002 T10061017 10033 21011 55000
KTVR 201153Z AUTO 11003KT 10SM CLR 23/21 A3009 RMK AO2 SLP196 T02330211 10250 20228 53015
KTVY 201155Z AUTO 17004KT 10SM OVC070 10/03 A2990 RMK AO2
KTWF 201153Z 26012KT 10SM FEW046 BKN055 OVC070 08/05 A2993 RMK AO2 SLP110 70008 T00830050 10083 20067 56002
KTWM 201055Z AUTO 02003KT 10SM CLR 14/11 A3010 RMK AO2
KTXK 201153Z 14007KT 6SM RA BR FEW007 SCT011 OVC039 21/20 A3003 RMK AO2 SLP163 P0020 60059 70059 T02110200 10239 20211 53008
KTXW 201155Z AUTO 16006KT 10SM BKN110 26/24 A2987 RMK AO2 T02550235 10270 20253
KTYL 201155Z AUTO 19008G14KT 10SM CLR 15/01 A3001 RMK AO2
KTYQ 201135Z AUTO 00000KT 5SM BR CLR 15/15 A3015 RMK AO2 T01470147
KTYR 201153Z 16009KT 10SM OVC004 23/23 A2997 RMK AO2 SLP143 60007 70015 T02330228 10233 20228 51011
KTYS 201153Z 00000KT 10SM BKN090 BKN130 17/14 A3028 RMK AO2 SLP244 T01720144 10194 20167 51016
KTZR 201150Z 00000KT 10SM SKC 17/16 A3020
KU42 201155Z AUTO 35004KT 10SM SCT050 OVC060 10/06 A2988 RMK AO1 T01000061 10123 20092
KU68 201155Z AUTO 13003KT 10SM CLR 10/M18 A2982 RMK AO2
KUAO 201153Z AUTO 00000KT 10SM OVC035 15/13 A3009 RMK AO2 SLP189 70001 T01500133 10156 20139 56004
KUBE 201155Z AUTO 00000KT M1/4SM FG OVC001 16/16 A3010 RMK AO2
KUCP 201156Z AUTO 00000KT 10SM CLR 11/10 A3026 RMK AO2 SLP259 6//// 7//// T01110100 10128 20089 51010 PNO $
KUCY 201155Z AUTO 16008KT 10SM FEW027 BKN049 BKN060 23/20 A3013 RMK A01
KUDG 201156Z AUTO 02005KT 10SM CLR 13/13 A3033 RMK AO2 SLP271 T01330128 10139 20111 53017
KUES 201145Z 00000KT 4SM SKC 15/15 A3013 BR
KUGN 201155Z 00000KT 10SM BKN045 BKN055 18/17 A3011 RMK AO2 SLP189 T01780167 10194 20167 53009
KUIL 201153Z AUTO 00000KT 10SM BKN014 BKN018 OVC032 12/12 A3007 RMK AO2 SLP181 60000 70001 T01220122 10128 20117 58000
KUIN 201154Z AUTO 15004KT 7SM CLR 21/18 A3007 RMK AO2 SLP175 70003 T02060178 10239 20206 53005
KUKF 201155Z AUTO 00000KT M1/4SM FG OVC002 10/10 A3039 RMK AO2
KUKI 201156Z AUTO 00000KT 10SM CLR 11/09 A2998 RMK AO2 SLP146 T01110089 10161 20106 58001
KUKT 201155Z AUTO 00000KT 10SM CLR 07/06 A3031 RMK A01
KULM 201156Z AUTO 13007KT 10SM SCT050 20/19 A3002 RMK AO2 LTG DSNT SE
KUNI 201155Z AUTO 00000KT 10SM SCT049 SCT070 17/13 A3022 RMK AO2 T01670130 10178 20150
KUNO 201153Z AUTO 14003KT 8SM BKN120 21/19 A3011 RMK AO2 SLP182 T02110194 10233 20211 51008
KUNU 201155Z AUTO 00000KT M1/4SM FG OVC001 15/15 A3013 RMK AO2 70048 T01530153 10177 20150 TSNO
KUNV 201153Z 00000KT 10SM SKC 07/07 A3030
KUOX 201155Z AUTO 14009KT 110V170 9SM CLR 22/20 A3016 RMK AO2
KUSE 201155Z AUTO A3015 RMK AO2 PWINO
KUTA 201155Z AUTO 15007KT 10SM 22/21 A3012 RMK AO2 TSNO
KUTS 201153Z AUTO VRB04KT 10SM BKN008 BKN120 27/24 A2998 RMK AO2 SLP146 70003 T02670244 10267 20250 51007
KUUU 201153Z AUTO 00000KT 10SM CLR 14/09 A3022 RMK AO2 SLP232 T01390089 10139 20083 51006
KUVA 201155Z AUTO 13009KT 10SM BKN021 BKN025 BKN050 25/23 A2992 RMK AO2 T02510225 10283 20247
KUXL 201135Z AUTO 08004KT 10SM SCT022 BKN090 OVC110 25/25 A3001 RMK AO2 T02500246
KUYF 201155Z AUTO 00000KT 10SM CLR 16/15 A3019 RMK AO2
KUZA 201154Z AUTO 00000KT 9SM CLR 11/10 A3033 RMK AO2 SLP268 T01110100 10128 20100 53012
KVAD 201156Z AUTO 02006KT 10SM SCT070 19/16 A3019 RMK AO2 SLP224 T01880158 10191 20178 52015 $
KVAF 201155Z AUTO 16015KT 10SM FEW024 FEW028 SCT046 30/24 A2996 RMK A01
KVAY 201154Z AUTO 00000KT 10SM CLR 11/11 A3031 RMK AO2 SLP264 T01110106 10111 20072 53011 $
KVBG 201058Z AUTO 00000KT 9SM CLR 09/09 A2989 RMK AO2 SLP124 T00940091 $
KVBT 201156Z AUTO 12005KT 10SM CLR 21/19 A3006 RMK AO2 SLP171 6//// 7//// T02110189 10233 20211 53006 PNO $
KVBW 201135Z AUTO 00000KT 1SM OVC002 06/06 A3032 RMK AO1 T00570057
KVCB 201153Z AUTO 01004KT 10SM CLR 10/07 A2992 RMK AO2 SLP132 T01000067 10178 20100 58000
KVCT 201151Z COR 12005KT 10SM SCT045 25/24 A2993 RMK AO2 SLP132 T02500239 10278 20250 51010 $
KVDF 201155Z AUTO 00000KT 10SM SCT080 21/21 A3008 RMK AO2
KVDI 201155Z AUTO 02005KT 10SM CLR 16/11 A3025 RMK AO2
KVEL 201153Z AUTO 02004KT 10SM FEW100 09/02 A2981 RMK AO2 SLP037 60000 T00940017 10161 20083 53008 $
KVES 201135Z AUTO 16003KT 5SM BR SCT060 BKN070 17/17 A3017 RMK AO2
KVGT 201153Z AUTO 33014KT 10SM CLR 19/00 A2984 RMK AO2 SLP100 T01940000 10228 20194 53007
KVIH 201153Z AUTO 00000KT 8SM CLR 20/18 A3008 RMK AO2 SLP176 T02000183 10239 20194 53003
KVIS 201156Z AUTO 12004KT 10SM CLR 10/08 A2993 RMK AO2 SLP141 T01000078 10172 20100 53004
KVJI 201155Z AUTO 09005KT 10SM OVC050 13/11 A3033 RMK AO2 T01310110 10146 20128
KVKS 201155Z AUTO 12005KT 10SM CLR 23/23 A3009 RMK A01
KVKY 201155Z AUTO 12023KT 10SM FEW025 FEW033 SCT060 27/21 A3009 RMK A01
KVLD 201153Z 04004KT 10SM BKN080 19/15 A3018 RMK AO2 SLP227 T01940150 10206 20189 53014
KVLL 201155Z AUTO 00000KT 10SM CLR 18/17 A3017 RMK AO2 T01800166 10182 20175
KVNC 201155Z AUTO 05010KT 8SM CLR 23/21 A3004 RMK AO2
KVNW 201215Z AUTO 00000KT 4SM BR CLR 16/16 A3016 RMK AO2
KVNY 201151Z AUTO 36004KT 10SM CLR 16/12 A2987 RMK AO2 SLP108 T01610117 10194 20156 53004 $
KVOA 201155Z AUTO 08026KT 10SM 27/22 A3008 RMK A01
KVOK 201146Z AUTO 00000KT 1/4SM R27/0900V1200FT FG VV000 16/16 A3010 RMK AO2 SLP194
KVPC 201153Z AUTO VRB03KT 10SM CLR 17/13 A3030 RMK AO2 SLP249 T01720128 10211 20172 53016
KVPS 201156Z AUTO 07007KT 10SM CLR 21/16 A3014 RMK AO2 SLP213 T02120155 10247 20211 52012 $
KVPZ 201156Z AUTO 00000KT 10SM BKN060 18/16 A3014 RMK AO2 SLP203 T01830156 10189 20172 53008
KVQQ 201150Z 02005KT 10SM FEW037 20/20 A3014
KVQT 201155Z AUTO 14013KT 9SM FEW025 FEW031 29/25 A3001 RMK A01
KVRB 201153Z 07019G30KT 10SM FEW048 BKN065 OVC080 26/21 A3005 RMK AO2 PK WND 07030/1153 SLP175 70006 T02560211 10267 20256 53018
KVSF 201154Z AUTO 00000KT 1/4SM FG VV002 04/04 A3026 RMK AO2 SLP252 T00390039 10044 20033 51006
KVTA 201154Z AUTO 00000KT 10SM CLR 14/13 A3020 RMK AO2 SLP222 T01440128 10144 20133 53008
KVTI 201155Z AUTO 02003KT 4SM BR CLR 20/20 A3005 RMK AO2 70025 T02020202 10216 20198
KVTN 201152Z AUTO 16010KT 10SM CLR 21/17 A2985 RMK AO2 SLP085 T02060167 10256 20206 50003
KVTP 201154Z AUTO 24006G18KT 2 1/2SM -RA SCT006 BKN016 OVC024 05/04 A3025 RMK AO2 P0003
KVUJ 201155Z AUTO 00000KT 10SM CLR 10/10 A3038 RMK AO2 T01030101 10108 20083
KVUO 201153Z AUTO 00000KT 10SM OVC039 16/13 A3007 RMK AO2 SLP183 70001 T01560133 10167 20144 56005
KVVV 201156Z AUTO 14009KT 10SM CLR 19/18 A2993 RMK AO2
KVWU 201135Z AUTO 12006KT 10SM 13/12 A3002 RMK AO2
KVYS 201135Z AUTO 19005KT 10SM SCT050 19/18 A3013 RMK AO2 LTG DSNT SW AND W T01940181
KW13 201155Z AUTO 00000KT 10SM CLR 08/08 A3033 RMK AO1 T00790078 10107 20070
KW22 201155Z AUTO 00000KT 10SM CLR 11/09 A3028 RMK AO2
KW29 201120Z AUTO 24004KT 10SM CLR 15/14 A3031 RMK AO2
KW31 201155Z AUTO 00000KT 10SM CLR 09/09 A3034 RMK AO1 T00900086 10098 20081
KW43 201135Z AUTO 30005KT 10SM SCT110 14/11 A2983 RMK AO2 LTG DSNT NE
KW63 201155Z AUTO 35003KT 10SM CLR 10/10 A3035 RMK AO1
KW75 201155Z AUTO 00000KT 10SM CLR 12/12 A3033 RMK AO1 T01190119 10120 20098
KW78 201155Z AUTO 00000KT 5SM CLR 08/07 A3035 RMK AO1 T00800073 10092 20057
KW81 201155Z AUTO 00000KT 10SM CLR 07/06 A3034 RMK AO1 T00730060 10085 20058
KW96 201155Z AUTO 00000KT 10SM CLR 08/08 A3033 RMK AO1 T00830083 10095 20070
KW99 201155Z AUTO 00000KT 5SM BR CLR 07/07 A3032 RMK AO2 T00650065 10087 20051
KWAL 201154Z 00000KT 10SM FEW015 SCT250 12/09 A3033 RMK AO2 SLP267 T01170094 10117 20078 51010
KWBF 201155Z AUTO VRB04G12KT 10SM BKN033 BKN041 BKN050 29/22 A3000 RMK A01
KWDG 201150Z 16008KT 2SM -RA BR OVC006 21/20 A2994
KWDR 201155Z AUTO 05003KT 10SM CLR 15/13 A3034 RMK AO2
KWJF 201156Z AUTO 29005KT 10SM CLR 13/05 A2993 RMK AO2 SLP124 T01330050 10178 20133 53004
KWLD 201154Z AUTO 13006KT 10SM BKN025 BKN050 22/19 A2998 RMK AO2 SLP140 T02170194 10239 20217 51014
KWMC 201156Z AUTO 28003KT 10SM BKN065 OVC080 06/04 A3004 RMK AO2 SLP163 70016 T00560039 10078 20050 53001
KWRB 201156Z 34005KT 10SM CLR 12/11 A3026 RMK AO2A SLP248 T01180107 10157 20108 52015 $
KWRI 201056Z 22003KT 10SM CLR 09/08 A3028 RMK AO2A SLP254 WND DATA ESTMD
KWRL 201153Z AUTO 18003KT 10SM BKN060 11/07 A2984 RMK AO2 SLP077 60000 T01060072 10133 20078 58001
KWST 201153Z AUTO 00000KT 10SM CLR 10/08 A3024 RMK AO2 SLP241 T01000083 10100 20061 53007
KWVL 201156Z AUTO 00000KT 10SM CLR 07/07 A3015 RMK AO2 SLP237 T00720067 10072 20044 53004
KWWD 201156Z AUTO 00000KT 10SM CLR 12/10 A3033 RMK AO2 SLP272 T01220100 10122 20083 51013
KWWR 201155Z AUTO 20003KT 10SM SCT028 20/17 A3001 RMK AO2
KWYS 201145Z AUTO 00000KT 10SM FEW090 FEW110 02/02 A2992 RMK AO2
KX07 201155Z AUTO 09009KT 10SM FEW032 FEW043 OVC055 24/22 A3009 RMK A01
KX26 201135Z AUTO 10018G28KT 10SM SCT022 SCT031 BKN047 24/22 A3006 RMK AO2 PWINO TSNO T02440215
KX60 201155Z AUTO 05005KT 10SM SCT031 SCT043 BKN065 21/20 A3013 RMK AO2 T02090203 10210 20200 70003
KXBP 201155Z AUTO 00000KT 10SM SCT028 OVC033 24/23 A2994 RMK AO2 T02360226 10236 20205
KXER 201155Z AUTO 10015KT 9SM SCT031 29/22 A3003 RMK A01
KXIH 201155Z AUTO 16012KT 10SM SCT026 SCT033 SCT120 29/25 A2996 RMK A01
KXLL 201155Z AUTO 00000KT 10SM CLR 09/08 A3032 RMK AO2
KXMR 201156Z AUTO 09011KT 10SM CLR 26/21 A3007 RMK AO2 SLP186 60000 70008 T02620214 10263 20253 52017 $
KXNA 201153Z 10005KT 10SM FEW100 21/18 A3004 RMK AO2 SLP159 70004 T02060178 10228 20206 53004
KXNO 201156Z AUTO 02005KT 10SM CLR 13/12 A3030 RMK AO2 SLP262 T01300117 10138 20118 52014 $
KXPY 201155Z AUTO 12012G17KT 10SM BKN034 28/23 A3005 RMK A01
KXSA 201155Z AUTO 00000KT 10SM CLR 08/08 A3034 RMK AO2 T00840084 10085 20065
KXVG 201152Z AUTO 00000KT 7SM CLR 15/14 A3003 RMK AO2
KY19 201155Z AUTO 15013KT 8SM OVC006 20/20 A2976 RMK AO2
KY23 201155Z AUTO 00000KT 1/4SM FG OVC002 17/17 A3010 RMK AO2 T01670167 10190 20164
KY31 201156Z AUTO 34006KT 7SM -RA BKN110 15/14 A3015 RMK AO2 T01520139 10156 20147
KY49 201135Z AUTO 11005KT 10SM CLR 16/15 A3003 RMK AO2 LTG DSNT S T01580152
KY50 201156Z AUTO 00000KT M1/4SM FG OVC002 16/16 A3012 RMK AO2 SLP196 6//// 7//// T01560156 10161 20150 $
KY51 201155Z AUTO 11005KT 1/2SM OVC002 A3010 RMK AO1 70050
KY63 201156Z AUTO 11009G14KT 10SM CLR 20/19 A2995 RMK AO2 T02000185 10200 20185
KY70 201155Z AUTO 00000KT 10SM SCT120 17/16 A3014 RMK AO2 T01680156 10175 20145
KYIP 201153Z 00000KT 6SM BR CLR 16/14 A3016 RMK AO2 SLP209 T01560139 10167 20156 53007
KYKM 201153Z AUTO 29004KT 10SM SCT065 BKN080 OVC100 13/09 A2997 RMK AO2 SLP145 T01330094 10172 20133 55002
KYKN 201156Z AUTO 13008KT 10SM CLR 21/20 A2993 RMK AO2 SLP137 T02110200 10228 20211 55000
KYNG 201151Z 13006KT 10SM FEW180 FEW250 12/09 A3023 RMK AO2 SLP238 T01220094 10144 20106 51008
KZPH 201155Z AUTO 02008KT 10SM BKN080 21/20 A3009 RMK A02 T02100205 10213 20204
KZZV 201153Z AUTO 14004KT 10SM CLR 15/12 A3022 RMK AO2 SLP229 T01500117 10161 20139 53009
LATI 201150Z 33005KT 300V030 CAVOK 25/09 Q1017 NOSIG
LBBG 201130Z 01014KT 9999 FEW027 18/10 Q1020 NOSIG
LBGO 201130Z AUTO VRB05KT 9999 NCD 19/05 Q1021 NOSIG
LBIA 201100Z 02006KT 9999 FEW050 19/05 Q1021
LBPD 201130Z AUTO 30011KT 270V340 9999 NCD 20/03 Q1020 NOSIG
LBPG 201100Z 25008KT 9999 FEW060 SCT100 20/03 Q1020
LBPL 201100Z 04010KT 9999 FEW056 21/06 Q1022
LBSF 201130Z 33009KT 280V010 CAVOK 17/M00 Q1022 NOSIG
LBWB 201000Z 36024KT 9999 FEW020 BKN100 14/10 Q1019
LBWN 201130Z 01013KT 9999 FEW015 18/06 Q1020 NOSIG
LCEN 201120Z 14009KT 110V190 9999 FEW025 33/12 Q1010 NOSIG
LCLK 201130Z 21010KT 170V240 9999 FEW025 31/18 Q1010 NOSIG
LCPH 201130Z 27014KT 9999 FEW020 28/19 Q1011
LCRA 201150Z 26017KT 9999 FEW040 26/19 Q1010 NOSIG
LDDU 201130Z 20008KT 160V250 9999 FEW035 22/08 Q1020 NOSIG
LDLO 201100Z 01012KT CAVOK 20/03 Q1024
LDOS 201130Z 02006KT 330V100 9999 FEW033 17/05 Q1027
LDPL 201130Z 08011KT 360V130 CAVOK 19/02 Q1025 NOSIG
LDRI 201130Z 03009G19KT 350V090 CAVOK 19/01 Q1025
LDSP 201130Z VRB03KT CAVOK 23/M01 Q1021 TEMPO FM1200 23008KT
LDZA 201130Z 07007KT 010V120 CAVOK 17/04 Q1027 NOSIG
LDZD 201130Z VRB04KT CAVOK 21/M01 Q1023 TEMPO 30008KT
LEAB 201100Z 16009KT 100V200 9999 FEW020 BKN030 23/16 Q1019 NOSIG
LEAG 201130Z AUTO VRB05KT 9999 FEW035 23/21 Q1015
LEAL 201130Z 08014KT 9999 SCT013 BKN026 26/21 Q1017 NOSIG
LEAM 201130Z 08013KT 050V110 9999 FEW040 28/19 Q1015
LEAO 201100Z 12003KT 050V200 CAVOK 23/15 Q1017
LEAS 201130Z 34006KT 280V020 9000 FEW001 SCT015 19/17 Q1012 TEMPO 3000 BR BKN008
LEBA 201130Z VRB02KT CAVOK 25/15 Q1015
LEBB 201130Z 14008G18KT 060V190 9999 FEW040 30/17 Q1013 NOSIG
LEBG 201130Z 03008KT 010V070 9999 FEW030 20/15 Q1017
LEBL 201130Z 09009KT 050V130 CAVOK 25/17 Q1019 NOSIG
LEBR 201130Z AUTO 10014KT 080V140 9999 FEW039 27/15 Q1017
LEBT 201130Z AUTO 08005KT 010V160 9999 SCT035/// BKN047/// BKN050/// 25/18 Q1018
LEBZ 201100Z 13005KT 070V180 CAVOK 24/14 Q1014
LECH 201130Z AUTO 08008KT 050V110 9999 FEW015 SCT046 23/19 Q1019
LECO 201130Z 01005KT 320V060 9000 FEW009 SCT014 BKN019 18/16 Q1013 BECMG SCT010
LECV 201100Z 11004KT 9999 OVC020 19/13 Q1019
LEDA 201130Z 07011KT 020V110 CAVOK 27/12 Q1019
LEEC 201100Z VRB03KT CAVOK 23/17 Q1015
LEGA 201100Z 18008KT 150V220 9999 FEW024 24/16 Q1017
LEGE 201130Z 06007KT 350V120 CAVOK 25/14 Q1020
LEGR 201130Z VRB01KT 9999 FEW090 27/16 Q1016
LEGT 201100Z 11008KT 070V140 9999 SCT028 SCT049 24/16 Q1017
LEHC 201130Z 07011KT 030V140 9999 SCT035 24/15 Q1019
LEIB 201130Z 08012KT 050V110 9999 FEW012 SCT014 25/21 Q1017 NOSIG
LEJR 201200Z 21008KT 180V240 9999 SCT022 BKN030 24/18 Q1014
LELC 201130Z 07008KT 030V110 9999 BKN014 BKN035 FEW040TCU 26/22 Q1016 NOSIG
LELL 201130Z 12004KT 020V170 CAVOK 26/15 Q1019
LELN 201130Z 15010KT 9999 SCT030 22/13 Q1016
LELO 201130Z 09015KT 060V140 9999 FEW065 24/17 Q1016
LEMD 201130Z 16007KT 130V220 9999 SCT030 BKN050 24/15 Q1017 NOSIG
LEMG 201130Z 09010KT 050V120 8000 SCT015 BKN040 25/22 Q1015 NOSIG
LEMH 201130Z 03009KT 360V070 9999 FEW020 25/19 Q1019
LEMI 201130Z 08012KT 040V100 9999 FEW018 SCT042 25/20 Q1017
LEMO 201200Z 24001KT CAVOK 25/14 Q1014 NOSIG
LEPA 201130Z 09008KT 060V170 9999 FEW022 SCT034 29/19 Q1017 NOSIG
LEPP 201130Z 15007KT 110V210 9999 FEW040 27/14 Q1017
LERI 201100Z 08008KT 050V110 9999 FEW025 BKN055 26/19 Q1017 NOSIG
LERL 201130Z VRB02KT CAVOK 23/15 Q1017
LERS 201130Z 11007KT 060V160 9999 FEW025 26/17 Q1019
LERT 201100Z 19009KT 150V210 9999 FEW025 23/19 Q1015 NOSIG
LESA 201130Z 26007KT 210V320 9999 FEW035 25/09 Q1016
LESB 201130Z AUTO 06008KT 030V100 CAVOK 28/18 Q1018
LESO 201130Z 13004KT 050V170 CAVOK 29/16 Q1013
LEST 201130Z 27005KT 210V320 2000 1000S BCFG OVC001 15/15 Q1014 BECMG 3000 BR BKN003
LESU 201130Z VRB02KT 9999 FEW038 22/14 Q1022
LETL 201130Z AUTO 14013KT 100V170 CAVOK 20/13 Q1020
LETO 201100Z 16006KT 140V210 9999 SCT035 BKN055 24/16 Q1017 NOSIG
LETU 201130Z AUTO 13014KT 9999 NCD 24/15 Q1018
LEVC 201130Z 08008KT 030V130 9999 FEW020 BKN040 26/20 Q1017 NOSIG
LEVD 201130Z 19013KT 150V240 CAVOK 24/11 Q1016
LEVS 201130Z 09006KT 030V140 9999 SCT028 SCT055 23/15 Q1017
LEVT 201130Z 13008G19KT 070V220 9999 FEW030 26/14 Q1016
LEVX 201130Z 19003KT 100V240 4500 BR OVC008 17/15 Q1014 BECMG 6000 NSW SCT008
LEXJ 201130Z 21004KT 180V240 CAVOK 30/17 Q1011
LEZG 201130Z 13015KT 090V160 9999 FEW040 27/15 Q1017
LEZL 201130Z VRB02KT CAVOK 24/16 Q1015 NOSIG
LFAQ 201130Z AUTO 09015KT CAVOK 20/03 Q1025 NOSIG
LFAT 201130Z AUTO 10012KT CAVOK 20/04 Q1025 NOSIG
LFBA 201130Z AUTO 12014KT CAVOK 28/13 Q1016 NOSIG
LFBC 201130Z AUTO 14011KT CAVOK 30/11 Q1014 NOSIG
LFBD 201130Z AUTO 10012KT CAVOK 28/13 Q1015 NOSIG
LFBE 201130Z AUTO 13011KT 100V170 CAVOK 29/11 Q1016 NOSIG
LFBG 201130Z AUTO 12009KT 080V160 CAVOK 27/12 Q1016 NOSIG
LFBH 201130Z AUTO 12008KT 080V140 CAVOK 26/10 Q1016 NOSIG
LFBI 201130Z AUTO 07006KT 020V140 CAVOK 23/07 Q1018 NOSIG
LFBL 201130Z AUTO 16008KT 120V200 CAVOK 26/11 Q1019 NOSIG
LFBM 201130Z AUTO 13008KT 080V160 CAVOK 27/14 Q1015 NOSIG
LFBO 201130Z AUTO 13019G31KT 100V160 CAVOK 27/16 Q1017 NOSIG
LFBP 201130Z AUTO 06004KT 330V130 CAVOK 28/18 Q1015 TEMPO SCT050TCU
LFBT 201130Z AUTO 07005KT 010V140 CAVOK 27/15 Q1016 NOSIG
LFBU 201130Z AUTO 12007KT 040V180 CAVOK 28/12 Q1017 NOSIG
LFBY 201100Z 08005KT 050V130 CAVOK 28/18 Q1014
LFBZ 201130Z AUTO VRB04KT CAVOK 29/18 Q1014 TEMPO FEW050CB BKN060TCU
LFCK 201130Z AUTO 12025KT CAVOK 25/16 Q1018 TEMPO 12028G40KT
LFCR 201130Z AUTO 12017KT 9999 BKN035 24/14 Q1020 TEMPO 14015G25KT
LFGA 201130Z AUTO 36008KT 330V030 CAVOK 17/03 Q1025
LFGJ 201130Z AUTO 06004KT 310V120 CAVOK 21/07 Q1022 NOSIG
LFHP 201130Z AUTO 17010KT 130V240 9999 FEW045 23/12 Q1022
LFJL 201130Z AUTO 07018KT CAVOK 19/01 Q1026 TEMPO 08015G25KT
LFJR 201130Z AUTO 09011KT 060V130 CAVOK 22/04 Q1019
LFKB 201130Z AUTO 04006KT 330V120 CAVOK 25/12 Q1021 NOSIG
LFKC 201130Z AUTO 36014KT 320V020 9999 FEW100 26/12 Q1019 TEMPO FEW045TCU
LFKF 201130Z AUTO 06017KT 030V090 CAVOK 26/15 Q1020 TEMPO 04017G29KT FEW040TCU
LFKJ 201130Z AUTO 23010KT 9999 FEW034/// ///CB 27/20 Q1019 NOSIG
LFKS 201130Z AUTO 06012KT CAVOK 24/14 Q1021
LFLB 201130Z AUTO 33006KT 290V360 CAVOK 20/09 Q1023 NOSIG
LFLC 201130Z AUTO VRB03KT CAVOK 24/07 Q1020 NOSIG
LFLL 201130Z VRB04KT CAVOK 23/09 Q1021 NOSIG
LFLN 201130Z AUTO 08004KT 340V150 CAVOK 22/07 Q1021 NOSIG
LFLP 201130Z AUTO VRB04KT CAVOK 20/09 Q1023 NOSIG
LFLS 201130Z AUTO VRB03KT CAVOK 24/12 Q1022 NOSIG
LFLU 201130Z AUTO 19005KT 140V250 CAVOK 25/09 Q1021
LFLW 201130Z AUTO 14011KT 110V190 CAVOK 24/13 Q1021 NOSIG
LFLX 201130Z AUTO 09009KT 040V120 CAVOK 22/04 Q1019 NOSIG
LFLY 201130Z AUTO VRB03KT CAVOK 23/08 Q1021 NOSIG
LFMC 201130Z AUTO 09013KT 050V130 9999 ////// 26/12 Q1021
LFMD 201130Z AUTO 15010KT 110V180 CAVOK 25/14 Q1022 NOSIG
LFMH 201130Z AUTO 17006KT 130V200 CAVOK 23/10 Q1021 NOSIG
LFMI 201130Z AUTO 14006KT 090V200 9999 SCT043 SCT088 28/15 Q1020 NOSIG
LFMK 201130Z AUTO 09019KT 9999 BKN031 BKN041 24/17 Q1019 TEMPO 10015G30KT
LFML 201130Z AUTO 28007KT 9999 SCT046 BKN058 26/16 Q1020 NOSIG
LFMN 201130Z 10014KT 9999 FEW040 25/14 Q1022 NOSIG
LFMO 201130Z AUTO VRB03KT CAVOK 27/14 Q1021 NOSIG
LFMP 201130Z AUTO 09012KT 070V130 9999 BKN020/// BKN027/// BKN210/// 25/19 Q1020 NOSIG
LFMT 201130Z AUTO 14013KT CAVOK 25/19 Q1021 TEMPO SHRA SCT025TCU
LFMU 201130Z AUTO 11009KT 080V150 9999 -RA BKN020/// BKN026/// OVC054/// ///TCU 23/18 Q1020 BECMG SCT030
LFMV 201130Z AUTO VRB04KT CAVOK 27/13 Q1021 NOSIG
LFMY 201130Z AUTO 09004KT 020V160 9999 SCT048 28/15 Q1020 NOSIG
LFOA 201130Z AUTO 09011KT 060V120 CAVOK 22/04 Q1020 NOSIG
LFOB 201130Z AUTO 08014KT CAVOK 20/03 Q1024 NOSIG
LFOC 201130Z AUTO 07015KT 040V100 CAVOK 20/04 Q1021 TEMPO 09015G25KT
LFOE 201130Z AUTO 08012KT 040V130 CAVOK 20/01 Q1023 TEMPO 11015G25KT
LFOH 201130Z AUTO 11017KT CAVOK 20/M01 Q1022 BECMG 09015G25KT
LFOJ 201130Z AUTO 09013KT CAVOK 20/04 Q1021 NOSIG
LFOK 201130Z AUTO 08013KT CAVOK 20/01 Q1024 NOSIG
LFOP 201130Z AUTO 09016KT CAVOK 20/M00 Q1023 NOSIG
LFOT 201130Z AUTO 09012KT 060V120 CAVOK 21/03 Q1020 NOSIG
LFOV 201130Z AUTO 10014KT 060V130 CAVOK 22/04 Q1020
LFOZ 201130Z AUTO 09011KT 040V120 CAVOK 21/04 Q1021
LFPB 201130Z AUTO 08013KT CAVOK 21/M01 Q1023 NOSIG
LFPG 201130Z 08016KT CAVOK 20/M01 Q1023 NOSIG
LFPM 201130Z AUTO 08014KT 040V110 CAVOK 20/02 Q1022
LFPN 201130Z AUTO 08012KT 040V110 CAVOK 20/01 Q1022 NOSIG
LFPO 201130Z 08013KT CAVOK 21/02 Q1023 NOSIG
LFPT 201130Z AUTO 10014KT CAVOK 20/00 Q1023
LFPV 201130Z AUTO 08015KT CAVOK 19/M01 Q1023 NOSIG
LFQA 201130Z AUTO 10014G24KT 050V130 CAVOK 21/M01 Q1024
LFQB 201130Z AUTO 09010KT 060V130 CAVOK 21/02 Q1023
LFQG 201130Z AUTO 10005KT 040V200 CAVOK 22/05 Q1021
LFQQ 201130Z AUTO 08010KT CAVOK 20/03 Q1026 NOSIG
LFRB 201130Z AUTO 11011KT 080V140 CAVOK 21/07 Q1017 NOSIG
LFRC 201130Z AUTO 10018KT CAVOK 18/07 Q1022 TEMPO 10020G30KT
LFRD 201130Z AUTO 10010KT 070V130 CAVOK 21/05 Q1019 NOSIG
LFRG 201130Z AUTO 09014KT 040V140 CAVOK 20/00 Q1022 TEMPO 10015G25KT
LFRH 201130Z AUTO 10015KT CAVOK 22/04 Q1017 NOSIG
LFRI 201130Z AUTO 07011KT CAVOK 23/07 Q1017 NOSIG
LFRJ 201130Z AUTO 12018KT CAVOK 21/06 Q1017 NOSIG
LFRK 201130Z AUTO 10017KT CAVOK 21/00 Q1021 TEMPO 11015G25KT
LFRL 201130Z AUTO 10010KT CAVOK 21/06 Q1017 NOSIG
LFRM 201130Z AUTO 07012KT CAVOK 22/02 Q1020 NOSIG
LFRN 201130Z AUTO 10014KT CAVOK 22/02 Q1019 NOSIG
LFRO 201130Z AUTO 09011KT 060V140 CAVOK 19/07 Q1018
LFRQ 201130Z AUTO 11010KT 080V150 CAVOK 21/06 Q1017 NOSIG
LFRS 201130Z AUTO 09012KT 060V120 CAVOK 23/03 Q1017 NOSIG
LFRT 201130Z AUTO 12011KT 080V160 CAVOK 20/05 Q1019
LFRU 201130Z AUTO 10012KT 080V140 CAVOK 21/08 Q1017
LFRV 201130Z AUTO 09014KT CAVOK 21/05 Q1017
LFRZ 201130Z AUTO 08014KT CAVOK 22/05 Q1017 NOSIG
LFSB 201130Z 36008KT 320V030 CAVOK 18/05 Q1025 NOSIG
LFSD 201130Z AUTO VRB05KT CAVOK 21/05 Q1022
LFSG 201130Z AUTO 05011KT CAVOK 19/M01 Q1024
LFSI 201130Z AUTO 08012KT CAVOK 21/M03 Q1024
LFSL 201130Z AUTO 17010KT 120V200 CAVOK 27/13 Q1018 NOSIG
LFSN 201130Z AUTO 06013KT 030V120 CAVOK 20/M00 Q1025
LFSO 201130Z AUTO 09012KT CAVOK 18/M01 Q1025 NOSIG
LFST 201130Z AUTO 07007KT 030V140 CAVOK 19/03 Q1026 NOSIG
LFSX 201130Z AUTO 13009KT 080V190 CAVOK 21/01 Q1023
LFTH 201130Z AUTO 10014KT 070V130 CAVOK 25/16 Q1021 BECMG 10015G30KT
LFTW 201130Z AUTO 18007KT 120V230 9999 SCT038 BKN078 26/16 Q1021 NOSIG
LFVP 201000Z 25003KT 2000 R26/1200D MIFG NSC 09/09 Q1018 NOSIG
LFYR 201130Z AUTO VRB06KT CAVOK 22/04 Q1020 NOSIG
LGAD 201150Z 32009KT 9999 SCT020 27/18 Q1015
LGAL 201150Z 07011KT 9999 FEW020 SCT035 16/10 Q1019
LGAV 201150Z 06016G26KT 9000 -RA FEW015 SCT020 BKN070 24/15 Q1015 NOSIG
LGBL 201150Z 32006KT 9999 FEW020TCU BKN030 BKN080 20/11 Q1018 BLU
LGEL 201150Z 35008KT 9999 FEW018TCU SCT025 BKN070 25/15 Q1014
LGHI 201150Z 04007KT 9999 FEW020 24/17 Q1013
LGIO 201150Z 33011KT 9999 FEW025 SCT035 25/12 Q1016
LGIR 201150Z 32014KT 9999 FEW020 27/21 Q1014 NOSIG
LGKC 201150Z 27010KT 9999 FEW020 26/20 Q1017
LGKF 201150Z 33014KT 9999 SCT016 27/20 Q1016
LGKL 201150Z 00000KT 9999 SCT030 30/15 Q1014
LGKO 201150Z 31011KT CAVOK 26/20 Q1013
LGKP 201150Z 33018KT 9999 FEW018 27/18 Q1013
LGKR 201150Z 32009KT 9999 FEW030 28/17 Q1015 NOSIG
LGKV 201150Z 09007KT 9999 FEW015 SCT025 BKN080 18/12 Q1018
LGKZ 201150Z 33016KT 9999 FEW020 SCT070 18/02 Q1020
LGLM 201150Z 05020G30KT 9999 -DZ FEW008 SCT030 17/13 Q1017
LGLR 201150Z 09006KT 9999 FEW015 SCT030 BKN080 19/15 Q1019 BLU
LGMK 201150Z 36017KT 9999 FEW008 27/16 Q1014
LGMT 201150Z 31011KT 290V360 9999 FEW025 25/17 Q1015
LGNX 201050Z 36007KT 9999 FEW020 26/18 Q1014
LGPA 201150Z 36014KT 9999 FEW025 26/18 Q1014
LGPZ 201150Z 25013KT 9999 FEW020TCU SCT025 27/19 Q1015 RMK FEW090 BLU
LGRP 201150Z 25018KT CAVOK 29/21 Q1011 NOSIG
LGRX 201150Z 27006KT 9999 SCT025 27/19 Q1015 RMK FEW080 BLU
LGSA 201150Z 29012G22KT 9999 FEW020 28/20 Q1014
LGSK 201150Z 35012G22KT 7000 -RA SCT010 OVC025 18/16 Q1018
LGSM 201150Z 10008KT 9999 FEW035 28/18 Q1013
LGSO 201150Z AUTO 01015KT //// -RA ////// 24/18 Q1015 RE//
LGSR 201150Z 36016KT CAVOK 27/17 Q1014 RMK FEW080 FEW180 BLU
LGSY 201150Z 02019KT 8000 SCT016 OVC020 18/15 Q1017 WHT
LGTG 201150Z 36009KT 9999 SCT020 BKN030 BKN070 20/13 Q1017 BLU
LGTS 201150Z 01006KT 9999 FEW025 21/09 Q1019 NOSIG
LGZA 201150Z 32009KT 9999 FEW018TCU SCT020 27/17 Q1015
LHBP 201130Z 29005KT 220V360 CAVOK 16/04 Q1027 NOSIG
LHDC 201115Z AUTO 33010KT 280V010 CAVOK 16/00 Q1026 NOSIG
LHKE 201145Z VRB04KT CAVOK 16/01 Q1026 NOSIG RMK BLU
LHPA 201145Z 36006KT 290V110 9999 FEW047 16/03 Q1027 NOSIG RMK BLU
LHPP 201115Z 25003KT CAVOK 16/02 Q1027
LHPR 201115Z VRB08KT CAVOK 16/03 Q1028
LHSM 201115Z AUTO 01006KT 300V060 CAVOK 17/04 Q1028 NOSIG
LHSN 201145Z VRB02KT CAVOK 17/02 Q1026 NOSIG RMK BLU
LIBA 201055Z 33012KT 9999 FEW050 24/05 Q1021 RMK FEW VIS MIN 9999 WIND THR11 33010KT WIND THR29 /////KT BLU
LIBC 200950Z 36016KT 9999 FEW035 23/14 Q1020
LIBD 201150Z 36010KT 330V030 9999 FEW030 23/10 Q1021
LIBF 201050Z 33015KT 290V360 9999 FEW040 23/08 Q1022
LIBG 201050Z 36013KT 320V020 9999 SCT025 23/11 Q1019
LIBH 201055Z VRB10KT 9999 BKN025 25/12 Q1019 RMK BKN BKN070 QUK 2 QUL 1 E VIS MAR 20 KM VIS MIN 9999
LIBN 201055Z 01014KT 9999 BKN035 22/15 Q1019 RMK BKN SCT100 VIS MIN 9999 WIND THR14 01012KT WIND THR32 01014KT BLU
LIBP 201050Z 02008KT 340V070 9999 FEW090 21/09 Q1024
LIBQ 201055Z 29004KT 0000 FG VV/// 12/12 Q1023 RMK MON INVIS VAL INVIS VIS MIN 0000
LIBR 201150Z 02011KT 9999 FEW040 22/13 Q1019
LIBV 201055Z 34012KT 9999 FEW032 SCT040 19/10 Q1020 RMK BKN VIS MIN 9999 WIND THR32 35012KT WIND THR14 34014KT BLU
LIBY 201055Z 36013KT 9999 FEW040 22/16 Q1018 RMK BKN BKN200 QUK 3 QUL 1 N VIS MAR 20 KM VIS MIN 9999
LICA 201050Z 25011KT 9999 FEW030 28/17 Q1018
LICB 201133Z 14009KT 090V180 9999 4000N TS FEW015CB SCT035 28/18 Q1017
LICC 201150Z 09013KT 9999 BKN030 26/21 Q1018
LICD 201050Z 15008KT CAVOK 29/25 Q1016
LICF 201055Z 20006KT 9999 FEW020TCU SCT030 26/20 Q1017 RMK BKN QUK 2 QUL 0 VIS MAR 16 KM MON CLD CIME NC VIS MIN 9999
LICG 201050Z 03009KT 8000 FEW008 24/22 Q1019
LICJ 201150Z 06016KT 9999 FEW020 28/21 Q1017
LICL 201055Z 22008KT 170V260 9999 FEW030 26/21 Q1017 RMK BKN BKN190 QUK 1 QUL 0 VIS MAR 10 KM VIS MIN 9999
LICR 201050Z 25006KT 210V300 9999 FEW040 28/18 Q1018
LICT 201055Z 35009KT 9999 FEW025 26/24 Q1017
LICZ 201055Z 11013KT 8000 FEW020 SCT060 26/23 Q1019 RMK BKN VIS MIN 8000 WIND THR28 10013KT WIND THR10 10012KT A3010 BLU
LIEA 201150Z VRB04KT 9999 FEW045 31/17 Q1018
LIEB 201055Z 05020KT 9999 FEW030TCU 26/21 Q1019 RMK FEW QUK 3 QUL 1 N VIS MAR 30 KM MON W CIME INC NC VIS MIN 9999
LIEC 201055Z 05026G37KT 9999 FEW018 26/21 Q1018 RMK SCT QUK 3 QUL 0 VIS MAR 18 KM VIS MIN 9999
LIED 201055Z 06005KT 9999 SCT025 31/24 Q1017 RMK SCT VIS MIN 9999 WIND THR35 06005KT WIND THR17 /////KT BLU
LIEE 201150Z 20011KT 9999 FEW035 29/20 Q1017
LIEO 201150Z 06009KT 030V090 9999 FEW030 26/17 Q1020
LIMA 201050Z 04004KT 320V090 9999 FEW030 19/09 Q1025
LIMC 201150Z 15003KT 040V210 9999 BKN045 19/08 Q1026 NOSIG
LIME 201150Z 15005KT 090V220 9999 BKN050 19/07 Q1026 NOSIG
LIMF 201150Z 08006KT 030V120 9999 SCT040 20/11 Q1025
LIMG 201050Z 03013G26KT 330V080 CAVOK 24/07 Q1021
LIMH 201055Z VRB02KT CAVOK 04/M13 Q1034 RMK SKC MON LIB VAL S MAR CLD VIS MIN 9999
LIMJ 201150Z 36010KT 320V040 CAVOK 24/12 Q1022
LIMK 200755Z 34006KT CAVOK 13/13 Q1025 RMK BKN BKN060 VAL FOSCHIA VIS MIN 9999
LIMN 201055Z 05007KT 030V100 9999 BKN060 19/10 Q1025 RMK BKN VIS MIN 9999 BLU
LIMP 201050Z 11008KT 060V150 CAVOK 19/14 Q1025
LIMS 201055Z 11011KT 9999 FEW040 20/14 Q1024
LIMU 201055Z 04019KT CAVOK 26/12 Q1021 RMK SKC QUK 4 QUL 1 SE VIS MAR 40 KM VIS MIN 9999
LIMV 200955Z /////KT 9000 SCT006 15/11 Q1025 RMK SCT MON N GEN INC S LIB NC VAL FOSCHIA VIS MIN 6000N
LIMW 201120Z AUTO 10007KT 070V130 9999 FEW050/// 21/09 Q1024
LIMY 201055Z /////KT 9999 SCT023 15/10 Q1026 RMK BKN SCT080 VAL FOSCHIA VIS MIN 9999
LIMZ 201050Z 02005KT 9999 BKN050 18/12 Q1026
LIPA 201055Z 13002KT 9999 FEW060 18/07 Q1026 RMK SCT SCT150 VIS MIN 9999 WIND THR05 /////KT WIND THR23 /////KT A3032 BLU
LIPB 201150Z 18006KT 120V250 CAVOK 22/08 Q1023
LIPC 201055Z 06008KT 9999 FEW060 20/10 Q1025
LIPE 201150Z 08007KT 010V140 9999 SCT040 21/10 Q1025
LIPF 201055Z /////KT 9999 FEW025 21/11 Q1025
LIPH 201150Z 03004KT 340V110 CAVOK 19/05 Q1026
LIPI 200955Z 07007KT CAVOK 18/04 Q1026 RMK BKN SCT150 SCT200 VIS MIN 9999 WIND THR06 10009KT WIND THR24 11006KT BLU
LIPK 201150Z VRB03KT 9999 FEW030 21/08 Q1025
LIPL 201055Z 12010KT 9999 SCT070 21/08 Q1025 RMK BKN VIS MIN 9999 WIND THR31 11010KT WIND THR13 13010KT BLU
LIPO 201050Z 15011KT CAVOK 19/04 Q1026
LIPQ 201150Z 07007KT 020V110 CAVOK 20/03 Q1026
LIPR 201150Z 03008KT 360V070 CAVOK 20/10 Q1025
LIPS 201055Z /////KT 9999 SCT090 18/09 Q1025 RMK BKN SCT200 VIS MIN 9999 WIND THR26 07004KT WIND THR08 07008KT BLU
LIPX 201150Z 07008KT 030V130 CAVOK 19/05 Q1026
LIPY 201050Z 04008KT 010V070 CAVOK 21/10 Q1024
LIPZ 201150Z 08009KT CAVOK 19/05 Q1026 NOSIG
LIQC 201055Z 05005KT 9999 FEW026 25/13 Q1020 RMK FEW QUK 2 QUL 1 NE VIS MAR 20 KM VIS MIN 9999
LIQN 201050Z 35004KT CAVOK 23/10 Q1021
LIQW 200955Z /////KT 9999 FEW030 23/17 Q1022
LIRA 201150Z 31005KT 230V010 9999 FEW040 26/13 Q1020
LIRE 201055Z 24007KT 210V270 9999 SCT030 SCT040 24/18 Q1019 RMK BKN VIS MIN 9999 WIND THR13 26007KT WIND THR31 /////KT BLU
LIRF 201150Z 28009KT 250V310 9999 SCT045 26/16 Q1020 NOSIG
LIRG 201055Z 32005KT 270V020 9999 FEW030 25/10 Q1021
LIRH 201055Z 18002KT 9999 SCT030 25/14 Q1020
LIRI 201050Z 03015KT 9999 FEW030 26/07 Q1020
LIRK 201055Z AUTO VRB03KT //// 10/05 Q1027
LIRL 201055Z 25005KT 9999 SCT020 FEW025TCU 25/19 Q1019
LIRM 201055Z 08012KT CAVOK 27/10 Q1020
LIRN 201150Z 08007KT 040V130 CAVOK 25/08 Q1020 NOSIG
LIRP 201145Z 08011KT 050V140 CAVOK 24/09 Q1022 NOSIG
LIRQ 201150Z 05012KT CAVOK 24/09 Q1022
LIRS 201055Z 05013KT CAVOK 25/08 Q1021
LIRU 201050Z 34005KT CAVOK 26/13 Q1020
LIRV 201055Z /////KT CAVOK 23/09 Q1021
LIRX 201055Z 06012KT CAVOK 22/09 Q1021 RMK FEW FEW200 VIS MIN 9999 VIS MAR 30 KM
LIRZ 201050Z 02012KT 350V050 CAVOK 23/09 Q1022
LIVC 201055Z 03003KT CAVOK 06/02 Q1028 RMK SKC MON GEN INC NC VAL CLD SCT NC VIS MIN 9999
LIVD 201055Z 09005KT CAVOK 11/06 Q1027 RMK SCT SCT230 VIS MIN 9999
LIVE 201055Z 21006KT CAVOK 15/08 Q1025 RMK BKN BKN180 VIS MIN 9999
LIVF 200755Z 07005KT 9999 FEW027 14/11 Q1022 RMK FEW MON S W CIME INC NC VAL FOSCHIA DIM ELEV VIS MIN 9999
LIVM 201055Z 06005KT CAVOK 21/10 Q1025 RMK SCT SCT180 QUK 2 QUL 0 VIS MAR 26 KM VIS MIN 9999
LIVO 201055Z 10005KT CAVOK 13/04 Q1026 RMK SKC VIS MIN 9999
LIVP 201055Z 20003KT 0300 FG VV/// 06/03 Q1026 RMK MON INVIS VAL INVIS VIS MIN 0300
LIVR 201055Z 28004KT 9999 FEW020 08/04 Q1027 RMK BKN BKN200 MON CLD SCT VIS MIN 9999
LIVT 201055Z 06012G24KT CAVOK 17/03 Q1025 RMK BKN SCT080 BKN200 QUK 4 QUL 3 NE VIS MAR 20 KM VIS MIN 9999
LJCE 201130Z 08008KT 030V120 9999 FEW045 17/04 Q1028
LJLJ 201130Z 16004KT 100V250 9999 FEW049 15/04 Q1027 NOSIG
LJMB 201130Z 02004KT 330V080 9999 FEW050 16/03 Q1028
LJPZ 201130Z 06006KT 350V100 CAVOK 20/03 Q1025
LKCV 201100Z 28008KT 240V330 9999 FEW048 15/03 Q1028 NOSIG RMK BLU BLU
LKKB 201100Z VRB02KT 9999 SCT049 14/03 Q1028 NOSIG
LKKU 201100Z VRB02KT 9999 FEW043 16/04 Q1027
LKKV 201130Z 30004KT 220V010 9999 FEW043 13/02 Q1028
LKLN 201100Z AUTO VRB02KT CAVOK 14/02 Q1029
LKMT 201130Z 26003KT 190V310 9999 BKN042 14/05 Q1027 NOSIG
LKNA 201100Z 32008KT 290V360 CAVOK 13/02 Q1027 NOSIG RMK BLU BLU
LKPD 201100Z 30007KT 250V340 CAVOK 15/03 Q1028 NOSIG RMK BLU BLU
LKPR 201130Z VRB03KT 9999 SCT046 14/02 Q1028 NOSIG
LKTB 201130Z VRB05KT CAVOK 16/03 Q1027 NOSIG
LKVO 201100Z VRB05KT 9999 SCT047 16/03 Q1028
LLBG 201150Z 31011KT CAVOK 30/19 Q1011 NOSIG
LLER 201150Z 02014KT CAVOK 36/19 Q1008
LLHA 201150Z 32009KT CAVOK 30/21 Q1011
LLIB 201150Z 11007KT 080V140 CAVOK 33/19 Q1011
LMML 201145Z 08006KT 050V110 9999 BKN020 28/22 Q1019 NOSIG
LOAN 201100Z 09007KT 45KM SCT045CU
LOAV 201100Z VRB02KT 40KM BKN050CU 14/01
LOWG 201150Z 13005KT 060V180 9999 FEW060 15/01 Q1027 NOSIG
LOWI 201150Z 13005KT 070V180 CAVOK 16/07 Q1025 NOSIG
LOWK 201150Z 10004KT 040V180 9999 FEW050 15/03 Q1027 NOSIG
LOWL 201150Z VRB03KT 9999 FEW052 16/02 Q1028 NOSIG
LOWS 201150Z 03006KT 340V050 9999 FEW040 SCT300 16/04 Q1027 NOSIG
LOWW 201150Z 29005KT 220V010 9999 FEW048 SCT300 16/03 Q1028 NOSIG
LOWZ 201150Z AUTO 05006KT 9999 NCD 15/03
LOXT 201120Z 06002KT 60KM FEW040CU 17/05 Q1028 NOSIG RMK WIND INFO EST/FEW
LOXZ 201150Z 07004KT 40KM FEW060CU 15/01 Q1027 NOSIG
LPAR 201100Z 20005KT 9999 SCT018 21/17 Q1014
LPAZ 201130Z 25019KT 9999 SCT008 24/22 Q1014
LPBJ 201100Z 12005KT 080V170 9999 FEW035 22/14 Q1015
LPCS 201130Z 18006KT 140V240 9999 FEW014 21/16 Q1015
LPFL 201130Z 34019G30KT 300V010 9999 SCT028 22/14 Q1016
LPFR 201130Z 16005KT 9999 FEW015 22/17 Q1015
LPHR 201130Z 32017G29KT 290V360 9999 FEW018 23/17 Q1015
LPLA 201100Z /////KT 9000 -RA FEW020 SCT035 21/20 Q1013
LPMA 201130Z 08005KT 010V150 9999 SCT016 25/19 Q1017
LPMT 201100Z 28003KT 200V360 9999 FEW013 SCT030 21/17 Q1014
LPOV 201100Z VRB02KT 9999 SCT012 BKN025 19/16 Q1013
LPPD 201130Z 29021KT 5000 VCSH SCT006 SCT010 BKN035 22/21 Q1012 RERA
LPPR 201130Z VRB03KT 9999 SCT014 BKN020 BKN026 19/17 Q1014
LPPS 201130Z 30008KT 260V320 9999 FEW014 24/18 Q1017
LPPT 201130Z 20005KT 130V240 9999 FEW012 SCT016 21/16 Q1015
LQBK 201130Z 04006KT 9999 FEW043 18/03 Q1027 NOSIG
LQMO 201100Z 35012KT 320V040 CAVOK 23/00 Q1019
LQSA 201130Z 32009KT 280V020 9999 FEW050 16/01 Q1025 NOSIG
LQTZ 201130Z VRB05KT 9999 FEW050 17/04 Q1026
LRAR 201130Z 03007KT 330V060 CAVOK 17/M00 Q1026
LRBC 201130Z 33011KT 9999 BKN049 16/03 Q1022
LRBM 201130Z 26017KT 9999 BKN045 16/M02 Q1024
LRBO 201200Z 07006KT 9999 SCT050TCU 17/0 Q1021 BLU BLU
LRBS 201130Z VRB02KT CAVOK 19/01 Q1022 NOSIG
LRCK 201130Z 34012KT 9999 FEW045 18/06 Q1020 NOSIG
LRCL 201130Z 30013KT 280V340 9999 SCT055 16/M04 Q1025
LRCT 201200Z 33015KT 9999 FEW050 15/M04 Q1024 BLU BLU
LRCV 201130Z 28008KT 220V320 CAVOK 19/02 Q1021
LRFT 200900Z 03015KT 9999 SCT080 17/08 Q1022 BLU BLU
LRIA 201130Z 30013KT 9999 FEW040TCU 15/03 Q1021
LROD 201130Z 36006KT 310V050 9999 BKN045 17/01 Q1026
LROP 201130Z 03007KT CAVOK 19/M00 Q1022 NOSIG
LRSB 201130Z 33009KT 300V360 9999 SCT056 16/M02 Q1023 NOSIG
LRSM 201130Z 35009KT 320V020 CAVOK 15/M01 Q1025
LRSV 201130Z 32010KT 290V350 9999 SCT039CB 11/03 Q1022
LRTC 201130Z 36012KT 330V030 9999 SCT048 17/02 Q1020
LRTM 201130Z 33010KT 260V030 9999 BKN038 16/00 Q1023
LRTR 201130Z 34009KT CAVOK 17/01 Q1025
LRTZ 201200Z 03014KT 9999 SCT100 18/06 Q1020 BLU BLU
LSGC 201150Z VRB03KT CAVOK 17/07 Q1024
LSGG 201150Z 05007KT 9999 FEW040 17/07 Q1024 NOSIG
LSGS 201150Z 24011KT 9999 FEW100 20/11 Q1022
LSMA 201150Z 04007KT CAVOK 15/08 Q1025 RMK BLU
LSMD 201150Z 07009KT 040V110 CAVOK 16/07 Q1025 RMK BLU
LSME 201120Z VRB04KT CAVOK 15/08 Q1025 RMK BLU
LSMM 201150Z 25005KT 230V290 CAVOK 17/10 Q1024 RMK BLU
LSMP 201120Z 07005KT 020V130 CAVOK 15/07 Q1025 RMK BLU
LSZA 201150Z 19004KT 150V220 9999 FEW050 OVC060 18/08 Q1026 NOSIG
LSZB 201150Z 27005KT 220V310 CAVOK 17/08 Q1024 NOSIG
LSZC 201150Z AUTO VRB03KT CAVOK 15/08 Q1025
LSZG 201150Z 09009KT CAVOK 17/06 Q1025 NOSIG
LSZH 201150Z 05007KT 360V100 CAVOK 16/05 Q1025 NOSIG
LSZL 201150Z 28003KT 210V330 9999 BKN054 19/09 Q1025 RMK BLU
LSZR 201150Z 26005KT CAVOK 15/08 Q1025 NOSIG RMK I
LSZS 201150Z 22010KT CAVOK 15/08 Q1025 RMK M
LTAB 201050Z 26015KT 9999 FEW040 26/06 Q1012 NOSIG RMK RWY06 25013KT
LTAC 201120Z 23015KT 9999 FEW040 26/04 Q1012 NOSIG RMK RWY21L 23016G29KT 180V280 RWY03L 24011KT 190V270 RWY21R 25012KT 220V280
LTAD 201050Z 25012KT 9999 FEW040 25/09 Q1013 NOSIG RMK RWY29 24013KT 210V270
LTAE 201050Z 25014KT 9999 FEW040 25/06 Q1013 NOSIG RMK RWY21 25016KT 220V280
LTAF 201120Z 22007KT 170V300 CAVOK 33/16 Q1008 NOSIG
LTAG 201120Z 13007KT 9999 FEW035 SCT200 33/17 Q1009 NOSIG
LTAH 201050Z 28012KT 260V320 9999 FEW040 26/02 Q1015 RMK RWY13 30012KT 270V330
LTAI 201120Z 16009KT 140V200 CAVOK 28/17 Q1010 NOSIG
LTAJ 201120Z 24009KT CAVOK 33/16 Q1011 NOSIG RMK RWY10 23007KT 150V280
LTAL 201050Z VRB02KT 9999 BKN035 18/12 Q1013
LTAN 201050Z VRB03KT CAVOK 27/00 Q1013 NOSIG RMK RWY19 04007KT 360V070
LTAP 201120Z 04015KT 9999 SCT040 25/12 Q1009 NOSIG
LTAR 201050Z 22017KT CAVOK 25/M05 Q1016 RMK RWY19 21018KT 180V240
LTAS 201050Z 34008KT 9999 -SHRA SCT021 BKN090 20/18 Q1013
LTAT 201120Z 20015KT CAVOK 33/04 Q1011 NOSIG
LTAU 201120Z 25012KT CAVOK 30/M01 Q1012 NOSIG
LTAV 201050Z 30017KT 9999 FEW040 24/08 Q1014 RMK RWY11 31018KT
LTAW 201050Z 28006KT 250V320 9999 FEW040 27/14 Q1009 RMK RWY22 25005KT 210V320
LTAY 201050Z 28012KT 240V300 9999 FEW035 26/06 Q1015
LTAZ 201120Z 26014KT CAVOK 29/02 Q1012
LTBA 201120Z 34016KT 7000 -SHRA SCT012 BKN020 17/15 Q1017 NOSIG
LTBD 201050Z 25009KT 9999 FEW036 29/18 Q1012
LTBF 201050Z 36016G26KT 320V020 9999 FEW020 SCT035 BKN100 18/13 Q1018 NOSIG RMK RWY18 33012KT 290V350
LTBG 201050Z 35018G28KT 9999 -SHRA FEW011 SCT035 BKN100 15/14 Q1018 NOSIG RMK RWY18 01018G28KT
LTBH 201105Z 05016KT 9999 -SHRA FEW015 BKN035 BKN100 15/12 Q1019
LTBI 201050Z 29013KT 260V330 9999 SCT040 22/10 Q1015 NOSIG RMK RWY08 30014KT
LTBJ 201120Z 35015KT 9999 FEW020TCU SCT100 28/14 Q1013 NOSIG
LTBL 201050Z 25013KT 9999 FEW040 SCT100 BKN200 27/17 Q1014 NOSIG RMK RWY17 26013KT
LTBO 201050Z 25009KT 210V290 9999 FEW040 24/07 Q1016
LTBQ 201102Z 25004KT 170V300 2500 SHRA BR SCT008 BKN016 17/16 Q1017 BECMG TL1150 7000 NSW RMK RWY09 25008KT
LTBR 201120Z 32013KT 9999 BKN030 BKN090 17/14 Q1016 NOSIG
LTBS 201120Z 22011KT CAVOK 30/18 Q1010 NOSIG
LTBT 201050Z 36008KT 290V080 9999 FEW040 SCT200 29/14 Q1013 RMK RWY13 01013KT 340V120
LTBU 201120Z 32014KT 9999 FEW021 BKN040 15/11 Q1019
LTBY 201050Z 30013KT 270V330 9999 SCT030 22/10 Q1015
LTCA 201050Z 18011KT 150V220 CAVOK 32/06 Q1012 NOSIG RMK RWY07 21008KT 120V250
LTCB 201125Z 01003KT 330V050 9999 -SHRA FEW015 BKN030 23/18 Q1010
LTCC 201120Z 13010KT CAVOK 35/06 Q1010 NOSIG
LTCD 201050Z 19010G20KT 120V220 9999 FEW045 30/02 Q1013 NOSIG
LTCE 201120Z 24016KT CAVOK 25/M03 Q1017 NOSIG
LTCF 201050Z 22017KT 180V270 CAVOK 25/M01 Q1017 RMK RWY24 19016KT
LTCG 201120Z 03004KT 330V080 9999 FEW015 BKN035 24/19 Q1010 NOSIG
LTCI 201050Z 30004KT 240V340 CAVOK 24/03 Q1019 NOSIG RMK RWY21 33004KT 280V050
LTCJ 201050Z VRB03KT CAVOK 36/06 Q1010 RMK RWY20 32005KT 270V010
LTCK 201050Z 22020KT CAVOK 30/03 Q1015 RMK RWY11 21018G28KT 170V240
LTCM 201050Z 05011KT 9999 SCT030 BKN100 21/12 Q1014
LTCN 201050Z 27010KT 250V310 CAVOK 34/09 Q1010 NOSIG
LTCO 201050Z 23017KT 200V270 CAVOK 27/M00 Q1018
LTCP 201050Z 23009KT CAVOK 33/07 Q1011
LTCR 201050Z 20007KT 150V230 CAVOK 36/06 Q1010
LTCS 201120Z 19008KT 150V230 CAVOK 33/06 Q1013 RMK RWY22 18009KT 130V230
LTCT 201050Z 09009KT 060V130 CAVOK 29/05 Q1013
LTCU 201050Z 20012KT 170V230 CAVOK 31/04 Q1014
LTCV 201050Z 14006KT 080V190 CAVOK 36/04 Q1011
LTCW 201050Z 20012KT 140V240 CAVOK 28/03 Q1020
LTDA 201050Z 22018KT CAVOK 32/18 Q1009 NOSIG
LTFA 201050Z 26012KT CAVOK 27/18 Q1013 RMK RWY17 25013KT
LTFC 201120Z VRB10KT 9999 FEW035 27/05 Q1014
LTFD 201050Z 10017KT 9999 SCT035 BKN100 22/14 Q1016
LTFE 201120Z 26013KT 9999 FEW035 29/16 Q1012 NOSIG
LTFG 201050Z 24007KT 200V280 9999 FEW035 30/20 Q1011
LTFH 201050Z 34007KT 9999 BKN030 BKN090 20/16 Q1012 NOSIG
LTFJ 201120Z 02013KT 9999 -SHRA SCT012 BKN030 BKN070 17/16 Q1016 NOSIG
LTFK 201050Z 02008KT 9999 -SHRA BKN025 BKN070 15/12 Q1019
LTFM 201050Z 35025KT 9999 -SHRA SCT012 BKN020 17/15 Q1018 NOSIG RMK RWY17L 35023KT RWY34L 34024KT RWY16R 35021KT
LUKK 201130Z 34012KT 9999 SCT040CB 14/03 Q1020 R26/D NOSIG
LWOH 201200Z 34009KT 300V030 9999 FEW050 17/03 Q1021
LWSK 201130Z 36013KT 9999 FEW070 19/00 Q1022 NOSIG
LXGB 201150Z 10005KT 9999 FEW014 BKN020 OVC030 24/21 Q1015 NOSIG RMK WHT WHT
LYBE 201130Z 34009KT 300V010 CAVOK 17/03 Q1026 NOSIG
LYBT 201130Z VRB05KT CAVOK 18/03 Q1026 NOSIG
LYKV 201130Z 31010KT 270V340 9999 SCT060 18/M00 Q1025 NOSIG
LYNI 201130Z 32012KT 280V350 CAVOK 18/M01 Q1024 NOSIG
LYPG 201130Z 01011KT 320V080 CAVOK 23/M01 Q1019 NOSIG
LYTV 201130Z 19005KT 140V260 CAVOK 24/02 Q1019 NOSIG
LYUZ 201130Z VRB05KT 9999 FEW022 12/M01 Q1026
LYVR 201130Z 34009KT 9999 SCT040 18/01 Q1025 NOSIG
LZIB 201130Z VRB05KT CAVOK 16/02 Q1027 NOSIG
LZKZ 201130Z 31010KT 9999 FEW048 16/01 Q1025 NOSIG
LZPP 201130Z 35008KT 300V040 9999 SCT045 15/02 Q1027
LZSL 201130Z 36005KT 330V030 9999 BKN050 15/01 Q1026
LZTT 201130Z 34010KT 310V020 9999 BKN060 11/M01 Q1025 NOSIG
LZZI 201130Z VRB01KT 9999 BKN044 13/04 Q1027
MBPV 201200Z 06006KT 7000 -RA FEW006 BKN020 26/24 Q1011
MDCY 201100Z 00000KT 9999 FEW016 BKN080 23/23 Q1010
MDLR 201100Z 00000KT 9999 FEW014CB SCT016 SCT070 23/23 Q1010 CB/NE/E
MDPC 201100Z 16005KT 9999 FEW014CB SCT018 BKN070 27/25 Q1011 CB/NE
MDPP 201100Z 00000KT 9999 FEW017 SCT300 26/24 Q1010
MDSD 201100Z 04004KT 9999 FEW014CB BKN016 SCT070 24/24 Q1011 CB/NE/E
MDST 201100Z 09007KT 9999 FEW012CB SCT014 BKN300 24/23 Q1010 CB/NE/S
MGGT 201200Z 36006KT 9999 SCT014 SCT200 17/16 Q1024 A3024
MGHT 201100Z 00000KT CAVOK 10/10
MGMM 201100Z 00000KT 9999 SCT012 SCT090 23/23 Q1012 A2988
MGPB 201100Z 00000KT 9999 SCT017 SCT080 25/23 Q1010 A2983
MHLC 201200Z 00000KT 9999 FEW024CB SCT070 BKN200 24/22 Q1010 A2983 NOSIG
MHLM 201200Z 24003KT 9999 FEW026 SCT250 24/23 Q1010 A2983 NOSIG
MHRO 201200Z 34002KT 9999 FEW024CB SCT220 23/23 Q1010 A2983 NOSIG
MHSC 201058Z AUTO 14004KT 9999 CLR M M RMK AO2 SLPNO $
MHTG 201200Z 00000KT 8000 4000NW BR FEW004 SCT024 BKN200 16/16 Q1019 A3009 NOSIG
MKJP 201100Z 36003KT 9999 FEW022TCU 28/22 Q1009
MKJS 201100Z 08005KT 9999 FEW024CB 27/22 Q1009
MMAA 201145Z 31003KT 6SM FEW015 SCT100 SCT300 25/23 A2978 RMK SLP081 57011 984 8/172 HZY CB S
MMAN 201045Z 11006KT 3SM HZ BKN010 OVC012 25/23 A2989 RMK 8/5// RTS
MMAS 201145Z 33002KT 5SM FEW022 SCT080 15/14 A3023 RMK SLP090 60005 8/570 -DZE25 LWR VIS 1 QUAD RWY WET
MMBT 201140Z 00000KT 7SM SCT160 BKN200 25/22 A2981 RMK 8/011 RTS
MMCE 201105Z RTD 12011KT 6SM SCT070 28/23 A2986 RMK 8/030 HZY RTS
MMCL 200948Z 03005KT 10SM BKN080 24/24 A2979 RMK 8/040
MMCM 201148Z 00000KT 7SM SCT020 SCT100 24/23 A2986 RMK SLP113 5//// 957 8/520
MMCP 201147Z 00000KT 7SM SKC 23/22 A2989 RMK SLP109 5//// 901 HZY
MMCS 201154Z 23006KT 10SM FEW050 SCT100 BKN250 23/13 A2996 RMK SLP017 5//// 969 8/532 RTS
MMCZ 201148Z 06004KT 8SM SCT015TCU 26/23 A2987 RMK SLP119 52011 902 8/200
MMDO 201002Z RTD 13003KT 7SM SCT040 14/14 A3016 RMK 8/400 RTS
MMEP 201052Z 00000KT 12SM OVC090 19/18 A2996 RMK 5//// 9// 8/07/ RTS
MMGL 201146Z 00000KT 10SM SCT010 BKN090 17/15 A3014 RMK SLP100 54000 908 8/570
MMIO 201140Z 00000KT 10SM SKC 20/12 A3011
MMLO 201147Z 36004KT 8SM SCT030 BKN080 BKN220 14/14 A3025 RMK SLP120 52005 904 8/538
MMMD 201145Z 05004KT 7SM SKC 25/23 A2991 RMK SLP130 53004 900 HZY
MMML 200747Z 32009KT 10SM SKC 23/05 A2972
MMMM 201046Z 00000KT 6SM SCT025 BKN090 BKN200 15/15 A3019 RMK 8/538 RWY DAMP HZY
MMMT 201145Z 00000KT 10SM SCT020TCU 29/25 A2984 RMK SLP183 904 8/200
MMMX 201151Z 06005KT 5SM FEW020 BKN200 14/12 A3030 NOSIG RMK SLP130 52004 904 8/506 HZY
MMMZ 201108Z 09005KT 6SM -RA SCT015 BKN022 OVC070 24/24 A2982 RMK 8/47/ RAB55
MMOX 201145Z 00000KT 7SM SKC 13/11 A3019 RMK SLP123 5//// 952 CI
MMPB 200959Z RTD 00000KT 8SM BKN010 OVC090 12/11 A3030 RMK 8/53/ HZY RTS
MMPN 201147Z 00000KT 3SM BR OVC030 17/16 A3014 RMK 6//// 8/5// RTS
MMPR 201146Z 00000KT 10SM SCT025 BKN070 BKN250 24/23 A2979 RMK SLP085 57008 910 8/572 TCU NW
MMPS 201057Z RTD 07006KT 12SM SKC 24/18 A2980 RMK AC RTS
MMQT 201102Z 08005KT 0SM FG HZ VV000 13/13 A3027 RMK 8//// VAR COND
MMRX 201146Z 16006KT 6SM SKC 26/23 A2987 RMK SLP111 5//// 911 HZY
MMTC 200941Z 00000KT 8SM BKN100 27/15 A2996 RMK 8/070 RTS
MMTM 201152Z E15005KT 4SM SCT012 27/25 A2988 RMK SLP117 5//// 907 8/200 MDT CU WET RWY BR HZY
MMTO 201146Z 00000KT 4SM SCT200 10/08 A3033 RMK SLP112 57005 967 8/002 HZY
MMTP 200604Z RTD 00000KT 10SM FEW200 23/23 A2983 RMK SLP128 52003 963 8/002
MMUN 201146Z 08005KT 7SM FEW015TCU 27/21 A2989 RMK SLP121 51012 951 8/200
MMVA 200940Z 00000KT 3SM BR SKC 24/24 A2985 RMK CI RTS
MMVR 201148Z 00000KT 5SM SCT008TCU SCT250 26/24 A2988 RMK SLP093 5//// 900 8/201 BR HZ
MMZC 201148Z 00000KT 10SM SCT060 15/13 A3024 RMK 8/700 RA
MNMG 201100Z 27006KT 9000 -DZ FEW020CB BKN021 23/23 Q1010 A2984 CB S/W NOSIG
MPBO 201100Z VRB02KT 9999 FEW018 SCT090 Q1012
MPDA 201200Z VRB02KT 9999 1000SW FEW030 22/22 Q1010
MPMG 201200Z 14005KT 110V170 9999 SCT017TCU SCT090 27/23 Q1011 NOSIG
MPPA 201200Z 19007KT 9999 FEW018 SCT080 26/24 Q1010
MPSM 201200Z 31003KT(E) 9999 FEW025 SCT090 24/23 Q1011
MPTO 201200Z 04004KT 9999 SCT008 BKN015CB 25/24 Q1011 RERA RWY WET TEMPO 7000 RA
MRLB 201200Z 24003KT 9999 FEW045 SCT200 23/22 A2985 NOSIG
MROC 201100Z 09005KT CAVOK 18/17 A2998 NOSIG
MSLP 201150Z 07005KT 9999 8000SW -TSRA FEW007 SCT020 FEW37CB BKN037 23/22 Q1011 A2987 NOSIG RMK CB S SW W
MSSS 201150Z 19005KT 5000 OVC007 23/21 Q1015 A2997
MTCH 201055Z VRB02KT 9999 FEW025 SCT060 24/20 Q1010 A2984
MTPP 201051Z 11010KT 9000 FEW016 BKN050 25/23 Q1009 A2981
MUCC 201050Z 10007KT 9000 SCT018 27/24 Q1011
MUCF 201059Z AUTO 05006KT 23/22 Q1011
MUCL 201050Z 07012KT 9000 FEW020 28/24 Q1010
MUCM 201051Z 03003KT 7000 VCFG FEW012 22/22 Q1010
MUCU 201051Z 34005KT 9000 FEW020 SCT070 24/21 Q1010
MUGM 201156Z 36008KT 9999 FEW030 BKN250 26/23 A2985 RMK SLP108 T02610233 10261 20244 53012
MUHA 201055Z 07002KT 9000 FEW030 23/22 Q1012
MUHG 201050Z VRB02KT 5000 BR FEW020 22/21 Q1010
MUSC 201052Z 14002KT 9000 FEW020 23/21 Q1012
MUVR 201050Z 08006KT 9000 FEW020 24/23 Q1012
MWCR 201100Z 00000KT 9999 -SHRA BKN016 28/26 Q1009
MYGF 201200Z 09013KT 9999 VCSH SCT018TCU SCT040 26/22 A3000
MYNN 201100Z 09010KT 9999 VCSH BKN020 BKN200 27/22 A2994
MZBZ 201100Z 27002KT 9999 BKN017 25//24 A2985 Q1010 NOSIG
NCAT 201100Z AUTO 14002KT //// ////// ///// Q1007
NCMG 201100Z AUTO 10003KT //// ////// 17/16 Q1009
NCMH 201100Z AUTO 13003KT //// ////// 26/24 Q1011
NCMK 201100Z AUTO 17002KT //// ////// 21/16 Q1012
NCMR 201100Z AUTO 12001KT //// ////// ///// Q1013
NCPY 201100Z AUTO 01004KT //// ////// 26/24 Q1010
NCRG 201130Z AUTO 15001KT 9999 FEW070/// 17/15 Q1014
NCRK 201100Z AUTO 11003KT //// ////// 27/24 Q1010
NFFN 201200Z 12008KT 9999 SCT028 SCT048 23/18 Q1015 NOSIG
NFNA 201200Z 13003KT 9999 -SHRA BKN020 BKN048 22/19 Q1017
NFTF 201100Z 12005KT 9999 FEW017 20/16 Q1018
NFTV 201200Z 00000KT 9999 FEW020 16/16 Q1015
NGFU 201200Z 13006KT 9999 SCT018TCU BKN110 28/25 Q1011
NGTA 201200Z 17003KT 9999 FEW020 29/22 Q1010
NIUE 201100Z AUTO 26002KT //// // ///////// 15/15 Q1015
NSTU 201150Z VRB06KT 10SM SCT023 26/19 A2990 RMK SLP125 8/100 T02560194 10265 20256 56007
NTAA 201130Z 11003KT 9999 FEW023 23/20 Q1012 NOSIG
NVSC 200900Z 11008KT 9999 BKN020 OVC045 27/23 Q1014
NVSG 200900Z AUTO 16005KT //// // NCD 25/22 Q1016
NVSL 200900Z AUTO 11013KT //// // NCD 25/22 Q1015
NVSS 200900Z 12008KT 9999 SCT020 BKN040 26/21 Q1015
NVVA 200900Z 13008KT 9999 SCT025 22/17 Q1019
NVVV 201100Z 07003KT 9999 FEW025 20/19 Q1018
NVVW 200900Z 00000KT 9999 FEW025 SCT300 19/17 Q1017
NWWW 201130Z AUTO VRB02KT CAVOK 19/14 Q1021 NOSIG
NZAA 201130Z AUTO 16002KT 9999 FEW060/// OVC070/// 12/09 Q1034 NOSIG
NZCH 201130Z AUTO 05004KT 3600 BR BKN009/// 06/06 Q1037 TEMPO FM1200 0500 FG
NZCM 201155Z 00000KT 9999 FEW040 M30/M34 A2911 RMK A02A SLP864 T12991342
NZWN 201130Z AUTO 18008KT 9999 NCD 10/06 Q1037 NOSIG
OAHR 201155Z 04018G30KT CAVOK 34/01 Q1015 RMK A2998 BLU
OAIX 201059Z 36010KT 9999 FEW150 32/M07 A2995 RMK AO2A SLP049 $
OAJL 201055Z VRB02KT 9999 FEW170 33/15 A2981 RMK AO2A SLP051 T03310149
OAKB 201150Z 10006KT CAVOK 29/M08 Q1018 NOSIG RMK A3006 BLU BLU
OAKN 201056Z 28006KT 9999 CLR 35/M09 A2985 RMK AO2A SLP054 WND DATA ESTMD Q1011 PA3361 DA6429 T03541088
OAMS 201150Z 30008KT 9000 SKC 35/02 Q1012 BLU+BLU+
OBBI 201200Z 34012KT CAVOK 37/21 Q1005 NOSIG
OEAB 201100Z 03012KT 9999 FEW020 32/M01 Q1022 NOSIG
OEAH 201100Z 01016KT CAVOK 43/01 Q1005 NOSIG
OEAO 201100Z 12006KT CAVOK 43/M04 Q1014
OEAR 201100Z 07006KT 7000 NSC 46/06 Q1005
OEBA 201100Z 07013KT CAVOK 32/06 Q1019 NOSIG
OEBH 201100Z 08009KT CAVOK 36/04 Q1014 NOSIG
OEDF 201100Z 02007KT CAVOK 41/09 Q1005 NOSIG
OEDM 201100Z 05010KT CAVOK 39/M02 Q1013
OEDR 201100Z 34010KT CAVOK 42/04 Q1003 NOSIG
OEGN 201100Z 27008KT 9999 FEW030 37/27 Q1004 NOSIG
OEGS 201100Z 12008KT CAVOK 40/12 Q1012
OEGT 201100Z 29002KT CAVOK 39/06 Q1010 NOSIG
OEHL 201100Z 18006KT CAVOK 39/02 Q1016 NOSIG
OEJB 201100Z AUTO 02006KT 340V070 CAVOK 41/08 Q1005 NOSIG
OEJN 201100Z 24009KT 8000 NSC 38/23 Q1004 NOSIG
OEKJ 201100Z 05017KT CAVOK 41/00 Q1012
OEKM 201100Z 04010KT CAVOK 31/M01 Q1021 NOSIG
OEMA 201100Z 13006KT CAVOK 41/M02 Q1012 NOSIG
OENG 201100Z 09008KT CAVOK 35/05 Q1013 NOSIG
OEPA 201100Z 36014KT CAVOK 42/08 Q1008 NOSIG
OERF 201100Z 32006KT CAVOK 43/02 Q1010
OERK 201100Z 05008KT CAVOK 40/05 Q1011 NOSIG
OERR 201100Z 25007KT CAVOK 43/08 Q1010 NOSIG
OESH 201100Z 03009KT 9999 FEW040 39/06 Q1008 NOSIG
OESK 201100Z 18011KT CAVOK 42/00 Q1014
OETB 201100Z 25006KT CAVOK 41/02 Q1012 NOSIG
OETF 201100Z 09017KT 9000 FEW030 34/M03 Q1018 NOSIG
OETR 201100Z 24014KT CAVOK 40/07 Q1014
OEWD 201100Z 06020KT CAVOK 40/09 Q1009 NOSIG
OEWJ 201100Z 30014KT 8000 NSC 32/28 Q1005 NOSIG
OEYN 201100Z 21014KT 7000 NSC 43/17 Q1002 NOSIG
OIAA 201100Z 03008KT CAVOK 40/11 Q1003
OIAG 201100Z 18014KT CAVOK 42/06 Q1004
OIAH 201100Z 00000KT CAVOK 41/M04 Q1005
OIAI 201100Z 24006KT CAVOK 42/03 Q1005
OIAM 201100Z 21008KT CAVOK 37/14 Q1003
OIAW 201130Z 15004KT CAVOK 44/00 Q1003
OIBA 201100Z 28010KT CAVOK 36/26 Q1004
OIBB 201050Z 23012KT 8000 NSC 36/21 Q1004 A2966
OIBJ 201100Z 21017KT 6000 NSC 35/22 Q1010
OIBK 201100Z 22014KT 4000 HZ NSC 36/27 Q1004
OIBL 201100Z 24008KT 5000 HZ FEW030 36/28 Q1004
OIBP 201130Z 23006KT 3000 HZ NSC 37/28 Q1004 A2965
OIBQ 201100Z 22008KT CAVOK 36/24 Q1004
OIBS 201100Z 24010KT CAVOK 36/27 Q1005
OIBV 201100Z 21008KT 4000 HZ NSC 35/28 Q1004
OICC 201130Z 27010KT CAVOK 36/M27 Q1016 A3003 NOSIG
OICI 201130Z 33006KT CAVOK 36/04 Q1018 A3007
OICJ 201100Z 00000KT CAVOK 34/M02 Q1019 A3010
OICK 201130Z 26010KT CAVOK 36/M03 Q1014
OICM 201100Z 31016G26KT CAVOK 45/09 Q1004
OICS 201100Z 23010KT CAVOK 36/M05 Q1016 A3003
OIFK 201100Z 25004KT CAVOK 38/M01 Q1011 A2987
OIFM 201130Z 13006KT CAVOK 35/M05 Q1018 A3007
OIFS 201050Z 20006KT CAVOK 33/M07 Q1022
OIGG 201130Z 03006KT 9999 FEW020TCU SCT025 27/20 Q1011
OIGK 201050Z 24008KT CAVOK 28/M11 Q1019 A3011
OIHH 201100Z 27006KT CAVOK 33/M08 Q1019 A3010
OIHM 201100Z 34002KT CAVOK 34/M09 Q1020 A3014
OIIE 201130Z 12006KT CAVOK 36/00 Q1013
OIII 201130Z 20008KT CAVOK 35/00 Q1015 A2998
OIIK 201052Z 14004KT CAVOK 35/02 Q1015
OIIP 201100Z 06006KT 8000 NSC 34/02 Q1014 A2997
OIIS 201100Z 21004KT CAVOK 37/03 Q1015
OIKB 201130Z 19010KT 6000 NSC 36/27 Q1003 A2964
OIKK 201050Z 04004KT CAVOK 33/M11 Q1018 A3009
OIKO 201100Z 22006KT CAVOK 39/16 Q1004
OIKQ 201100Z 24014KT 6000 NSC 35/27 Q1003
OIMB 201100Z 06014KT CAVOK 33/M07 Q1018
OIMC 201050Z 00000KT CAVOK 37/10 Q1013
OIMD 201050Z 09006KT CAVOK 36/02 Q1012
OIMM 201130Z 14010KT CAVOK 33/04 Q1017 A3003
OIMN 201100Z 00000KT CAVOK 30/11 Q1017
OIMQ 201100Z 21006KT 9999 FEW035 36/01 Q1016
OIMT 201100Z AUTO 26004KT //// // ////// 41/03 Q1010
OINB 201100Z 36008KT CAVOK 28/21 Q1011
OINE 201100Z 20008KT CAVOK 34/19 Q1011
OING 201100Z 12004KT 7000 SCT030 31/20 Q1013
OINK 201100Z 33004KT CAVOK 34/19 Q1009 A2982
OINN 201100Z 03004KT 8000 SCT025 26/22 Q1012
OINR 201100Z 02004KT 6000 BKN010 FEW020CB 25/22 Q1011
OINZ 201100Z 36006KT 2500 HZ FEW017 FEW023TCU SCT027 BKN080 28/22 Q1012
OISA 201100Z 20004KT CAVOK 33/M09 Q1020 A3012
OISF 201100Z 23012KT CAVOK 38/02 Q1009 A2981
OISL 201100Z 27006KT CAVOK 41/11 Q1008
OISR 201100Z 23008KT CAVOK 42/11 Q1006 A2973
OISS 201130Z 02004KT CAVOK 36/M07 Q1015 A3000
OISY 201100Z 22010KT CAVOK 33/M05 Q1021
OITL 201051Z 06016KT 9999 VCFG FEW010 SCT160 22/15 Q1016
OITM 201100Z 23004KT CAVOK 32/M07 Q1016
OITP 201100Z 12004KT 9999 SCT040 26/18 Q1012
OITR 201050Z 13008KT CAVOK 28/03 Q1015 NOSIG
OITT 201130Z 30006KT CAVOK 30/M06 Q1017 A3005
OITU 201050Z 05010KT CAVOK 28/03 Q1014
OITZ 201100Z 19016KT CAVOK 32/07 Q1017
OIYY 201050Z 12004KT CAVOK 38/M01 Q1015
OIZB 201100Z 05016KT CAVOK 41/00 Q1005
OIZC 201050Z 21012KT CAVOK 35/21 Q1003 A2964
OIZH 201130Z 05012KT CAVOK 34/M03 Q1014 A2996
OIZI 201100Z 26008KT CAVOK 41/06 Q1006
OIZJ 201100Z 20008KT CAVOK 33/27 Q1004
OJAI 201100Z 27013KT 7000 NSC 34/12 Q1014 NOSIG
OJAM 201200Z 26010KT 5000 HZ NSC 33/14 Q1014 NOSIG
OJAQ 201200Z 36016KT 6000 NSC 37/20 Q1008 NOSIG
OKAS 201055Z 33016G25KT 9999 CLR 44/M05 A2970 RMK AO2A SLP048 WND DATA ESTMD T04371051
OKBK 201200Z 33012KT CAVOK 43/01 Q1003 NOSIG
OLBA 201200Z 28006KT 240V310 6000 FEW026 30/22 Q1013 NOSIG
OMAA 201100Z 29015KT CAVOK 40/16 Q1004 NOSIG
OMAD 201100Z 30013KT 250V330 CAVOK 40/15 Q1005 NOSIG
OMAL 201100Z 26006KT CAVOK 40/14 Q1007 NOSIG
OMDB 201100Z 32014KT 300V360 CAVOK 37/24 Q1005 NOSIG
OMDW 201100Z 30016KT 7000 NSC 39/18 Q1005 NOSIG
OMFJ 201100Z 10008KT 7000 NSC 34/26 Q1004 RMK A2967
OMRK 201100Z 31011KT CAVOK 39/18 Q1005 A2969 SPECI
OMSJ 201100Z 29014KT CAVOK 37/25 Q1005 NOSIG
OODQ 201050Z AUTO 10014KT 9999 SCT028 BKN230 29/23 Q1007 NOSIG RMK RH69? 0
OOMS 201050Z CAVOK 35/19 Q1004 NOSIG
OOSA 201050Z 19013KT 9999 FEW025 29/25 Q1007 NOSIG
OOSH 201050Z AUTO 08011KT //// 37/21 Q1003 RMK 1000
OPGD 201025Z 18008KT 4000 HZ NSC 33/23 QNH1006 METAR OPIS 201025Z 36007KT 8000 FEW040 29/20 Q1011
OPIS 201055Z 13004KT 8000 FEW040 29/18 Q1011
OPKC 201100Z 26013KT 6000 NSC 38/15 Q1003 NOSIG
OPLA 201055Z 03010KT 5000 FU SCT040 SCT100 31/22 Q1008 TEMPO 33015G35KT 2000 TSRA FEW030CB RMK A29.78
OPMT 201200Z 05010KT 5000 HZ SCT040 34/23 Q1006 NOSIG
OPNH 201100Z 09004KT 6000 NSC 42/19 Q1004 NOSIG
OPPS 201100Z 05008KT 6000 HZ FEW035 FEW100 30/20 Q1010
OPSK 201200Z 05006KT 4000 HZ NSC 30/24 Q.1002 NOSIG
OPST 201200Z 27004KT 5000 FU FEW040 SCT100 29/23 Q1009 NOSIG RH71
ORBD 201155Z 30008KT 9000 FUHZ SKC 42/06 A2972 RMK WND DATA ALSTG ESTMD
ORBI 201200Z 26010KT CAVOK 43/09 Q1006 NOSIG
ORER 201100Z 28007KT CAVOK 39/02 Q1011 NOSIG
ORMM 201100Z 30010KT CAVOK 43/00 Q1004 NOSIG
ORNI 201100Z 35009KT CAVOK 43/03 Q1007 NOSIG
ORSU 201200Z 31008KT CAVOK 38/05 Q1014
OSDI 201200Z 17010KT CAVOK 39/06 Q1011
OSKL 201200Z 15010KT 9999 FEW026 38/10 Q1008
OSLK 201200Z 24006KT 9999 SCT030 30/22 Q1011
OTBD 201130Z 10010KT 7000 NSC 37/28 Q1004 NOSIG
OTBH 200954Z 25004KT 9000 HZ CLR 41/18 A2970 RMK AO2A SLP058 WND DATA ESTMD ALSTG/SLP ESTMD $
OTHH 201100Z 10008KT 6000 NSC 37/24 Q1004 NOSIG
PAAD 201155Z AUTO 10005KT 10SM OVC014 00/M01 A2969 RMK AO2 T00001006 10006 21006
PAAK 201156Z AUTO 29017G23KT 10SM FEW025 09/07 A2987 RMK AO2 SLP115 6//// 7//// T00890072 10100 20089 51018 PNO $
PAAQ 201153Z AUTO 06003KT 10SM -RA OVC085 09/06 A2937 RMK AO2 SLP946 P0000 60000 70001 T00940061 10111 20094 58033 TSNO
PABA 201152Z 08007KT 10SM 02/00 A2972 RMK AO2 SLP049 T00170000 10017 20011 58002 FZRANO $
PABE 201153Z 33007KT 10SM CLR 03/01 A2952 RMK AO2 SLP999 T00280011 10056 20028 58001
PABI 201153Z AUTO 00000KT 10SM OVC100 06/05 A2947 RMK AO2 SLP989 T00560050 10061 20044 58025 TSNO
PABL 201156Z AUTO 00000KT 10SM CLR M02/M03 A2961 RMK AO2 SLP030 T10221028 10017 21022 57007 FZRANO
PABR 201153Z 10006KT 10SM SCT022 M01/M02 A2962 RMK AO2 SLP032 70001 T10061022 10011 21017 58001
PABT 201153Z 35005KT 10SM BKN200 M01/M03 A2960 RMK AO2 SLP035 70002 I6001 T10111028 10000 21017 58012
PABV 201156Z AUTO 00000KT 10SM OVC085 09/09 A2937 RMK AO2 RAE27 SLP953 P0000 60000 70001 T00940089 10111 20089 58036
PACD 201153Z AUTO 31013KT 10SM FEW016 BKN027 OVC050 10/08 A2954 RMK AO2 RAB37E46 SLP004 P0000 60001 7//// T01000083 10100 20083 58002 TSNO $
PACM 201156Z AUTO 26006KT 10SM BKN038 05/03 A2964 RMK AO2 SLP033 T00500028 10061 20044 58002
PACV 201153Z 07007KT 5SM RA SCT035 OVC047 10/07 A2940 RMK AO2 SLP957 P0008 60030 70054 T01000072 10117 20100 58051
PACZ 201155Z AUTO 35024KT 220V040 10SM BKN023 06/02 A2958 RMK AO2 PK WND 02028/1055 SHRAB1057E1118DZB1059E1106 SLP020 T00580018 10064 20051 57002
PADK 201156Z AUTO 21004KT 10SM CLR 06/04 A2995 RMK AO2 SLP141 70010 T00610044 10094 20061 53023
PADL 201156Z AUTO 32004KT 10SM SCT035 OVC048 07/07 A2941 RMK AO2 SLP965 60000 70007 T00720067 10083 20072 57008
PADM 201102Z AUTO 05005KT 10SM CLR M02/M02 A2958 RMK AO2 SLP023 T10171022 FZRANO
PADQ 201153Z 30011KT 3SM -RA BR BKN024 OVC035 10/08 A2925 RMK AO2 RAB49 SLP905 P0000 60006 70021 T01000078 10106 20100 58016 $
PADU 201156Z AUTO 32006KT 10SM BKN028 11/07 A2966 RMK AO2 SLP047 70002 T01060067 10111 20100 51007
PAED 201126Z AUTO 36007KT 10SM -RA BKN038 OVC046 10/09 A2938 RMK AO2 DZE07RAB07 SLP945 $
PAEG 201153Z AUTO 00000KT 10SM SCT095 01/00 A2954 RMK AO2 SLP009 70004 T00060000 10072 20006 58019 TSNO
PAEH 201155Z AUTO 33020KT 290V100 10SM SCT024 08/03 A2949 RMK AO2 SLP989 T00830032 10087 20076 58005
PAEI 201056Z 00000KT 10SM OVC090 05/04 A2948
PAEN 201153Z AUTO 03008KT 10SM -RA OVC060 10/10 A2935 RMK AO2 SLP941 P0002 60010 70015 T01000100 10106 20100 57031 TSNO
PAFA 201153Z 01007KT 10SM -RA SCT060 OVC080 07/04 A2946 RMK AO2 SLP979 P0000 60001 70012 T00720044 10072 20061 58024
PAFB 201058Z AUTO 00000KT 10SM OVC090 06/05 A2949
PAFE 201156Z AUTO 10007KT 8SM -RA OVC070 12/11 A2992 RMK AO2 SLP145 P0007 60015 70016 T01170106 10122 20117 58018
PAFM 201156Z AUTO 01007KT 10SM CLR 00/M03 A2963 RMK AO2 SLP048 T00001028 10033 20000 58008 FZRANO
PAFR 201058Z AUTO 00000KT 8SM -RA FEW047 BKN060 OVC075 09/08 A2937
PAGA 201056Z AUTO 34006KT 10SM FEW120 01/M01 A2956
PAGH 201156Z AUTO 09004KT 10SM CLR M02/M03 A2962 RMK AO2 SLP035 6//// 7//// T10171028 10033 21017 56007 FZRANO PNO $
PAGK 201053Z AUTO 15007KT 10SM -RA OVC048 08/07 A2953 RMK AO2 SLP002 P0002 T00780067 TSNO
PAGL 201056Z AUTO 33006KT 10SM FEW060 03/00 A2961 RMK AO2 SLP023 T00280000
PAGM 201156Z AUTO 17004KT 10SM BKN120 04/01 A2969 RMK AO2 SLP062 T00390006 10044 20022 58007
PAGN 201156Z AUTO 09005KT 6SM RA BR OVC045 11/11 A2986 RMK AO2 SLP101 P0011 60017 70020 T01110106 10111 20106 58019
PAGS 201156Z AUTO 13012KT 10SM -RA FEW038 OVC060 12/10 A2981 RMK AO2 SLP094 P0001 60006 70006 T01170100 10122 20111 58024
PAGY 201153Z AUTO 20013G21KT 10SM -RA OVC060 13/09 A2977 RMK AO2 SLP080 P0002 60002 70002 T01280089 10139 20122 56021 TSNO
PAHN 201154Z AUTO 10010G17KT 10SM OVC011 12/09 A2977 RMK AO2 SLP085 T01220094 10128 20122 58021 TSNO
PAHO 201153Z AUTO 31003KT 10SM -RA OVC055 09/08 A2932 RMK AO2 SLP928 P0002 60009 70015 T00890083 10100 20089 56033 TSNO $
PAHP 201156Z AUTO 35012KT 10SM FEW029 OVC035 07/03 A2962 RMK AO2 SLP068 6//// 7//// T00670028 10067 20044 50001 PNO $
PAHX 200956Z AUTO 36006KT 10SM OVC042 05/02 A2952 RMK AO2 SLP997 T00500022 PWINO $
PAIG 201156Z AUTO 29006KT 7SM -RA SCT005 BKN008 OVC046 09/ A2936 RMK AO2 RAB1057E15B52 SLP953 P0000 60000 70011 T0094 10106 20089 56010 $
PAII 201156Z AUTO 30005KT 10SM FEW004 BKN017 OVC044 09/09 A2941 RMK AO2 RAE1058B29E54 SLP955 P0000 60000 70014 T00940089 10094 20083 58009 TSNO
PAIK 201156Z AUTO 00000KT 10SM CLR M01/M02 A2964 RMK AO2 SLP038 T10111017 10033 21022 58005 FZRANO
PAIL 201153Z AUTO 36003KT 10SM -RA SCT045 OVC055 10/09 A2937 RMK AO2 SLP948 P0000 60008 70032 T01000094 10106 20100 58015 TSNO
PAIM 201055Z AUTO 18004KT 10SM BKN140 01/M01 A2955
PAIN 201156Z AUTO 00000KT 10SM FEW044 06/05 A2942 RMK AO2 SLP981 60000 70011 T00560050 10078 20056 58024
PAIW 201156Z AUTO 26009KT 10SM SCT023 05/01 A2963 RMK AO2 SLP035 T00500011 10050 20028 58009
PAJC 201157Z AUTO 25013G20KT 10SM OVC090 11/07 A2944 RMK AO2 SLP970 60001 70002 T01060067 10111 20106 58007
PAJN 201153Z 11017G23KT 9SM -RA FEW005 BKN065 OVC080 11/10 A2983 RMK AO2 SLP102 P0001 60003 70014 T01110100 10117 20111 58021
PAKH 201156Z AUTO 32015G20KT BKN065 BKN100 11/08 A2930 RMK AO2 SLP924 70009 T01060078 10111 20089 58017 PWINO $
PAKI 201156Z AUTO 35009KT 10SM CLR 05/04 A2955 RMK AO2 SLP008 60001 70005 T00500044 10067 20050 50001
PAKK 201156Z AUTO 01006KT 10SM CLR 03/M02 A2953 RMK AO2 SLP014 T00281017 10050 20022 58004
PAKN 201154Z 28003KT 2SM R12/5000VP6000FT BR FEW012 BKN045 BKN060 09/08 A2935 RMK AO2 SLP938 60001 70032 T00890083 10094 20083 58012
PAKP 201156Z AUTO 00000KT 10SM CLR M07/M08 A2956 RMK AO2 SLP053 T10671078 11044 21072 58010 FZRANO
PAKT 201053Z AUTO 16004KT 10SM BKN007 BKN019 OVC046 12/12 A3002
PAKU 201145Z 12007KT 10SM R06/P6000FT BKN016 01/M00 A2968
PAKV 201053Z AUTO 22004KT 10SM CLR 00/M02 A2958 RMK SLP018 T00001017 TSNO VIA AUTODIAL
PAKW 201053Z AUTO 14006KT 10SM -RA FEW042 FEW055 OVC070 13/11 A2993 RMK SLP134 P0000 T01280106 TSNO VIA AUTODIAL
PALG 201156Z AUTO VRB03KT 10SM BKN041 04/03 A2948 RMK AO2 SLP988 T00440028 10050 20044 58006
PALH 201153Z 03004KT 10SM -RA OVC065 10/08 A2937 RMK AO2 SLP946 P0001 60008 70019 T01000083 10111 20100 58036
PALP 201145Z 11008KT 10SM FEW024 01/M01 A2969
PALU 201155Z AUTO 23011KT 10SM -SHRA BKN023 BKN090 04/01 A2954 RMK AO2 SHRAB1058E1126B1147DZB1100E1114 SLP002 P0000 60003 70005 T00430007 10052 20043 57004
PAMB 201156Z AUTO 28003KT 10SM BKN038 BKN095 07/06 A2942 RMK AO2 SLP968 70003 T00670061 10083 20061 58008 $
PAMC 201153Z AUTO 01003KT 10SM -RA OVC014 04/04 A2945 RMK AO2 SLP977 P0000 60007 70009 T00440044 10050 20044 58018 TSNO $
PAMD 201151Z AUTO 09034G42KT 2 1/2SM RA BR BKN009 BKN017 OVC027 12/11 A2916 RMK AO2 PK WND 09044/1111 CIG 007V013 PRESFR SLP866 P0013 6//// 7//// T01170111 10117 20111 58087
PAMH 201156Z AUTO 00000KT 10SM BKN014 BKN020 OVC048 05/03 A2946 RMK AO2 SLP977 60001 70002 T00500028 10056 20044 58020
PAMK 201156Z AUTO 00000KT 10SM BKN031 BKN043 06/02 A2955 RMK AO2 SLP008 T00560022 10083 20022 58004
PAMM 201156Z AUTO 15004KT 10SM -RA FEW012 SCT028 OVC043 13/12 A3002 RMK AO2 SLP157 P0000 60000 70006 T01280117 10128 20117 58006 $
PAMO 201102Z AUTO 35006KT 10SM CLR 01/01 A2958 RMK AO2 SLP022 T00110006 FZRANO
PAMR 201153Z 36004KT 10SM -RA OVC060 10/07 A2936 RMK AO2 SLP943 6//// 7//// T01000072 10111 20100 58036 PNO
PAMY 201156Z AUTO 01011KT 10SM SCT033 BKN041 08/03 A2961 RMK AO2 SLP029 60000 T00780028 10089 20072 50000
PANA 201156Z AUTO 35005KT 10SM CLR 02/01 RMK AO2 SLPNO T00170006 10056 20017 FZRANO $
PANC 201153Z 02006KT 10SM -RA OVC065 11/08 A2936 RMK AO2 SLP943 P0000 60011 70016 T01060083 10122 20106 58036
PANI 201156Z AUTO 00000KT 10SM OVC046 05/03 A2947 RMK AO2 SLP983 60001 70002 T00500033 10056 20039 58008
PANN 201153Z AUTO 00000KT 10SM BKN020 OVC110 06/04 A2944 RMK AO2 SLP977 70014 T00610044 10078 20061 58023 TSNO
PANT 200953Z AUTO 13006KT 9SM OVC002 13/13 A3003 RMK SLP169 T01280128 TSNO VIA AUTODIAL
PANW 201156Z AUTO 35008KT 10SM OVC003 06/06 A2941 RMK AO2 RAE02 SLP974 P0000 60009 70033 T00610061 10089 20061 58011
PAOH 201156Z AUTO 08006KT 6SM -RA BR FEW027 SCT034 OVC065 12/11 A2980 RMK AO2 SLP090 P0005 60008 70009 T01170106 10117 20106 58027
PAOM 201153Z AUTO 32008KT 10SM CLR M01/M02 A2960 RMK AO2 SLP025 T10061017 10039 21017 58005 TSNO
PAOO 201156Z AUTO 32010KT 10SM BKN046 06/04 A2959 RMK AO2 SLP031 T00560039 10061 20028 56001
PAOR 201153Z 00000KT 10SM BKN095 05/03 A2948 RMK AO2 SLP987 T00500028 10072 20044 58021
PAOT 201153Z AUTO 11007KT 10SM SCT027 03/01 A2958 RMK AO2 SLP018 60001 70002 T00280011 10056 20022 58007 TSNO
PAOU 201156Z AUTO 35012KT 10SM FEW017 BKN031 OVC050 11/07 A2952 RMK AO2 SLP996 6//// 7//// T01060067 10106 20094 50002 PNO $
PAPB 201153Z AUTO 32005KT 10SM FEW026 BKN045 OVC090 08/07 A2967 RMK AO2 RAB04E16 SLP035 P0002 60002 70026 T00830067 10089 20078 53004 TSNO
PAPG 201156Z AUTO 00000KT 10SM -RA BKN016 BKN023 OVC060 11/11 A2996 RMK AO2 SLP149 P0006 60010 70018 T01110106 10117 20111 58012
PAPH 201156Z AUTO 32010KT 10SM SCT022 BKN028 OVC034 09/07 A2946 RMK AO2 SLP975 60002 70002 T00940067 10100 20083 58001
PAPM 201156Z AUTO 35011KT 10SM OVC034 06/04 A2949 RMK AO2 SLP988 T00610044 10078 20061 58004
PAPO 201156Z AUTO 24008KT 10SM FEW022 SCT034 05/01 A2955 RMK AO2 RAB07E34 SLP006 P0000 60001 70003 T00500011 10056 20050 58005
PAQH 201156Z AUTO 32007KT 8SM BKN049 04/04 A2951 RMK AO2 SLP993 T00390039 10067 20033 50000
PAQT 201153Z AUTO 09006KT 10SM CLR M02/M03 A2968 RMK AO2 SLP052 T10171028 10022 21017 58002 TSNO
PARS 201156Z AUTO 31006KT 10SM CLR 04/01 A2951 RMK AO2 SLP998 T00390011 10072 20022 58004 $
PARY 201156Z AUTO VRB03KT 10SM FEW027 OVC085 03/01 A2951 RMK AO2 SLP003 T00280006 10033 20017 58015
PASA 201156Z AUTO 18003KT 10SM CLR M02/M03 A2970 RMK AO2 SLP056 T10221028 10039 21022 58006 FZRANO
PASC 201153Z 10006KT 10SM OVC017 01/M01 A2968 RMK AO2 SLP050 T00111011 10022 20006 58001
PASD 201056Z AUTO 29005KT 10SM FEW045 BKN075 BKN110 09/08 A2952 RMK AO2 SLP997 T00940078 $
PASH 201156Z AUTO 26011KT 10SM SCT027 04/02 A2961 RMK AO2 SLP028 60004 70019 T00390017 10044 20028 56009
PASI 201153Z 13011KT 10SM -RA OVC048 12/10 A2977 RMK AO2 SLP082 P0001 60019 70047 T01220100 10128 20122 58039
PASK 201156Z AUTO 07004KT 10SM CLR 02/01 A2962 RMK AO2 SLP028 7//// T00170011 10044 20011 58006 FZRANO
PASL 201156Z AUTO 00000KT 10SM -RA SCT015 OVC024 06/05 A2946 RMK AO2 SLP973 P0002 60009 70012 T00560050 10056 20050 58013
PASM 201102Z AUTO 02004KT 10SM CLR 01/M01 A2958 RMK AO2 SLP025 T00111006 FZRANO
PASN 201053Z AUTO 33006KT 7SM -RA FEW023 BKN050 OVC090 08/06 A2966 RMK RAB48 SLP045 P0000 T00780061 TSNO VIA AUTODIAL
PASO 201153Z AUTO 36005KT 10SM -RA SCT010 BKN015 OVC046 10/09 A2932 RMK AO2 SLP927 P0002 60013 70017 T01000089 10106 20094 58031 TSNO
PASV 201155Z AUTO 00000KT 10SM -DZ FEW050 OVC085 06/06 A2937 RMK AO2 DZB1036E1112B1138RAB1112E1138 SLP950 P0000 60002 70007 T00640062 10076 20064 57015
PASX 201156Z AUTO 06005KT 10SM -RA FEW043 10/09 A2937 RMK AO2 SLP954 P0002 60009 70012 T01000089 10106 20094 56031
PASY 201155Z 23010KT 7SM BKN110 09/07 A2997 RMK AO2A SLP151 T00870075 10091 20081 56001 RVRNO $
PATA 201152Z AUTO 31003KT 10SM OVC100 02/01 A2952 RMK AO2 SLP000 70004 T00170006 10039 20006 58021 TSNO
PATC 201155Z AUTO 29010KT 10SM BKN021 04/01 A2961 RMK AO2 SLP028 70002 T00410005 10042 20031 57010
PATG 201156Z AUTO 34005KT 10SM CLR 06/04 A2945 RMK AO2 SLP065 T00560039 10078 20056 58006
PATK 201153Z AUTO 35003KT 10SM -RA BKN060 OVC075 09/08 A2941 RMK AO2 SLP962 P0001 60008 70010 T00940078 10111 20094 58030 TSNO
PATL 201155Z AUTO VRB05KT 10SM -RA OVC007 04/03 A2946 RMK AO2 RAB0955 SLP983 P0001 60009 70002 T00360034 10043 20034 57017
PATO 201153Z AUTO 13009G19KT 110V170 4SM RA BR FEW022 BKN029 OVC036 10/08 A2936 RMK AO2 SLP943 P0015 60075 70096 T01000083 10117 20094 56036 TSNO
PATQ 201156Z AUTO 13008KT 10SM CLR M02/M02 A2960 RMK AO2 SLP030 T10171022 11011 21017 57005 FZRANO TSNO
PAUN 201156Z AUTO 11006KT 10SM CLR 01/M02 A2955 RMK AO2 SLP011 6//// 7//// T00061022 10056 20006 58006 FZRANO PNO $
PAUT 201155Z AUTO 31016G20KT 10SM BKN021 OVC026 09/09 A2961 RMK AO2 70005 T00930090 10097 20093
PAVA 201156Z AUTO 35010KT 10SM FEW036 04/02 A2961 RMK AO2 SLP111 6//// 7//// T00390017 10061 20033 58001 PNO $
PAVC 201156Z AUTO 25014G20KT 4SM -RA BR FEW008 BKN013 OVC028 09/09 A2954 RMK AO2 RAB04 SLP008 P0001 60004 70007 T00940089 10100 20089 58006
PAVD 201156Z AUTO 00000KT 7SM -RA OVC004 08/07 A2943 RMK AO2 SLP988 P0003 60021 70035 T00780072 10089 20072 58034
PAWD 201153Z AUTO VRB04KT 10SM -RA OVC050 09/08 A2930 RMK AO2 SLP923 P0003 60025 70058 T00940083 10111 20094 58047 TSNO
PAWG 201056Z AUTO VRB04KT 10SM -RA FEW034 BKN060 OVC085 12/11 A2999
PAWI 201053Z AUTO 13008KT 10SM CLR 02/M02 A2956 RMK SLP011 T00171017 TSNO VIA AUTODIAL
PAWM 201156Z AUTO 35009KT 10SM CLR 01/M02 A2959 RMK AO2 SLP024 T00111017 10050 20011 58003 FZRANO
PAWN 201156Z AUTO 02004KT 10SM CLR M01/M02 A2961 RMK AO2 SLP037 T10111022 10028 21011 58007 FZRANO
PAWS 201156Z AUTO 01004KT 10SM FEW060 BKN075 OVC085 09/07 A2939 RMK AO2 RAB17E53 SLP954 P0000 60001 70001 T00890072 10117 20089 58032
PAYA 201153Z AUTO 08011KT 4SM RA BR BKN013 BKN021 OVC030 11/10 A2958 RMK AO2 SLP016 P0014 60038 70051 T01110100 10122 20111 58052 TSNO
PFCL 201156Z AUTO 35009KT 7SM -RA OVC011 08/08 A2942 RMK AO2 RAB54 SLP954 P0000 60007 70023 T00830083 10094 20078 58003 TSNO $
PFEL 201156Z AUTO 34008KT 10SM CLR 03/M02 A2946 RMK AO2 SLP978 T00281017 10050 20028 58004
PFKT 201156Z AUTO 09005KT 10SM CLR 01/M01 A2965 RMK AO2 SLP038 T00061011 10033 21006 58003 FZRANO
PFKW 201156Z AUTO 32005KT 10SM OVC036 02/02 A2951 RMK AO2 SLP991 7//// T00220017 10061 20022 58001 FZRANO
PFNO 201156Z AUTO 06006KT 3SM BR CLR M01/M02 A2961 RMK AO2 SLP029 70001 T10111017 10039 21011 56006 FZRANO
PFWS 201156Z AUTO 28005KT 9SM -RA SCT022 OVC038 09/09 A2940 RMK AO2 RAB36 SLP961 P0001 60001 70014 T00890089 10094 20089 56006
PFYU 201156Z AUTO 04004KT 10SM OVC031 03/02 A2961 RMK AO2 SLP052 T00280022 10044 20011 58015
PGRO 200950Z 28005KT 7SM FEW015 FEW120 25/23 A2976 RMK LAST
PGSN 201154Z 00000KT 10SM OVC037 27/25 A2979 RMK AO2 SLP109 70005 T02720250 10289 20267 51014
PGUA 201056Z 00000KT 10SM SCT016 BKN060 BKN190 26/24 A2981 RMK AO2A SLP085 T02570241 $
PGUM 201154Z 00000KT 10SM CLR 26/23 A2982 RMK AO2 SLP090 70006 T02610233 10278 20256 51012
PGWT 200950Z 00000KT 7SM SCT015 BKN100 26/26 A2975
PHBK 201156Z AUTO 00000KT 10SM CLR 26/22 A2994 RMK AO2 SLP140 T02610217 10289 20261 58005
PHHI 201156Z AUTO 00000KT 10SM FEW033 SCT043 BKN055 24/20 A2995 RMK AO2 SLP128 T02370202 10251 20236 57010
PHJR 201153Z AUTO 06004KT 10SM CLR 27/21 A2995 RMK AO2 SLP148 T02670206 10272 20261 58008 TSNO
PHKO 201153Z AUTO 05015G22KT 10SM FEW047 26/18 A2988 RMK AO2 SLP119 T02560183 10272 20250 TSNO $
PHLI 201153Z AUTO 06010KT 10SM SCT016 BKN065 27/24 A2997 RMK AO2 SLP145 60006 70007 T02720239 10283 20267 58008 TSNO
PHMK 201154Z AUTO 05013G18KT 10SM CLR 27/21 A2995 RMK AO2 SLP141 T02670206 10267 20267 58011 TSNO
PHNG 201157Z 08011G18KT 10SM SCT025 SCT037 BKN060 27/22 A2992 RMK AO2 SLP126 70003 T02720217 10278 20272 58010
PHNL 201153Z 05007KT 10SM FEW023 SCT050 24/20 A2994 RMK AO2 SLP137 60000 T02390200 10244 20239 58007
PHNY 201156Z AUTO 06013KT 10SM FEW045 23/23 A2998 RMK AO2 SLP131 6//// 7//// T02330228 10239 20217
PHOG 201154Z AUTO 05008KT 10SM CLR 26/21 A2993 RMK AO2 SLP140 T02610211 10267 20261 58009 TSNO
PHSF 201058Z AUTO 14004KT 10SM CLR 11/10 A3026 RMK AO2 SLP124 T01130101 $
PHTO 201153Z AUTO 26004KT 10SM CLR 24/20 A2993 RMK AO2 SLP132 60004 70012 T02390200 10256 20239 58018 TSNO
PKMJ 201055Z 24008KT 15SM FEW015 SCT050 BKN300 29/25 A2981 RMK LAST
PKMR 201151Z 27004KT 15SM FEW015 SCT050 BKN300 29/23 A2981 RMK SLP095 70022 8/801 T02920233 10304 20288 50022
PKWA 201140Z AUTO 25009KT 10SM CLR 29/25 A2980 RMK AO2 T02930248
PLCH 201000Z 13003KT 9999 VCSH SCT019 BKN043 26/25 Q1010
PMDY 201156Z AUTO 00000KT 10SM BKN021 BKN029 OVC034 27/23 A2982 RMK AO2 SLP096 7//// T02670233 10267 20261 58001
PPIT 201156Z AUTO 35006KT 10SM CLR 04/04 A2952 RMK AO2 SLP996 T00390039 10072 20039 57002 TSNO
PPNU 201155Z AUTO 10SM OVC017 02/00 A2969 RMK AO1
PTKK 201150Z VRB05KT 15SM FEW014 SCT280 28/26 A2984 RMK SLP106 8/101 T02810257 10312 20281 52014
PTRO 201150Z 00000KT 15SM SCT016 BKN120 BKN300 26/24 A2987
PTTP 201153Z 16003KT 15SM FEW018 BKN130 OVC300 26/24 A2986 RMK SLP110 8/171 T02640236 10308 20264 52005
PTYA 201150Z VRB06KT 12SM FEW016 BKN120 OVC300 29/25 A2987 RMK RAB10E38 SLP117 60000 70005 8/121 T02860247 10300 20286 52017
PWAK 201058Z AUTO 04009KT 9999 FEW024 28/23 A2978 RMK AO2 SLP091 T02840234 $
RCFN 201130Z 30003KT 260V350 9999 VCSH SCT020 BKN030 25/24 Q1002 NOSIG RMK A2961
RCKH 201130Z 35012G22KT 300V020 9999 FEW016 26/20 Q1002 NOSIG RMK 34014G25KT/R09 A2959
RCMQ 201130Z 01026G36KT 9999 FEW010 SCT020 BKN050 22/19 Q1005 NOSIG RMK A2968
RCNN 201130Z 02013G23KT 9999 FEW012 SCT060 24/20 Q1002 NOSIG RMK A2960
RCSS 201130Z 22004KT 170V270 3500 -RA FEW006 BKN018 BKN030 23/21 Q1005 NOSIG RMK A2970
RCTP 201136Z 03018KT 7000 -RA FEW012 SCT025 BKN060 25/18 Q1006 WS ALL RWY NOSIG RMK A2973
RJAA 201130Z 10005KT 9999 FEW025 BKN180 20/15 Q1019 BECMG FM1300 05006KT RMK 1CU025 7AC180 A3010
RJAF 200700Z 33009KT 9999 FEW070 BKN/// 22/06 Q1019
RJAH 201100Z 09003KT 9999 FEW030 BKN180 BKN/// 20/16 Q1019
RJAW 200900Z 02008KT 9999 SCT010 SCT100 29/25 Q1012 RMK 3CU010 4AC100 A2990
RJBB 201130Z 32015KT 9999 -RA FEW008 SCT040 BKN080 20/17 Q1019 BECMG 02008KT
RJBD 201000Z 04003KT 340V090 9999 -RA FEW008 BKN060 BKN070 21/19 Q1016
RJBE 201100Z 27004KT 230V290 9999 -RA FEW020 SCT040 BKN070 20/16 Q1018
RJBT 200900Z 24003KT 210V280 9999 FEW025 SCT100 BKN150 20/16 Q1018
RJCB 201100Z 30008KT 9999 FEW040 12/07 Q1018
RJCC 201130Z 31004KT 260V360 9999 FEW030 11/08 Q1020 RMK 1CU030 A3012
RJCH 201100Z 02005KT 340V040 9999 FEW030 SCT/// 12/09 Q1020
RJCK 201100Z 08003KT 9999 FEW030 SCT050 12/09 Q1018
RJCM 201100Z 26003KT 210V320 9999 FEW010 SCT060 BKN070 12/08 Q1017
RJCN 200900Z VRB02KT 9999 -SHRA FEW015 SCT030 12/10 Q1015
RJCO 201100Z 29006KT 9999 FEW012 BKN040 15/08 Q1020
RJCT 200704Z 30009G21KT 9999 FEW030 SCT060 18/05 Q1014 RMK 1CU030 4CU060 A2995
RJCW 200900Z 31017KT 9999 -SHRA FEW020 SCT030 BKN040 14/09 Q1016
RJDC 201100Z 09015KT 9999 -RA FEW025 SCT040 BKN060 19/15 Q1017
RJDK 201100Z AUTO 06011KT 330V130 9999 OVC038 19/16 Q1014
RJDT 201100Z 11018KT 9999 -RA FEW010 SCT015 OVC090 19/17 Q1016
RJEB 200700Z 28009KT 9999 FEW020 SCT040 BKN070 15/09 Q1013
RJEC 201100Z 13004KT 9999 FEW010 BKN050 09/08 Q1019
RJFE 201000Z 01016KT 9999 -RA FEW015 SCT050 BKN060 19/17 Q1013
RJFF 201130Z 11006KT 070V160 9999 -RA FEW015 SCT040 BKN050 17/13 Q1017 TEMPO TL1200 4000 SHRA BR RMK 1CU015 4CU040 7SC050 A3003
RJFG 200900Z 05008G21KT 360V120 6000 FEW003 SCT004 BKN005 23/21 Q1011
RJFK 201100Z 09012G23KT 060V130 9999 FEW010 SCT040 BKN120 22/18 Q1013
RJFM 201100Z 03018KT 9999 FEW010 BKN025 23/17 Q1015
RJFO 201100Z 05011KT 9999 -RA FEW025 SCT050 BKN070 19/16 Q1018
RJFR 201138Z 12008KT 050V210 7000 SHRA FEW008 SCT020 BKN030 19/16 Q1018 RMK 1ST008 3CU020 6CU030 A3008
RJFS 201118Z 04017G27KT 9999 FEW010 BKN050 18/16 Q1015 RMK 1CU010 7SC050 A2998
RJFT 201149Z 05015G26KT 9999 FEW020 BKN140 20/15 Q1014 RMK 1CU020 7AC140 A2996
RJFU 201100Z 05013KT 9999 -RA FEW015 BKN050 BKN140 21/17 Q1013
RJGG 201130Z 26008KT 9999 -RA FEW020 OVC110 23/20 Q1017 BECMG TL1230 22007KT
RJKA 201000Z 11020KT 8000 FEW018 BKN020 29/27 Q1005
RJKI 201100Z AUTO 11016G29KT 080V140 9999 BKN019 BKN025 29/26 Q1005
RJNG 201019Z VRB02KT 9999 -SHRA FEW030 BKN100 BKN150 24/17 Q1016 RMK 2CU030 5AC100 7AC150 A3003
RJNK 201100Z 04012KT 9999 FEW050 SCT150 BKN180 21/14 Q1018
RJNS 201100Z 35003KT 320V020 9999 FEW020 OVC120 21/19 Q1018
RJNT 201100Z 20005KT 9999 FEW020 BKN/// 19/16 Q1019
RJNW 201000Z 04003KT 9999 FEW020 BKN180 BKN/// 18/13 Q1019
RJNY 201117Z 02004KT 9999 FEW020 BKN140 25/17 Q1018 RMK 1CU020 7AS140 A3006
RJOA 201100Z 12003KT 080V170 6000 -SHRA BCFG FEW000 SCT030 BKN070 15/13 Q1019
RJOB 201130Z 17005KT 140V200 2500 RA BR BCFG FEW000 BKN090 16/16 Q1019 RMK 1ST000 5AC090 A3011 FG ALL QUAD
RJOC 201100Z 16006KT 9999 -RA FEW015 SCT080 BKN130 20/15 Q1018
RJOF 200950Z 08010KT 9999 -RA FEW012 SCT045 BKN100 17/14 Q1017 RMK 1CU012 4SC045 7AS100 A3005
RJOH 201100Z 12009KT 9999 -RA FEW050 BKN080 OVC120 22/15 Q1018
RJOI 201055Z 06008KT 9999 -SHRA FEW020 OVC080 18/14 A3009 RMK SLP189 P0002 T01830144
RJOK 201100Z 35012KT 9999 -RA FEW010 BKN050 19/15 Q1017
RJOM 201121Z 35006KT 9999 RA FEW003 BKN080 OVC100 18/16 Q1018 RMK 1ST003 6AC080 8AS100 A3007
RJOO 201100Z 31007KT 9999 -RA FEW025 SCT045 BKN100 19/18 Q1019 RMK 1CU025 3SC045 5AC100 A3009
RJOR 201100Z VRB01KT 9999 -RA FEW030 SCT080 BKN120 20/17 Q1018
RJOS 201100Z 31006KT 280V340 9999 -SHRA FEW015 BKN030 BKN080 18/17 Q1019
RJOT 201100Z 19003KT 6000 RA BR FEW001 SCT030 BKN070 16/16 Q1020
RJOW 201000Z 14009KT 9999 -SHRA FEW020 SCT080 BKN100 19/17 Q1016
RJOY 201000Z 25003KT 200V270 8000 -RA FEW015 SCT040 BKN060 20/18 Q1018
RJOZ 201147Z 12012KT 080V140 9999 SHRA FEW010 BKN030 BKN060 17/15 Q1018 RMK 1CU010 6CU030 7SC060 A3008
RJSA 201100Z 20004KT 9999 FEW020 SCT040 BKN/// 12/09 Q1020
RJSC 201000Z 28003KT 260V340 CAVOK 18/12 Q1020
RJSD 201100Z AUTO VRB02KT 9999 NSC 17/14 Q1020
RJSF 201100Z 35008KT 9999 FEW030 BKN180 BKN/// 17/13 Q1020
RJSI 201000Z VRB05KT 9999 FEW030 BKN/// 17/09 Q1019
RJSK 201100Z 09002KT 9999 FEW060 BKN/// 15/10 Q1020
RJSM 201100Z VRB01KT 9999 FEW040 BKN/// 16/10 Q1020
RJSN 201100Z 02004KT 9999 FEW030 SCT040 BKN190 22/13 Q1019
RJSR 201000Z 00000KT 9999 FEW040 BKN/// 15/11 Q1020
RJSS 201100Z 03004KT 320V060 9999 FEW040 SCT180 BKN/// 19/12 Q1019
RJSY 201100Z VRB02KT 9999 FEW030 BKN/// 16/13 Q1020
RJTF 200700Z 02005KT 350V090 9999 FEW030 SCT060 27/13 Q1016
RJTI 200700Z 13008KT 9999 FEW030 SCT060 26/18 Q1016
RJTO 200800Z 08006KT 9999 -SHRA FEW020 SCT100 BKN150 23/18 Q1016
RJTT 201130Z 11009KT 9999 FEW050 BKN060 23/17 Q1019 NOSIG RMK 1SC050 7SC060 A3009
RJTY 201056Z AUTO 19004KT 10SM FEW060 SCT170 23/17 A3014 RMK AO2 SLP206 T02260168 FZRANO $
RKJB 201100Z 07005KT 9999 FEW030 BKN130 21/16 Q1016 NOSIG
RKJK 201156Z AUTO 05006KT 10SM BKN150 20/16 A3002 RMK AO2 SLP170 T02010161 10231 20199 52015 $
RKNY 201100Z 26004KT 9999 BKN040 OVC120 18/16 Q1019 NOSIG
RKPC 201100Z 09017KT 9999 -RA BKN030 OVC100 24/17 Q1014 NOSIG
RKPK 201100Z 02013KT 9999 FEW040 FEW150 BKN200 23/13 Q1017
RKSG 201056Z 00000KT 6SM HZ FEW150 21/13 A3007 RMK AO2A SLP185 T02070129 $
RKSI 201130Z 06006KT CAVOK 20/13 Q1018 NOSIG
RKSM 201100Z 15002KT 9999 BKN150 BKN180 21/14 A3008
RKSO 201058Z 00000KT 7SM SCT055 BKN200 20/15 A3007 RMK AO2A SLP186 T01990154 PNO $
RKSS 201100Z 06004KT CAVOK 20/13 Q1018 NOSIG
RKTN 201100Z 09005KT 9999 FEW040 BKN180 21/14 Q1018
RKTU 201113Z 09001KT CAVOK 19/14 Q1018 RMK CIG150
ROAH 201130Z 11026G40KT 9999 -SHRA FEW019 SCT025 BKN035 28/25 Q0994 RMK 1CU019 3CU025 5CU035 A2937
RODN 201156Z AUTO 10028G39KT 10SM -DZ OVC021 28/24 A2941 RMK AO2 PK WND 10044/44 DZB55 SLP964 60011 T02810236 10293 20271 55000
ROIG 201100Z 34019G33KT 310V010 9999 VCSH BKN010 27/27 Q0993
ROMD 201100Z AUTO 13016G27KT 090V170 8000 FEW018 SCT023 BKN029 29/26 Q1004
ROMY 201100Z 01021G35KT 5000 -SHRA BR BKN012 BKN020 27/25 Q0990
RORK 201100Z AUTO 13032KT 5000 BR FEW024 SCT026 BKN170 29/26 Q1004
RORS 201000Z 36026G36KT 9000 -SHRA FEW015 BKN021 28/26 Q0991
RORY 201100Z AUTO 11021KT 8000 FEW021 SCT029 BKN038 28/25 Q0999
ROTM 201122Z AUTO 11023G40KT 6SM HZ SCT022 BKN029 OVC038 28/ A2942 RMK AO2 PK WND 10040/1114 T0278 PWINO $
ROYN 201100Z AUTO 34037KT 2900 -RA BR OVC010 25/24 Q0998
RPLB 201100Z VRB01KT 9999 SCT018 OVC080 26/25 Q1007 RERA RMK A2974
RPLC 201100Z 17004KT 4000 -RA SCT020 OVC100 26/24 Q1007 RMK A2974
RPLI 201100Z 16006KT 8000 VCSH SCT018 SCT090 BKN280 25/24 Q1005 NOSIG RMK A2968 VCSH SE-S
RPLL 201100Z 22006KT 9999 -RA SCT020 OVC090 27/24 Q1007 NOSIG RMK A2974
RPMD 201100Z 20004KT 9999 FEW016 BKN290 29/25 Q1010 RMK A2983
RPMR 200900Z 16008KT 9999 FEW018 BKN250 29/23 Q1011 NOSIG RMK A2985
RPMZ 201000Z 07004KT 9999 FEW017 BKN090 28/25 Q1010 RMK A2983
RPVD 200900Z 00000KT 9999 FEW015 BKN220 33/24 Q1007 RMK A2974
RPVM 201100Z 24007KT 7000 FEW020 BKN300 28/24 Q1010 RMK A2983
RPVP 201100Z 03004KT 6000 FEW019 SCT250 28/23 Q1010 RMK A2983
SAAC 201000Z 18005KT CAVOK 08/02 Q1020
SAAG 201100Z 00000KT CAVOK 03/00 Q1020
SAAJ 201100Z 29007KT CAVOK 04/M01 Q1019
SAAP 201000Z 00000KT CAVOK 05/00 Q1021
SAAR 201100Z 27002KT CAVOK 01/M02 Q1021
SAAV 201100Z 24003KT CAVOK 04/01 Q1022
SABE 201100Z 28004KT 230V330 CAVOK 11/M03 Q1019 NOSIG
SACO 201100Z 33005KT CAVOK 05/M05 Q1022 NOSIG
SADF 201000Z 00000KT CAVOK 05/M04 Q1019
SADM 201100Z 34004KT CAVOK 06/M04 Q1020
SADO 201100Z 27002KT CAVOK 06/M02 Q1020
SADP 201100Z 35003KT CAVOK 006/M02 Q1020
SAEZ 201100Z 31005KT CAVOK 06/M02 Q1019 NOSIG
SAME 201100Z 25004KT CAVOK 05/M08 Q1022
SAMM 201100Z 27003KT CAVOK M00/M15 Q1021
SAMR 201100Z 23004KT CAVOK 02/M13 Q1022
SANC 201000Z 36004KT 9999 BKN050 13/M07 Q1020
SANE 201000Z 23003KT CAVOK 10/M02 Q1022
SANL 201100Z 27004KT CAVOK 05/M02 Q1022
SANT 201000Z 00000KT 8000 NSC 11/M02 Q1022
SANU 201000Z 00000KT CAVOK 03/M02 Q1021
SAOC 201100Z 27005KT CAVOK 03/M03 Q1021 RMK ESTIMATED WIND
SAOU 201000Z 11010KT CAVOK 10/M12 Q1021 RMK ESTIMATED WIND
SARC 201100Z 18012KT CAVOK 13/07 Q1017
SARE 201100Z 20006KT CAVOK 12/07 Q1017
SARF 201000Z 20017KT CAVOK 14/10 Q1014
SARI 201000Z 18008KT 4000 TSBR FEW005 FEW050CB OVC100 18/18 Q1010
SARL 201000Z 18015KT CAVOK 11/05 Q1017
SARP 201100Z 14012KT CAVOK 15/12 Q1015
SASA 201100Z 36004KT 9000 NSC 10/M02 Q1021
SASJ 201000Z 20008KT 9999 SCT030 BKN100 12/M01 Q1021
SATR 201000Z 16010KT CAVOK 10/02 Q1018
SAVC 201100Z 29032G46KT 240V330 CAVOK 09/M05 Q1003
SAVE 201000Z 29004KT 9999 FEW035 05/M02 Q1015
SAVT 201100Z 29012KT CAVOK 07/M04 Q1010
SAVV 201100Z 32012KT CAVOK 05/M02 Q1013
SAVY 201100Z 27013KT CAVOK 05/M02 Q1010
SAWC 201100Z 27028G36KT 9999 VCSH SCT025 04/M01 Q0993
SAWE 201100Z 27025G35KT CAVOK 04/00 Q0978
SAWG 201000Z 27018KT CAVOK 04/M03 Q0987
SAWH 201100Z 23022KT 9999 VCSH BKN025 BKN060 03/M00 Q0976
SAZB 201100Z 27010KT CAVOK 07/M03 Q1016
SAZG 201100Z 27007KT CAVOK 03/M06 Q1020
SAZM 201000Z 32011KT CAVOK 00/M04 Q1014
SAZN 201100Z 29007KT CAVOK 04/M05 Q1019
SAZR 201100Z 27005KT CAVOK 03/M05 Q1020
SAZS 201100Z 29017KT 9999 FEW021 SCT026 03/M01 Q1019
SAZT 201100Z 20002KT CAVOK 01/M02 Q1016
SAZY 200000Z 25031KT 9999 FEW035 03/M02 Q1016
SBAF 201100Z 27003KT 4000 BR FEW030 25/22 Q1012
SBAN 201100Z VRB02KT 8000 NSC 27/04 Q1020
SBAR 201200Z 12010KT 9999 SCT018 BKN070 26/21 Q1017
SBAT 201100Z 00000KT CAVOK 28/23 Q1012
SBAU 200900Z 29006KT CAVOK 25/11 Q1010
SBAX 201100Z 09003KT CAVOK 25/07 Q1019
SBBE 201200Z 06012KT 9000 BKN025 28/23 Q1013
SBBH 201100Z 11012KT CAVOK 24/13 Q1019
SBBI 201100Z 35006KT 5000 BR SCT040 15/14 Q1013
SBBQ 201100Z 03005KT CAVOK 22/13 Q1021
SBBR 201200Z 02004KT 340V060 CAVOK 29/12 Q1019
SBBU 201100Z 04004KT CAVOK 23/21 Q1013
SBBV 201200Z 09008KT 9999 FEW035 29/23 Q1011
SBBW 201100Z 00000KT 6000 FEW030 27/15 Q1014
SBCA 201100Z 06004KT 5000 BR NSC 20/18 Q1012
SBCB 201200Z 06020KT 9999 SCT030 26/20 Q1011
SBCC 201100Z 36004KT 2000 FU NSC 23/19 Q1014
SBCF 201200Z 07005KT 8000 NSC 25/13 Q1019
SBCG 201100Z 34011KT 6000 FEW045 BKN100 29/19 Q1012
SBCH 201100Z 12006KT 8000 BKN015 FEW030TCU OVC100 17/17 Q1014
SBCI 201100Z 34003KT CAVOK 30/21 Q1012
SBCJ 201200Z 36004KT 9999 FEW020 25/20 Q1016
SBCO 201100Z 21007KT 9999 OVC015 15/12 Q1016
SBCP 201100Z 05012KT CAVOK 26/18 Q1014
SBCR 201200Z 31004KT 2000 FU NSC 31/19 Q1009
SBCT 201100Z 01006KT 6000 NSC 18/17 Q1014
SBCX 201100Z 21006KT 4000 BR BKN003 ///// Q1015
SBCY 201200Z 31010KT 7000 NSC 33/17 Q1012
SBDN 201100Z 15006KT 7000 NSC 21/19 Q1012 RETS
SBEG 201200Z 02008KT CAVOK 29/21 Q1011
SBEK 201100Z 00000KT 5000 BR NSC 26/24 Q1011
SBES 201000Z 04013G23KT 010V070 9999 FEW020 23/21 Q1011
SBFI 201200Z 17005KT 5000 BR BKN004 FEW040TCU OVC070 19/19 Q1011
SBFL 201200Z 16011KT 9999 BKN035 20/12 Q1013
SBFN 201200Z 12014KT 9999 FEW020 30/20 Q1016
SBFS 201100Z 07022KT CAVOK 24/// Q1013
SBFZ 201200Z 12014KT 090V160 9999 BKN027 28/19 Q1015
SBGL 201200Z 26007KT 220V030 4000 HZ NSC 29/20 Q1012
SBGO 201200Z 35004KT 4000 HZ NSC 27/09 Q1017
SBGR 201200Z 08004KT 4000 BR NSC 21/19 Q1017
SBGW 201100Z 30004KT 250V360 3000 BR NSC 22/18 Q1016
SBHT 201100Z 08007KT 9999 SCT013 26/23 Q1012
SBIH 201100Z 00000KT CAVOK 28/25 Q1011
SBIL 201000Z 26005KT 9999 FEW025 23/21 Q1017
SBIP 201100Z 04007KT 9999 FEW030 OVC040 26/19 Q1018
SBIZ 201100Z 08003KT 9999 FEW025 28/21 Q1013
SBJP 201200Z 14009KT 9999 BKN018 BKN070 27/20 Q1016
SBJR 201000Z 31004KT 6000 NSC 24/22 Q1010
SBJU 201100Z 15010KT CAVOK 26/14 Q1019
SBJV 201100Z 05003KT 3000 BR BKN004 OVC100 20/20 Q1009
SBKG 201100Z 11010KT 9999 SCT030 23/18 Q1018
SBKP 201100Z 10008KT 5000 HZ NSC 23/17 Q1014
SBLB 200900Z AUTO 02033KT 9999 NCD 24/21 Q1015 W24/S5
SBLO 201200Z 00000KT 6000 NSC 22/20 Q1013
SBLS 201100Z 14010KT 7000 NSC 23/13 Q1019
SBMA 201200Z 03007KT CAVOK 30/23 Q1013
SBME 201100Z 04014KT CAVOK 25/20 Q1012
SBMG 201100Z 36008KT 8000 VCTS SCT020 FEW030CB BKN100 22/18 Q1011
SBMK 201000Z 08005KT CAVOK 23/14 Q1017
SBML 200800Z 27004KT CAVOK 26/17 Q1011
SBMN 201200Z 07008KT CAVOK 29/23 Q1011
SBMO 201200Z 22002KT 9999 SCT014 BKN017 24/22 Q1018
SBMQ 201200Z 02008KT 9999 FEW020 SCT080 30/25 Q1012
SBMT 201100Z 08006KT 9000 NSC 21/18 Q1016
SBNF 201135Z 18008KT 8000 -RA BKN008 BKN025 FEW028TCU BKN090 21/20 Q1012
SBNM 201100Z AUTO 19006KT 3400 BR NSC 14/12 Q1015
SBNT 201200Z 11014KT 9999 FEW030 29/18 Q1016
SBPA 201100Z 20010KT 9000 BKN017 OVC030 15/11 Q1016
SBPB 201115Z 09010KT CAVOK 29/23 Q1012
SBPC 201100Z /////KT CAVOK 18/13 Q1020
SBPG 201100Z 21002KT 8000 NSC 18/16 Q1013
SBPJ 201100Z 00000KT 8000 NSC 28/21 Q1012
SBPK 201100Z 21012KT 9999 SCT045 13/04 Q1018
SBPL 201200Z 14015KT 9999 FEW030 26/15 Q1018
SBPP 201125Z 18010KT 1800 BR BKN004 20/19 Q1012
SBPR 201100Z 09012KT CAVOK 25/14 Q1020
SBPS 201200Z 03007KT 330V060 9999 BKN022 26/20 Q1018
SBPV 201200Z 22001KT 9000 NSC 28/24 Q1011
SBRB 201200Z 34002KT 9000 NSC 27/24 Q1011
SBRF 201200Z 14008KT 9999 SCT018 BKN040 26/21 Q1016
SBRJ 201100Z 08002KT 6000 FEW015 26/23 Q1011
SBRP 201100Z 00000KT 4000 HZ NSC 22/14 Q1014
SBSC 201100Z 17010KT 6000 NSC 24/21 Q1012
SBSG 201200Z 16016KT 9999 SCT033 28/16 Q1016
SBSJ 201100Z 03002KT 4000 HZ FEW015 SCT020 22/18 Q1017
SBSL 201200Z 07013KT 9999 BKN020 28/23 Q1013
SBSM 201100Z 12006KT 9999 BKN030 12/08 Q1017
SBSN 201100Z 09015KT CAVOK 29/23 Q1011
SBSP 201200Z 07006KT 8000 NSC 21/17 Q1017
SBSR 201100Z 12002KT 5000 HZ NSC 26/10 Q1013
SBST 201100Z 16004KT 130V190 4000 -DZ BR FEW004 BKN008 OVC033 22/21 Q1013
SBSV 201200Z 10007KT 060V120 9999 SCT020 28/20 Q1018
SBTA 201100Z 23006KT 4500 BR FEW010 21/18 Q1016
SBTC 201100Z 11005KT 9999 FEW020 26/23 Q1018
SBTD 201100Z 00000KT 5000 BR FEW002 SCT100 21/20 Q1011
SBTE 201100Z 13007KT CAVOK 29/20 Q1013
SBTF 201200Z 17003KT CAVOK 27/25 Q1011
SBTT 201200Z 04003KT CAVOK 26/23 Q1011
SBUG 201200Z 16013KT CAVOK 12/05 Q1020
SBUL 201100Z 03005KT CAVOK 29/03 Q1018
SBUR 201100Z 02006KT 4000 FU NSC 27/05 Q1017
SBVH 201100Z 33004KT 8000 NSC 25/21 Q1015
SBVT 201200Z 36014G24KT 9999 FEW030 28/18 Q1017
SBYS 201100Z 06004KT 030V090 6000 NSC 19/17 Q1015
SCAP 201100Z AUTO 20010KT 140V250 9999 -SHRA ////// 05/01 Q1020
SCAR 201100Z 11005KT 9999 OVC020 15/09 Q1017
SCAT 201100Z AUTO 09005KT 9999 // ///003 07/05 Q1020
SCBA 201100Z 30020G30KT 9999 -SHRA SCT030 SCT100 03/M01 Q1008
SCCF 201100Z 10023KT CAVOK 06/M12 Q1026
SCCH 201100Z AUTO 24004KT //// R/////// ///////// 01/01 Q1026
SCCI 201100Z 28024KT 8000 SHRA SCT015 BKN020 03/01 Q0983 NOSIG
SCDA 201100Z 14009KT 9999 BKN028 13/07 Q1018
SCEL 201200Z 03003KT 330V100 CAVOK 06/M00 Q1023 NOSIG
SCFA 201100Z 04003KT CAVOK 10/07 Q1018 NOSIG
SCFT 201100Z AUTO 25009KT 220V280 CAVOK 06/M00 Q1018
SCIC 201100Z AUTO 16003KT 9999 NCD 02/02 Q1025
SCIE 201100Z 20007KT CAVOK 02/01 Q1028
SCIP 201100Z 10005KT 9999 SCT020 SCT050 17/14 Q1027 RESHRA NOSIG
SCON 201100Z AUTO 30005KT 260V320 9999 -SHRA FEW026/// BKN053/// 05/04 Q1023
SCPQ 201100Z AUTO 34004KT 300V010 9999 FEW023 SCT026 BKN034 04/04 Q1023
SCQP 201100Z VRB01KT 9999 OVC040 02/02 Q1028
SCRM 201100Z 04020KT 9999 SCT010 OVC030 M02/M04 Q0970 NOSIG
SCSE 201100Z 11008KT CAVOK 08/05 Q1019
SCSN 201100Z 16006KT CAVOK 06/02 Q1024
SCTB 201100Z 02003KT CAVOK 07/00 Q1023
SCTE 201141Z 36006KT 5000 -SHRA FEW006 BKN012 OVC080 06/05 Q1025 RESHRA NOSIG
SCTN 201100Z AUTO 28009KT 260V320 9999 OVC015 07/06 Q1023
SCVD 201100Z AUTO 00000KT 9000 FEW005 BKN030 OVC039 02/02 Q1028
SCVM 201200Z 12003KT CAVOK 07/04 Q1022
SECA 201100Z 33003KT CAVOK 18/14 Q1017
SECO 201100Z 24001KT 9999 SCT016 BKN090 23/22 Q1010 RMK A2983
SECU 201100Z 00000KT 9999 FEW005 BKN 030 12/11 Q1025
SEGU 201100Z 23006KT 9999 FEW013 SCT100 21/18 Q1012 NOSIG RMK A2989
SEJD 201100Z /////KT 9999 FEW040 BKN300 21/21 Q1011 RMK A2987
SELT 201100Z 29002KT 9999 FEW030 BKN300 03/03 Q1029
SEMC 201100Z 31002KT 9999 FEW040 BKN210 17/17 Q1016 RMK A3000
SEMT 201000Z 21004KT 9999 OVC020 22/20 Q1011
SEQM 201100Z 09002KT 9999 4000S BCFG SCT006 OVC016 12/12 Q1026 TEMPO TL1130 6000 RMK A3030
SERO 201100Z 00000KT 8000 VCSH SCT013 OVC020 21/20 Q1012
SESA 201100Z /////KT 99999 OVC014 20/18 Q1013 RMK A2991
SESG 201100Z 09014KT CAVOK 37/08 Q1014
SESM 201100Z 34005KT 9999 FEW033 BKN120 20/16 Q1015 RMK A2997
SETN 201100Z 20007KT 9999 BKN020 BKN080 24/22 Q1012 A2989
SFAL 201050Z 30011KT 9999 FEW012 BKN030 01/M01 Q0986
SGAS 201200Z 19014KT 170V230 9999 FEW033 18/13 Q1014
SGEN 201200Z 18008KT CAVOK 15/12 Q1015
SGES 201200Z 18010KT 6000 SCT004 OVC012 20/19 Q1011
SKAR 201100Z 00000KT 9999 BKN020 SCT090 18/18 A3005
SKBG 201200Z VRB032KT 9999 FEW010 SCT070 19/19 A3002
SKBO 201130Z 04004KT 0800 R13L/0900D R13R/P1500N FG VV/// 10/10 A3032 BECMG AT1200 2000 BCFG
SKBQ 201200Z 22004KT 200V270 9999 FEW010 SCT070 24/23 A2987 NOSIG
SKCC 201200Z 01003KT 9999 5000NW BCFG SCT017 SCT080 24/23 A2997
SKCG 201200Z 15004KT 9999 FEW015 SCT080 25/25 A2986
SKCL 201200Z 08006KT 2000 RA BKN005 BKN070 18/18 A3008 RETSRA BECMG FM1230 5000 DZ BKN012
SKEJ 201100Z VRB02KT 9999 4000SE BCFG SCT008 SCT200 24/23 A2984
SKIB 201100Z VRB02KT 1500 BR OVC001 21/21 A2998
SKIP 201100Z 00000KT 0200 FG VV003 07/07 A3039 RMK AD BLW MNM MET
SKLC 201100Z 15007KT 9999 VCSH SCT003 SCT015 BKN090 24/23 A2989 RMK VCSH/E
SKLT 201100Z 00000KT 9999 FEW010 SCT080 BKN200 24/24 A2981
SKMD 201100Z 36003KT 6000 VCSH BKN030 19/17 A3013 REDZ RMK VCSH/N
SKMR 201100Z 00000KT 8000 VCFG FEW010 BKN070 24/24 A2987
SKMZ 201100Z 00000KT 0800 FG BKN002 OVC070 23/23 A2987 RMK AD BLW MNM MET
SKNV 201100Z 00000KT 9000 VCSH BKN025 SCT070 24/22 A2989 RMK VCSH/N/SW
SKPC 201100Z 00000KT CAVOK 26/24 A2982
SKPE 201100Z VRB02KT 99999 FEW014 19/18 A3006
SKPS 201100Z 21005KT 9999 SCT022 SCT200 14/13 A3016
SKPV 201100Z VRB02KT 9999 FEW017 26/24 A2980
SKRG 201100Z 24003KT 9999 4500S BCFG BKN008 14/13 A3028 BECMG FM1230 9999 NSW SCT010
SKRH 201100Z 13004KT 9999 OVC020 26/25 A2985
SKSM 201100Z VRB03KT 9999 NSC 26/21 A2986
SKSP 201100Z VRB02KT 9999 SCT017 26/25 A2980
SKUC 201100Z 00000KT 9999 FEW025 24/24 A2987
SKUI 201100Z 00000KT 0800 DG BKN002 OVC070 23/23 A2987 AD BLW MNM MET
SKVP 201100Z 02003KT 8000 FEW008 SCT100 24/23 A2993
SKVV 201100Z VRB02KT 9999 VCSH BKN017 SCT090 23/21 A2989 RMK VCSH/SW
SLAL 201100Z 01005KT 9999 FEW013 10/06 Q1028
SLCA 201100Z 18005KT 9999 NSC 21/11 Q1018
SLCB 201100Z 00000KT 9000 NSC 12/06 Q1024
SLCO 201100Z 00000KT 3000 FU FEW080 25/23 Q1010
SLCP 201100Z 00000KT 0500 FU NSC 25/21 Q1014
SLET 201100Z 27005KT 9000 -TSRA SCT020 FEW030CB BKN070 20/20 Q1013
SLJE 201100Z 00000KT 4000 FU SCT020 27/21 Q1012
SLJO 201100Z 03004KT 7000 NSC 25/22 Q1007
SLLP 201100Z 35003KT 8000 FEW004 02/M02 Q1038
SLMG 201100Z 00000KT 8000 NSC 24/22 Q1009
SLOR 201100Z 00000KT 9999 NSC M02/M07 Q1035
SLPS 201100Z 00000KT 4000 FU FEW020 26/22 Q1009
SLRB 201100Z 36015KT 4000 FU NSC 29/23 Q1011
SLRI 201100Z 00000KT 5000 FU SCT080 26/23 Q1010
SLRQ 201100Z 00000KT 8000 SCT020 26/25 Q1008
SLRY 201100Z 00000KT 5000 FU SCT023 SCT200 23/23 Q1008
SLSA 201100Z 34005KT 5000 FU NSC 25/23 Q1008
SLSI 201100Z 00000KT 4000 FU NSC 26/21 Q1011
SLTJ 201100Z 13005KT 9999 FEW025 SCT200 12/07 Q1021
SLTR 201100Z 02003KT 5000 FU SCT080 SCT200 25/22 Q1009
SLVM 201100Z 18008KT 6000 OVC070 19/07 Q1018
SLVR 201100Z VRB02KT 6000 -TSRA SCT020 FEW030CB OVC070 20/19 Q1013
SLYA 201100Z 18010KT 9999 SCT070 BKN200 15/13 Q1019
SMJP 201200Z 12011KT 9999 FEW010 28/23 Q1013 NOSIG
SMZO 201200Z 09008KT 9999 SCT010 29/24 Q1012 NOSIG
SOCA 201130Z AUTO VRB02KT CAVOK 28/24 Q1012 NOSIG
SPCL 201100Z 21002KT 9000 SCT015 24/22 Q1009 RMK HZ BIRD HAZARD RWY 02/20 PP000
SPHI 201100Z 18011KT 8000 BKN006 OVC010 16/14 Q1014 RMK BR BIRD HAZARD RWY 19/01 PP000
SPHO 201100Z 33004KT 9999 FEW040 BKN090 15/05 Q1026 RMK HZ PP000
SPHY 201100Z 02003KT 7000 -DZ BCFG SCT012 BKN050 08/06 Q1034 RMK BIRD HAZARD RWY03/21 RA NOCHE PP068
SPJC 201200Z 16011KT 8000 OVC009 15/14 Q1015 NOSIG RMK PP000
SPJL 201100Z 30002KT CAVOK 01/M09 Q1036 RMK PP000
SPJR 201130Z 00000KT 9999 SCT020 BKN 047 11/10 Q1027
SPLO 201100Z 14007KT 9999 OVC020 15/13 Q1017 RMK PP000
SPQT 201100Z VRB02KT 9999 FEW010 SCT100 23/22 Q1008 NOSIG RMK BIRD HAZARD PP000
SPQU 201100Z VRB02KT CAVOK 08/M07 Q1025 RMK PP000
SPRU 201100Z 16008KT 5000 BR OVC008 16/14 Q1014 RMK PP000
SPSO 201100Z 12003KT 5000 FU NSC 13/11 Q1014 RMK BIRD HAZARD RWY 22/04 PP000
SPTN 201100Z 35003KT 9999 OVC025 11/09 Q1018 RMK PP000
SPTU 201100Z 36002KT 5000 BR NSC 23/22 Q1008 RMK BIRD HAZARD RWY 01/19 PP000
SPZO 201130Z 08002KT 9999 SCT036 OVC080 11/05 Q1032 NOSIG RMK VIS 9000E DZ BIRD HAZARD RWY 28
SUAA 201100Z 34004KT CAVOK 06/04 Q1019
SUDU 201100Z 00000KT CAVOK 05/02 Q1020
SULS 201100Z 31005KT CAVOK 07/03 Q1018
SUMU 201200Z 32004KT CAVOK 12/07 Q1019 NOSIG
SUSO 201100Z 18008KT CAVOK 07/03 Q1020
SVBM 201100Z 18002KT 9999 FEW016 SCT080 23/21 Q1014
SVMG 201100Z /////KT 9999 SCT010 26/24 Q1011 NOSIG
SVMI 201100Z 02007KT 9999 BNK016 25/23 Q1012
SYCJ 201100Z 06004KT 9999 FEW013 SCT100 26/25 Q1011 NOSIG
SYEC 201100Z 05010KT 9999 SCT017 29/25 Q1012 NOSIG
TAPA 201100Z 26003KT 9999 FEW018 26/24 Q1012 NOSIG
TBPB 201100Z 13010KT 9999 SCT020 29/23 Q1012 NOSIG
TDCF 201100Z 16003KT 9999 FEW026 26/23 Q1011
TDPD 201100Z 29005KT 9999 FEW022 24/22 Q1012
TFFF 201130Z AUTO VRB02KT CAVOK 27/25 Q1013
TFFR 201130Z AUTO 13002KT CAVOK 26/23 Q1012
TGPY 201100Z 09010KT 9999 FEW018 FEW///CB 29/26 Q1011 NOSIG CB-SSW
TIST 201153Z 08009KT 10SM FEW022 SCT028 30/24 A2992 RMK AO2 SLP133 60000 T03000239 10300 20267 53021
TISX 201153Z 08006KT 10SM FEW024 BKN089 29/24 A2993 RMK AO2 SLP134 70003 T02890244 10289 20244 53020
TJBQ 201145Z 11006KT 10SM CLR 25/23 A2991
TJIG 201150Z 11005KT 7SM HZ SCT050 BKN090 28/24 A2990
TJNR 201153Z AUTO 00000KT 7SM SCT023 28/26 A2993 RMK AO2 SLP136 70005 T02780261 10278 20244 53016
TJSJ 201156Z 10004KT 9SM FEW023 SCT070 BKN100 28/24 A2991 RMK AO2 SLP128 HZ ALQDS 60000 70007 T02830244 10283 20267 53014
TKPK 201100Z 27005KT 9999 -SHRA FEW016CB 27/25 Q1012
TKPN 201100Z 20003KT 9999 FEW018TCU ///// Q1012
TLPC 201100Z VRB02KT 9999 FEW024 27/25 Q1013 NOSIG
TLPL 201100Z 03003KT 9999 SCT022 26/25 Q1013 NOSIG
TNCA 201100Z 29007KT 9999 FEW016 26/25 Q1009 NOSIG
TNCB 201055Z 17004KT 140V200 CAVOK 26/25 Q1010
TNCC 201100Z 25003KT 9999 FEW015 26/23 Q1011 NOSIG
TNCE 201055Z AUTO VRB02KT //// // ///////// 26/25 Q1012 RE//
TNCM 201100Z VRB02KT 9999 -RA FEW///CB FEW015 SCT035 27/25 Q1013 NOSIG RMK CB N/ S/ W
TQPF 201100Z VRB02KT 9999 FEW018TCU 28/25 Q1012 TCU NW CB TOP WNW
TRPG 201100Z 00000KT 9999 FEW021 SCT040 27/25 Q1013
TTCP 201100Z 14007KT 9999 FEW017 29/25 Q1011 NOSIG
TTPP 201100Z 00000KT 9999 FEW016 27/25 Q1012 NOSIG
TUPJ 201200Z 11004KT 10SM SCT018 30/24 A2994 RMK Q1014 VIS30KM
TVSA 201100Z VRB01KT 9999 SCT020 28/25 Q1012 NOSIG
TXKF 201155Z 34006KT 310V010 9999 SCT033 SCT120 BKN300 24/18 Q1018
UAAA 201130Z 03003MPS 9999 FEW050 29/07 Q1017 R88/65D NOSIG
UAAH 201130Z 35005MPS CAVOK 30/01 Q1016 NOSIG RMK QFE724/0966
UAAT 201130Z 27004MPS 9999 FEW050 32/00 Q1016 R02/CLRD65 NOSIG RMK QFE710/0947
UACC 201130Z 25007MPS CAVOK 18/01 Q1017 R22/0///70 NOSIG RMK QFE731/0975
UACK 201130Z 27010MPS CAVOK 15/01 Q1014 R20/090070 NOSIG RMK QFE737/0982
UACP 201130Z 24010G15MPS 9999 SCT033CB 14/04 Q1011 R23/0/0060 NOSIG RMK QFE746/0995
UADD 201130Z 02004MPS 330V040 9999 NSC 29/03 Q1016 R13/0///65 NOSIG RMK QFE705/0940
UAII 201130Z 31003MPS 270V340 CAVOK 33/01 Q1014 R28/0///70 NOSIG RMK QFE723/0964
UAKD 201130Z 27005MPS 9999 NSC 27/03 Q1017 R22/0///65 NOSIG RMK QFE729/0973
UAKK 201130Z 30006MPS CAVOK 21/M02 Q1017 R23/0///70 NOSIG RMK QFE716/0955
UAOO 201130Z 35004MPS 280V010 CAVOK 31/06 Q1016 R05/CLRD70 NOSIG RMK QFE750/1000
UARR 201130Z 26006MPS 240V300 9999 BKN050CB BKN100 17/05 Q1015 R22/CLRD70 NOSIG RMK QFE758/1011
UASK 201130Z 31006MPS 9999 BKN136 28/06 Q1014 R30/090060 NOSIG RMK QFE735/0980
UASP 201130Z 27006MPS CAVOK 20/M02 Q1015 R21/0///70 NOSIG RMK QFE750/1000
UASS 201130Z 30006MPS CAVOK 27/06 Q1015 R26/0///60 NOSIG RMK QFE743/0990
UATE 201130Z 09005MPS 050V120 CAVOK 28/05 Q1013 R12/0///70 NOSIG RMK QFE757/1010
UATG 201130Z VRB01MPS CAVOK 22/02 Q1016 R32/CLRD70 NOSIG RMK QFE764/1019
UATT 201130Z 24004MPS 200V270 CAVOK 16/01 Q1017 R31/70D NOSIG RMK QFE743/0991
UAUU 201130Z 25009MPS CAVOK 16/01 Q1013 TEMPO 25010G15MPS RMK QFE744/0993
UBBB 201130Z 17013KT CAVOK 27/16 Q1011 R88/D NOSIG
UBBG 201130Z 07004KT 9999 SCT050 26/14 Q1012 R30/CLRD// NOSIG
UBBL 201100Z 10004KT 9000 OVC045 24/22 Q1013 R33/CLRD// NOSIG RMK MT OP
UBBN 201130Z 14006KT 9999 FEW050 33/02 Q1010 R14R/CLRD// NOSIG RMK MT OP QFE683
UBBQ 201100Z VRB02KT 9999 BKN042 26/15 Q1013 R16/CLRD// NOSIG RMK MT OBSC
UBBY 201100Z 22004KT 9999 FEW037CB BKN040 25/16 Q1016 R33/CLRD// NOSIG RMK MT PT OBSC
UBEE 201200Z 16005KT CAVOK 28/15 Q1011 R30/CLRD// NOSIG=-
UCFL 201100Z 14002MPS 100V160 9999 FEW033 19/04 Q1025 R07/CLRD95
UCFM 201130Z 27004MPS CAVOK 29/05 Q1017 R26/0///95 NOSIG
UCFO 201130Z 30002MPS 260V330 CAVOK 30/07 Q1015 R12/0///95 NOSIG
UDSG 201130Z 20008KT 9999 NSC 26/M04 Q1015 R02/CLRD70 NOSIG
UDYZ 201130Z 20003KT 9999 NSC 30/07 Q1012 R09/010070 NOSIG
UEEE 201130Z 24003MPS 9999 SCT016CB 03/01 Q1016 R23L/09//60 NOSIG RMK QFE753
UERP 201130Z 13003MPS 5000 -SN BKN015 OVC100 M00/M00 Q1005 R35/090060 NOSIG RMK QFE710
UERR 201100Z 15002MPS 2000 -DZ BR OVC004 02/02 Q1007 R25/290250 TEMPO 1000 BR OVC002 RMK QBB120 QFE725
UGKO 201130Z 27010KT CAVOK 29/17 Q1007 NOSIG
UGSB 201130Z 34005KT 290V020 9999 FEW026 24/19 Q1009 NOSIG
UGTB 201130Z 14009KT 100V180 9999 FEW044 27/15 Q1015 NOSIG
UHBB 201100Z 01004MPS 9999 -SHRA FEW010 BKN026CB 09/08 Q1018 R36/290150 NOSIG RMK QFE746/0995
UHHH 201130Z VRB01MPS 9999 FEW033 08/06 Q1019 R23L/090060 NOSIG RMK QFE758/1010
UHMA 201100Z 06003MPS CAVOK M04/M06 Q1007 R01/////// NOSIG RMK TDZ R01/06003MPS END R01/08003MPS QFE751/1002
UHMM 201100Z 09001MPS 9999 FEW046 03/01 Q1014 RMK QFE745
UHPP 201100Z 20002MPS 9999 -SHRA BKN038CB 09/08 Q1007 R34L/290155 NOSIG RMK QFE751/1002
UHSS 201130Z 34002MPS 9999 FEW040CB 07/07 Q1016 R01/70D NOSIG RMK QFE761/1015
UHWW 201130Z VRB01MPS 9999 NSC 10/07 Q1019 R25L/0///70 NOSIG RMK QFE763
UIAA 201130Z 30003MPS 9999 NSC 09/03 Q1021 R29/70D NOSIG RMK QFE707/0943
UIBB 201130Z 16003MPS 130V210 9999 NSC 17/10 Q1013 R30/CLRD60 NOSIG RMK QFE717/0956
UIII 201130Z 17005MPS CAVOK 15/07 Q1018 R12/CLRD60 NOSIG RMK QFE721/0961
UIUU 201130Z 33002MPS 9999 NSC 13/08 Q1021 R26/CLRD60 NOSIG RMK QFE721/0961
UKBB 201130Z 30004MPS 260V330 9999 FEW024CB SCT040 13/01 Q1017 R88/D NOSIG
UKDD 201130Z 31005MPS 270V340 9999 FEW///CB 15/02 Q1015 R26/090070 NOSIG
UKDE 201100Z 25002MPS 210V320 CAVOK 15/03 Q1016 R02R/////// NOSIG
UKDR 201130Z 31003MPS 280V030 9999 SCT030CB 16/01 Q1016 R36/09//70 TEMPO 33007G12MPS
UKHH 201130Z VRB01MPS 9999 SCT041 14/03 Q1015 R25/0///81 NOSIG
UKKK 201130Z 32009MPS 9999 -SHRA SCT043CB 12/03 Q1017 R26/70D TEMPO 27009G14MPS
UKKM 201130Z 30008MPS 270V330 9999 FEW022CB 12/01 Q1017 R33/CLRD70 NOSIG
UKLI 201130Z 30006MPS 250V340 9999 BKN040 14/02 Q1024 R28/090070 NOSIG
UKLL 201155Z 29006G16MPS 250V340 9000 -SHRA SCT033CB BKN033 10/04 Q1024 R31/CLRD// NOSIG
UKLR 201130Z 30007MPS 260V360 9999 FEW026CB SCT026 12/03 Q1021 R29/090070 NOSIG
UKLU 201130Z 33003MPS 280V360 9999 NSC 15/M00 Q1025 R10/090070 NOSIG
UKOH 201130Z 35007MPS 300V020 9999 BKN040CB 16/03 Q1017 R03/CLRD// NOSIG
UKON 201130Z 32008MPS 9999 -SHRA SCT///CB 16/00 Q1017 R04/090075 NOSIG
UKOO 201137Z 33008G13MPS 7000 -SHRA FEW036CB 15/06 Q1019 R16/090060 NOSIG
UKWW 201130Z 32007MPS 280V340 9999 SCT030CB 10/02 Q1019 R31/0///65 TEMPO 2100 -SHRA SCT005 BKN015CB
ULAA 201130Z 28005MPS 230V320 9999 -SHRA OVC017CB 05/02 Q1004 R26/290060 NOSIG RMK QFE751/1002
ULLI 201130Z 31007MPS 9999 BKN036 09/M00 Q1014 R88/090060 NOSIG
ULMM 201130Z 30004MPS 9999 -SHRA SCT012CB 04/02 Q1002 R31/290160 NOSIG RMK QFE744
ULOO 201130Z 32003MPS 280V030 P5000 FEW030CB BKN039 09/01 Q1017 R01/090070 NOSIG RMK QFE758
ULPB 201100Z AUTO 26005MPS 230V300 9999 // ///030/// 08/M00 Q1010 RMK QFE754/1005
ULWC 201130Z 26003MPS 9999 SCT040 09/M01 Q1010 R21/010060 NOSIG RMK QFE748/0997
UMBB 201130Z 33007G11MPS 7000 BKN036CB 12/01 Q1022 R29/CLRD// NOSIG
UMGG 201130Z 27005G08MPS 9999 BKN018CB BKN070 09/06 Q1016 R28/190055 NOSIG
UMII 201100Z 31002MPS 9999 BKN023CB 07/02 Q1015 R05/290050 TEMPO 2000 SHRA BKN005
UMKK 201130Z 36002MPS 330V030 9999 SCT029 12/05 Q1023 R24/CLRD95 NOSIG RMK QFE766/1022
UMMG 201130Z 32008G11MPS 9999 BKN030 BKN200 11/01 Q1021 R35/CLRD// NOSIG
UMMS 201156Z 34007G10MPS 9999 SCT014 BKN044 07/04 Q1017 R31R/290057 R31L/290050 NOSIG
UMOO 201100Z 33003MPS 7000 -SHRA BKN011 BKN017CB 07/06 Q1016 R31/290068 NOSIG
UNAA 201130Z 20003MPS CAVOK 22/10 Q1011 R20/090065 NOSIG RMK QFE736
UNBB 201130Z 27009MPS CAVOK 21/M07 Q1012 R24/CLRD66 NOSIG RMK QFE737
UNEE 201130Z 25008MPS CAVOK 21/05 Q1007 R23/CLRD60 NOSIG RMK QFE732
UNKL 201130Z 18004MPS CAVOK 22/10 Q1006 R29/CLRD65 NOSIG RMK QFE729
UNNT 201130Z 27008MPS CAVOK 17/03 Q1010 R25/090070 R16/090070 NOSIG RMK QFE747/0996
UNOO 201130Z 26009MPS 9999 SCT033CB BKN040 15/02 Q1010 R25/CLRD60 NOSIG RMK QFE750
UNTT 201100Z 24009G15MPS CAVOK 21/01 Q1004 R21/090060 NOSIG RMK QFE738
UOOO 201100Z 09006MPS 9999 SCT033CB 09/05 Q0983 R19/CLRD60 NOSIG RMK QFE721/0962
URKA 201130Z 02006MPS 9999 BKN/// 14/09 Q1015 R04/010070 TEMPO 3100 -SHRA SCT007 BKN020CB RMK QFE758/1010
URKK 201130Z 02006MPS CAVOK 16/07 Q1014 R05R/CLRD70 NOSIG RMK QFE758
URMG 201130Z 09007MPS 9999 BKN044 22/14 Q1011 R08/090070 NOSIG RMK QFE744/0992
URML 201130Z 14007MPS 9999 FEW026 23/16 Q1012 R14/01//70 NOSIG RMK QFE759/1012
URMM 201130Z 11008MPS 9999 SCT055 22/07 Q1012 R12/090070 NOSIG RMK QFE731/0974
URMN 201130Z 03002MPS 9999 SCT/// 22/08 Q1011 R24/010070 NOSIG RMK QFE722
URMO 201130Z 34003MPS 9999 BKN040 21/12 Q1012 R09/010070 NOSIG RMK QFE715/0954
URMT 201130Z 07006MPS CAVOK 19/03 Q1013 R07/010070 NOSIG RMK QFE720
URRP 201130Z 17002MPS 9999 FEW///CB 16/05 Q1015 R23/CLRD70 NOSIG RMK QFE754/1005
URSS 201130Z 27004MPS 9999 FEW030 24/17 Q1009 WS ALL RWY R06/010070 R02/////// NOSIG RMK R02/25003MPS MT OBSC QFE756
URWA 201130Z 05004MPS 9999 BKN043 20/02 Q1016 R09/010070 NOSIG RMK QFE764/1019
URWI 201130Z 04005MPS 9999 SCT///CB 12/08 Q1016 R09/190060 NOSIG
URWW 201130Z 20005MPS 9999 -SHRA SCT040CB 13/07 Q1016 R24/010070 TEMPO VRB10G18MPS 1000 TSRAGR SQ BKN004 BKN020CB
USCC 201130Z 27008MPS 9999 SCT030CB 12/04 Q1011 R27/000060 NOSIG RMK QFE738
USCM 201130Z 27004MPS 9999 BKN040CB 11/02 Q1014 R18/090065 TEMPO 25014MPS RMK QFE723
USHH 201130Z 26009G14MPS 9999 BKN016CB 07/04 Q0998 R24/190060 TEMPO 3000 -SHRA BKN005 OVC010CB
USNN 201130Z 26006G13MPS 9999 BKN019CB 09/06 Q0991 R21/15//65 NOSIG RMK QFE739
USPP 201130Z 27004MPS 9999 SCT042 09/M00 Q1011 R21/090060 NOSIG RMK QFE747
USRR 201130Z 28008MPS 9999 -SHRA SCT020CB 09/09 Q0993 R25/250350 NOSIG RMK QFE740
USSS 201130Z 30006MPS 9999 SCT044CB 09/02 Q1010 R26R/210060 NOSIG RMK QFE737/0983
USTR 201130Z 29006MPS CAVOK 11/01 Q1008 R30/CLRD65 R21/CLRD65 NOSIG RMK QFE746/0995
UTAA 201100Z 12008KT 100V160 9999 NSC 35/08 Q1013 R88/70D NOSIG
UTAK 201100Z 18004KT CAVOK 28/16 Q1013 R16R/CLRD70 NOSIG
UTAM 201100Z 01006KT CAVOK 35/09 Q1012 NOSIG
UTAT 201100Z 08006KT CAVOK 32/07 Q1014 NOSIG
UTAV 201100Z 32012KT CAVOK 35/04 Q1012 NOSIG
UTDD 201130Z 28003MPS 250V310 9999 NSC 33/04 Q1013 R09/D NOSIG RMK QFE692/0923
UTDK 201130Z 21003MPS 180V240 9999 NSC 34/02 Q1013 R01/09//70 RMK QFE702/0937
UTDL 201130Z 25004MPS 9999 NSC 32/06 Q1013 R26/CLRD70 NOSIG RMK QFE722/0963
UTDT 201130Z 22002MPS 9999 NSC 35/08 Q1011 R35/CLRD70 RMK QFE719/0959
UTFF 201130Z 35004KT 9999 NSC 31/04 Q1013 R18/CLRD70
UTFN 201130Z 23004KT 9999 NSC 31/06 Q1012 R28/CLRD70 NOSIG
UTNN 201130Z 33004KT CAVOK 32/04 Q1015 R33/CLRD60 NOSIG
UTNU 201130Z 36004KT CAVOK 31/06 Q1015 R13/CLRD70 NOSIG
UTSA 201130Z 01012KT 9999 NSC 34/03 Q1012 R07/CLRD70 NOSIG
UTSB 201130Z 33010KT CAVOK 33/08 Q1012 R01/CLRD70 NOSIG
UTSK 201130Z 28008KT CAVOK 35/06 Q1012 R16/CLRD70
UTSS 201130Z 14008KT 110V170 9999 NSC 32/07 Q1013 R09/70D NOSIG
UTST 201130Z 23004KT CAVOK 36/02 Q1011 R88/CLRD70 NOSIG
UTTT 201130Z 30006KT CAVOK 35/04 Q1013 R26R/CLRD70 NOSIG
UUBC 201130Z 30003MPS CAVOK 08/05 Q1012 R31/190055 NOSIG RMK QFE742/0990
UUBP 201130Z 29005MPS 9999 BKN040CB 10/01 Q1014 R34/CLRD70 NOSIG RMK QFE743/0990
UUBW 201130Z VRB01MPS 9999 BKN031CB 08/04 Q1013 R30/010060 NOSIG
UUDD 201130Z 23003MPS 190V280 9999 SCT046 10/02 Q1012 R88/CLRD70 NOSIG
UUDL 201130Z 00000MPS 9999 BKN040 09/M00 Q1012 R23/010060 NOSIG RMK QFE750
UUEE 201130Z 23002G07MPS 150V300 9999 SCT022CB 09/04 Q1012 R88/290051 NOSIG
UUMO 201130Z 20003MPS 150V250 9999 SCT028 BKN100 09/03 Q1012 R26/290050 NOSIG RMK QFE744/0992
UUOB 201130Z 31003MPS CAVOK 13/00 Q1014 R29/010060 NOSIG
UUOK 201130Z 32003MPS 9999 OVC033CB 10/05 Q1014 R30/290055 NOSIG RMK QFE742/0989
UUOL 201130Z 30005MPS 9999 SCT023CB BKN040 08/06 Q1013 R33/190055 TEMPO 2100 -SHRAGS BKN015CB
UUOO 201130Z 27004MPS 230V310 9999 BKN023 13/04 Q1013 R30/090070 NOSIG RMK QFE747
UUWW 201130Z 22002MPS 140V290 9999 SCT035 09/01 Q1012 R24/000070 NOSIG
UUYY 201130Z 26002MPS 210V300 9999 BKN033 07/M03 Q1008 R18/61D NOSIG RMK QFE748/0997
UWGG 201130Z 07003MPS 9999 -SHRA OVC010CB 07/06 Q1011 R36R/290050 NOSIG
UWKD 201130Z 26002MPS 210V310 CAVOK 11/02 Q1012 R29/CLRD70 NOSIG RMK QFE748/0997
UWKE 201130Z 19003MPS 9999 BKN021 09/04 Q1012 R21/210370 NOSIG RMK QFE742/0990
UWKS 201130Z 18003MPS 9999 BKN015CB 09/04 Q1012 R24/010060 NOSIG RMK QFE744
UWLW 201100Z 33002MPS 280V010 8000 -SHRA BKN028CB 11/06 Q1013 R20/CLRD60 NOSIG RMK QFE754
UWOO 201130Z 25005MPS 220V290 9999 BKN040CB 16/03 Q1016 R26/CLRD65 NOSIG RMK QFE751/1002
UWOR 201100Z 26008MPS 9999 BKN049 16/02 Q1017 R25/CLRD65 NOSIG RMK QFE739/0985
UWSG 201130Z 26004MPS 220V290 9999 SCT050CB 16/02 Q1013 R26/CLRD70 NOSIG RMK QFE757/1010
UWUU 201130Z 24005MPS 160V290 9999 -SHRA BKN030CB 10/07 Q1013 R32L/290246 NOSIG
UWWW 201130Z 26003MPS 230V290 9999 SCT033CB 13/05 Q1013 R15/CLRD60 NOSIG RMK QFE748/0998
VAAH 201130Z 08003KT 4000 HZ FEW015 SCT020 FEW030CB BKN080 29/25 Q1005 TEMPO 3000 RA
VAAU 201000Z 11004KT 6000 FEW020 BKN025 30/22 Q1007 NOSIG
VABB 201130Z 19010KT 3000 HZ SCT018 FEW025TCU BKN090 27/26 Q1004 NOSIG
VABO 201130Z 06004KT 6000 SCT020 SCT080 30/25 Q1003 NOSIG
VABP 201030Z 08004KT 6000 SCT025 FEW030CB BKN100 31/23 Q1007 NOSIG
VABV 201100Z 17007KT 6000 FEW025 SCT080 BKN200 31/24 Q1003
VAID 200900Z 11008KT 6000 FEW020 SCT025 31/23 Q1007 NOSIG
VAJB 201000Z 04006KT 3000 HZ FEW015 SCT030 FEW035CB BKN080 26/22 Q1008
VAJJ 201130Z 19011G21KT 3000 HZ SCT018 FEW025TCU BKN100 28/26 Q1004 NOSIG
VANP 201130Z 08002KT 4000 HZ FEW018 SCT025 30/24 Q1006 NOSIG
VAPR 200900Z 02006KT 6000 SCT020 SCT025 34/25 Q1004
VARK 200900Z 05009KT 6000 SCT020 SCT080 34/24 Q1004
VASD 201100Z 25010KT 6000 TS FEW025 FEW030CB BKN080 29/22 Q1007 NOSIG
VASU 201130Z 18010KT 6000 SCT020 SCT025 BKN080 31/25 Q1004 NOSIG
VAUD 201100Z 02006KT 20000 -DZ SCT025 BKN080 28/25 Q1008 NOSIG
VCBI 201110Z 22011KT 9999 SCT017 28/25 Q1008 NOSIG
VCRI 201010Z 22009KT 180V240 9999 SCT016 SCT018 BKN080 29/27 Q1008 NOSIG
VDPP 201130Z 19007KT 9000 SCT015 SCT040 27/25 Q1007
VDSR 201130Z VRB02KT 8000 -SHRA SCT015 FEW017CB BKN040 27/26 Q1007 CB
VDSV 201130Z VRB02KT 9999 SCT015 SCT040 27/25 Q1009
VEAT 201130Z 00000KT 5000 HZ SCT020 SCT100 32/26 Q1005 NOSIG
VEBI 200800Z 36003KT 6000 SCT020 FEW025CB SCT030 29/22 Q1013
VEBN 201130Z 17004KT 5000 HZ SCT025 BKN100 31/25 Q1005 NOSIG
VEBS 201130Z 00000KT 5000 HZ FEW018 28/25 Q1006 NOSIG
VECC 201130Z 30004KT 2800 TS SCT018 FEW025CB BKN100 29/27 Q1005 TEMPO TL1230 1500 TSRA
VEDG 200630Z 21008KT 6000 SCT020 33/25 Q1010 NOSIG
VEGT 201130Z 20003KT 5000 HZ FEW020 FEW025TCU 33/24 Q1005 NOSIG
VEGY 201130Z 09005KT 3000 TS FEW010 SCT018 FEW030CB BKN080 31/26 Q1006 TEMPO 2000 -TSRA
VEIM 201100Z 16004KT 5000 HZ SCT018 BKN100 28/22 Q1009 NOSIG
VEJH 201130Z 09002KT 5000 HZ FEW020 BKN100 30/24 Q1007
VEJS 201100Z 09004KT 5000 HZ SCT018 SCT025 BKN100 33/24 Q1006
VEKO 200900Z 09006KT 1000 TSRA SCT015 SCT020 FEWCB 025 OVC080 28/28 Q1006
VELP 200900Z 00000KT 5000 HZ FEW018 SCT025 FEW030CB BKN100 31/25 Q1008 NOSIG
VELR 201130Z 05003KT 5000 HZ FEW020 31/24 Q1006
VEMN 201130Z 36005KT 6000 SCT020 33/24 Q1007 NOSIG
VEMR 200800Z 29003KT 6000 SCT020 FEW025 BKN100 34/23 Q1006
VEPT 201130Z 03004KT 4000 HZ SCT018 FEW030CB BKN100 32/26 Q1005 NOSIG
VEPY 201000Z 25004KT 1500 -TSRA SCT008 SCT010 BKN025 FEW030CB 23/18 Q1015 NOSIG
VERC 201200Z 18005KT 5000 HZ SCT018 SCT025 29/24 Q1010 NOSIG
VERP 201000Z 05005KT 6000 FEW020 SCT025 32/24 Q1007 NOSIG
VGEG 201100Z 27005KT 5000 HZ FEW120 32/27 Q1005 NOSIG
VGHS 201130Z 18005KT 3500 TSRA BKN010 FEW025CB BKN100 28/25 Q1005 NOSIG
VHHH 201130Z 35012KT CAVOK 31/15 Q1007 NOSIG
VIAR 201130Z 05008KT 3500 HZ SCT035 SCT080 30/23 Q1009 NOSIG
VIDD 201130Z 08003KT 4000 HZ SCT035 FEWCB040 BKN100 35/24 Q1006 NOSIG
VIDN 201100Z 08003KT 6000 SCT030 30/21 Q1009
VIDP 201130Z 12005KT 4500 HZ FEW035 SCT100 33/22 Q1006 BECMG 5000 HZ
VIGG 201130Z 05004KT 5000 -TSRA HZ BKN030 FEW035CB OVC080 19/19 Q1015
VIJP 201130Z 09006KT 5000 HZ FEW030 SCT100 31/23 Q1007 NOSIG
VILD 201100Z 32002KT 4000 HZ SCT030 31/24 Q1008
VILK 201130Z 07003KT 4000 HZ SCT020 SCT025 FEW030CB BKN100 30/27 Q1006 NOSIG
VIPT 200900Z 00000KT 6000 FEW030 SCT100 33/22 Q1009
VISM 200700Z 00000KT 6000 -TSDZ FEW030 BKN050 23/17 Q1020
VLLB 201100Z 04002KT 9999 FEW020 32/24 Q1008 NOSIG
VLLN 201100Z 16002KT 9999 FEW020 31/21 Q1009 NOSIG
VLPS 201100Z 22002KT 5000 VCRA SCT020 BKN050 28/24 Q1008 VCRA/W NOSIG
VLSK 201000Z 04004KT 6000 SCT016 BKN093 32/22 Q1006 NOSIG
VLVT 201130Z 00000KT 6000 FEW050 29/24 Q1007 NOSIG
VMMC 201130Z 34012KT CAVOK 29/16 Q1007 NOSIG
VNKT 201150Z 28006KT 9999 FEW020 25/17 Q1015 NOSIG
VOAT 201100Z 29004KT 6000 SCT015 30/25 Q1007 NOSIG
VOBG 201130Z 27006KT 9999 SCT012 28/20 Q1010 NOSIG
VOBL 201130Z 28006KT 8000 SCT012 SCT018 27/19 Q1011 NOSIG
VOBM 201100Z 23010KT 9999 SCT012 SCT018 BKN080 26/20 Q1011
VOBZ 201130Z 12003KT 5000 HZ SCT020 FEW030CB SCT080 30/27 Q1005 NOSIG
VOCB 201130Z 20009KT 7000 FEW015 SCT080 31/21 Q1008 NOSIG
VOCI 201130Z 31006KT 5000 HZ FEW015 SCT090 30/23 Q1007 NOSIG
VOCL 201130Z 26006KT 6000 FEW012 SCT080 30/25 Q1007 NOSIG
VOCP 201130Z 00000KT 6000 FEW020 31/24 Q1005
VOGO 201130Z 17008KT 8000 FEW020 SCT100 28/25 Q1006 NOSIG
VOHB 201100Z 27007KT 9999 FEW015 SCT020 28/20 Q1011
VOHS 201130Z 10003KT 4000 -TSRA SCT015 FEW030CB BKN100 24/24 Q1009 BECMG 3000 TSRA
VOHY 201130Z 18006KT 4000 -TSRA SCT015 SCT015 FEW030CB BKN080 25/25 Q1009 NOSIG
VOKN 201130Z 23004KT 6000 FEW012 SCT018 BKN080 29/27 Q1007 NOSIG
VOMD 201130Z 11005KT 8000 FEW020 FEW025TCU 35/20 Q1006 NOSIG
VOML 201130Z 25007KT 8000 FEW012 FEW025TCU 29/24 Q1007 NOSIG METAR VOMM 201130Z 12006KT 5000 BR FEW020 BKN100 30/26 Q1006 NOSIG
VOMM 201130Z 12006KT 5000 BR FEW020 BKN100 30/26 Q1006 NOSIG
VOMY 201130Z 27010KT 6000 VCSH SCT012 SCT020 27/21 Q1012
VOND 201100Z 07005KT 6000 FEW020 SCT025 BKN080 28/26 Q1005 NOSIG
VOPC 200900Z VRB03KT 6000 SCT020 OVC100 31/26 Q1007 NOSIG
VORY 201130Z 13008KT 5000 SCT020 SCT025 FEW030CB 32/28 Q1005 NOSIG
VOSM 200900Z 26004KT 7000 SCT020 BKN100 33/23 Q1007 NOSIG
VOTK 201130Z 18007KT 6000 FEW018 SCT025 FEW030TCU 32/23 Q1005 NOSIG
VOTP 201130Z VRB02KT 7000 FEW020 31/24 Q1005
VOTR 201130Z 06005KT 9999 SCT016 FEW025TCU BKN100 34/24 Q1005 NOSIG
VOTV 201130Z 31007KT 5000 SCT015 FEW025TCU BKN080 30/25 Q1006 NOSIG
VOVZ 201130Z 15006KT 6000 FEW016 30/25 Q1005 NOSIG
VQPR 201030Z 32008KT 9999 SCT025 BKN070 20/14 Q1019
VRMM 201100Z 21012KT 9000 -RA SCT017 FEW018CB OVC100 27/25 Q1008 CB SSE NW TEMPO 4000 SHRA
VTBD 201130Z 15004KT 8000 FEW020 BKN100 30/25 Q1007 NOSIG
VTBO 201100Z 21003KT 8000 FEW020 28/25 Q1008
VTBS 201130Z 18011KT 8000 FEW020 BKN100 29/24 Q1007 NOSIG
VTBU 201130Z 22006KT 9999 VCSH FEW018TCU 28/24 Q1008 NOSIG
VTCC 201130Z 22004KT 190V270 9999 FEW035 26/24 Q1010 NOSIG
VTCH 201100Z /////KT 9999 FEW025 30/22 Q1006 NOSIG
VTCL 201100Z 00000KT 9999 FEW035 26/24 Q1008 NOSIG
VTCN 201100Z 00000KT 9999 FEW035 30/26 Q1006 NOSIG
VTCP 201100Z VRB02KT 9999 FEW022 31/26 Q1006 NOSIG
VTCT 201100Z 00000KT CAVOK 30/23 Q1008 NOSIG
VTPB 201100Z 00000KT 9999 VCSH FEW018CB BKN020 BKN100 26/25 Q1007 TEMPO 5000 TSRA
VTPH 201100Z 00000KT 9999 BKN046 26/25 Q1007 NOSIG
VTPM 201100Z 24006KT 9000 -RA FEW010 SCT022 BKN100 25/25 Q1007 RETSRA NOSIG
VTPO 201000Z 32006KT 9999 FEW020TCU SCT025 30/25 Q1005 NOSIG
VTPP 201100Z 14002KT 9999 SCT020 30/24 Q1006 NOSIG
VTSB 201100Z 15004KT 130V200 9999 FEW020 28/25 Q1008
VTSC 201000Z 19004KT 160V220 9999 FEW020 26/25 Q1008 NOSIG
VTSE 201100Z 22004KT 9999 -RA SCT020 SCT040 26/24 Q1008 NOSIG
VTSF 201100Z 26007KT 5000 TSRA FEW016CB BKN018 BKN020 25/25 Q1008 BECMG TL1120 8000 -TSRA
VTSG 201100Z 21007KT 9999 SCT020 28/24 Q1008 NOSIG
VTSH 201100Z 21004KT 5000 HZ FEW020 30/23 Q1007 NOSIG
VTSM 201130Z VRB02KT 9000 VCSH FEW020TCU 29/25 Q1009 NOSIG
VTSP 201130Z 27007KT 240V320 9999 FEW020 28/23 Q1010 NOSIG
VTSR 201100Z VRB01KT 9999 SCT030 28/25 Q1008 NOSIG
VTSS 201130Z 24004KT 100V260 7000 FEW020 SCT100 29/24 Q1008 NOSIG
VTST 201100Z 20003KT 7000 FEW020 28/24 Q1007 N0SIG
VTUD 201100Z 11005KT 9999 FEW020 31/23 Q1007 NOSIG
VTUI 201100Z 24003KT 170V310 9999 FEW030 28/25 Q1007 NOSIG
VTUK 201100Z 18003KT 150V210 8000 SCT030 BKN070 26/25 Q1008 NOSIG
VTUL 201100Z 14004KT 090V190 9999 SCT030 28/24 Q1008 NOSIG
VTUO 201100Z VRB02KT 9000 FEW015 SCT025 OVC080 25/25 Q1009 NOSIG
VTUQ 201100Z 12004KT 080V150 8000 -RA SCT022 BKN100 26/24 Q1008 NOSIG
VTUU 201100Z 13004KT 9999 FEW020 BKN100 28/25 Q1008 NOSIG
VTUV 201100Z 19003KT 170V230 9999 FEW018 SCT030 BKN100 26/25 Q1007 NOSIG
VTUW 201100Z 00000KT 9999 FEW030 BKN080 27/27 Q1007 NOSIG
VVCI 201130Z 14005KT 110V180 CAVOK 30/24 Q1008 NOSIG
VVCR 201130Z 33005KT 6000 -RA FEW013 BKN040 28/26 Q1009 NOSIG
VVCT 201130Z VRB01KT 8000 -RA SCT015 FEW017CB BKN040 26/26 Q1009 NOSIG CB/OVER RWY
VVDN 201130Z 09008KT 2700 SHRA SCT012 FEW015CB BKN050 25/24 Q1009 BECMG TL1145 4500 SHRA
VVNB 201130Z 16006KT 120V200 9999 FEW044 29/23 Q1009 NOSIG
VVPB 201130Z VRB02KT 5000 SHRA SCT015 FEW017CB BKN050 26/24 Q1009 NOSIG
VVPQ 201130Z VRB01KT 6000 SCT015 SCT040 26/24 Q1008 NOSIG
VVTS 201130Z 28004KT 250V310 8000 SCT015 BKN050 27/25 Q1009 NOSIG
VYMD 201130Z 17003KT 7000 BKN020 FEW025CB 32/26 Q1006 NOSIG
VYNT 201100Z 25008KT 6000 TS BKN012 FEW016CB OVC100 25/25 Q1007
VYYY 201130Z 31005KT 6000 BKN014 FEW020CB BKN100 29/26 Q1005 TEMPO 5000 -RA
WAAA 201130Z 02007KT 8000 FEW020 29/22 Q1010 NOSIG
WABB 201100Z 31006KT 9999 FEW018 26/24 Q1011 NOSIG
WADD 201130Z 12009KT 9999 FEW018 26/22 Q1012 NOSIG
WADL 201200Z 13007KT 7000 SCT016 25/22 Q1013 NOSIG
WAHQ 201000Z 21005KT 8000 FEW015 31/18 Q1010 NOSIG
WAHS 201130Z 26005KT 7000 FEW014 29/22 Q1010 NOSIG
WAJJ 201100Z 27004KT 9999 FEW013 26/22 Q1010 NOSIG
WAMM 201200Z 17003KT 9999 SCT022 26/22 Q1011 NOSIG
WAOO 201000Z 16004KT 6000 SCT018 29/22 Q1008
WAPP 201030Z 16003KT 120V210 9999 BKN017 26/24 Q1012 NOSIG
WAQQ 201100Z 11004KT 8000 FEW015 28/24 Q1009
WATT 201100Z 13007KT 8000 FEW020 25/18 Q1013 NOSIG
WBGB 201100Z 35004KT 280V030 3000 HZ FEW016 BKN300 29/26 Q1009
WBGG 201130Z 30006KT 260V340 0700 HZ VV/// 29/26 Q1009 NOSIG
WBGR 201100Z 36005KT 300V050 6000 FEW016 BKN150 29/25 Q1009
WBGS 201100Z 33006KT 290V350 4000 HZ SCT018 BKN300 29/25 Q1008
WBGY 201100Z AUTO 00000KT //// // 30/26 Q1008
WBKK 201130Z 03004KT 330V080 6000 FEW015 BKN270 29/25 Q1010 NOSIG
WBKL 201100Z VRB02KT 5000 HZ FEW016 BKN300 29/24 Q1009
WBKS 201100Z 09005KT 020V130 7000 FEW016 BKN290 28/25 Q1009
WBKT 201100Z VRB02KT 4000 HZ FEW015 BKN270 26/24 Q1010
WBKW 201100Z VRB01KT 9999 FEW017 BKN300 28/25 Q1009
WBSB 201130Z 35003KT 4000 HZ FEW016 BKN300 29/25 Q1010 NOSIG
WIDD 201130Z 14010KT 4000 HZ FEW014 29/24 Q1011 NOSIG
WIHH 201100Z 05008KT 6000 SCT020 31/19 Q1010 NOSIG
WIII 201130Z 07010KT 8000 SCT020 29/21 Q1011 NOSIG
WMAU 201100Z AUTO 11010KT 030V150 //// // 28/25 Q//// QFF1009
WMBA 201100Z VRB02KT 7000 FEW031 SCT140 BKN270 29/25 Q1008
WMKA 201100Z VRB03KT 5000 HZ FEW020 BKN280 28/26 Q1008
WMKB 201100Z 18003KT 140V210 5000 HZ FEW024 BKN140 BKN260 28/23 Q1008 NOSIG
WMKC 201100Z 00000KT 9000 FEW020 BKN140 BKN280 28/25 Q1008
WMKD 201100Z 11003KT 030V180 4000 HZ FEW019 SCT160 BKN280 29/25 Q1008 NOSIG
WMKE 201100Z VRB04KT 6000 FEW014CB BKN260 28/26 Q1008
WMKI 201100Z VRB02KT 9000 FEW020 BKN280 27/23 Q1008
WMKJ 201100Z 19005KT 140V230 6000 FEW018 BKN280 30/23 Q1009
WMKK 201130Z VRB02KT 4000 HZ FEW030 SCT140 BKN280 29/24 Q1008 NOSIG
WMKL 201100Z VRB02KT 6000 FEW020 SCT140 BKN270 29/26 Q1008
WMKM 201100Z VRB03KT 4000 HZ FEW026 SCT150 BKN270 30/25 Q1009
WMKN 201100Z 11004KT 020V190 9999 FEW022 BKN300 29/26 Q1009
WMKP 201130Z VRB02KT 6000 FEW020 BKN140 BKN270 28/24 Q1008 NOSIG
WMSA 201100Z 28006KT 4000 HZ FEW026 SCT140 BKN270 30/25 Q1009
WSAP 201100Z 17007KT 8000 FEW020 BKN280 30/24 Q1009
WSSL 201100Z 16008KT 130V190 9999 FEW018 BKN280 30/23 Q1009
WSSS 201130Z 17010KT 140V200 8000 FEW022 SCT280 29/24 Q1010 NOSIG
YABA 201100Z AUTO 25005KT 9999 // SCT024 BKN033 OVC044 10/09 Q1028
YAMB 201132Z AUTO 07003KT 9999 // BKN018 17/15 Q1025 RF00.0/000.0
YARG 201100Z AUTO 08003KT 9999 // NCD 32/06 Q1011
YAYE 201100Z AUTO 17006KT 9999 // NCD 15/M01 Q1020
YAYT 201100Z 22004KT CAVOK 42/M02 Q1011
YBAS 201130Z AUTO 17011KT 9999 // NCD 15/05 Q1020 RF00.0/000.0
YBBN 201130Z 12004KT 9999 FEW017 19/17 Q1025
YBCG 201130Z AUTO 23002KT 9999 // NCD 16/15 Q1025 RF00.0/000.0
YBCS 201130Z AUTO 18008KT 9999 // SCT026 BKN033 OVC042 22/18 Q1019
YBCV 201100Z AUTO 02010KT 9999 // NCD 25/04 Q1017
YBDV 201103Z AUTO 23028G38KT //// // ////// 21/09 Q1012
YBHI 201100Z AUTO 02007KT 9999 // NCD 26/M08 Q1009
YBHM 201130Z AUTO 11018KT 9999 // SCT020 BKN029 BKN060 22/18 Q1021
YBLN 201100Z AUTO 15006KT //// // ////// 11/07 Q1029
YBMA 201130Z AUTO 02005KT 9999 // NCD 22/04 Q1015 RF00.0/000.0
YBMK 201100Z AUTO 11010KT 9999 // BKN020 BKN026 BKN051 22/18 Q1021
YBNA 201100Z AUTO 05005KT 9999 // SCT017 17/16 Q1026
YBOK 201100Z AUTO 07011KT 9999 // NCD 18/13 Q1024
YBPN 201100Z AUTO 14008KT //// // SCT022 SCT062 21/18 Q1021
YBRK 201130Z AUTO 11007KT 9999 // NCD 20/15 Q1022 RF00.0/000.0
YBRM 201130Z AUTO 28007KT 9999 // NCD 25/21 Q1013 RF00.0/000.0
YBTL 201130Z AUTO 10011KT 9999 // BKN024 23/17 Q1020
YBUD 201100Z AUTO 11007KT 9999 // NCD 19/16 Q1023
YBWP 201100Z AUTO 09009KT 9999 // SCT082 25/19 Q1014
YBWX 201100Z AUTO 29009KT //// // ////// 21/10 Q1016
YCAR 201100Z AUTO 18015KT 9999 // NCD 19/07 Q1021
YCAS 201100Z AUTO 18004KT //// // ////// 15/13 Q1026
YCBA 201100Z AUTO 04009KT 9999 // NCD 26/05 Q1014
YCBB 201100Z AUTO 01009KT 9999 // NCD 20/05 Q1021
YCBP 201100Z AUTO 23013KT 9999 // SCT050 BKN065 11/07 Q1019
YCCY 201100Z AUTO 36005KT 9999 // NCD 24/M00 Q1014
YCDU 201116Z AUTO 24015G31KT 9999 // SCT021 SCT030 SCT047 11/06 Q1019
YCFS 201130Z AUTO 01008KT 9999 // SCT014 BKN020 BKN026 19/17 Q1026
YCIN 201130Z AUTO 30005KT 9999 // SCT115 27/14 Q1012 RF00.0/000.0
YCNM 201100Z AUTO 04006KT //// // ////// 22/09 Q1019
YCOM 201100Z AUTO 03011KT 9999 // NCD 12/10 Q1021
YDBY 201100Z AUTO 33011KT 9999 // BKN115 27/19 Q1012
YEML 201100Z AUTO 05010KT 9999 // NCD 23/07 Q1021
YESP 201100Z AUTO 19007KT 9999 // BKN053 BKN064 08/06 Q1027
YFRT 201130Z AUTO /////KT 9999 // NCD 10/00 Q1024 RF00.0/000.0
YGEL 201130Z AUTO 17012KT 9999 // NCD 15/08 Q1025 RF00.0/000.0
YGFN 201100Z AUTO 13003KT 9999 // SCT015 16/14 Q1026
YGLA 201130Z AUTO 10011KT 9999 // SCT027 SCT036 22/15 Q1023
YGTE 201100Z AUTO 10004KT 9999 // ////// 24/20 Q1014
YGTH 201100Z AUTO 05012KT 9999 // NCD 24/07 Q1013
YHID 201130Z AUTO 14012KT 9999 // SCT021 BKN054 25/21 Q1014
YHUG 201100Z AUTO 08007KT 9999 // NCD 25/02 Q1016
YKRY 201100Z AUTO 05002KT 9999 // NCD 16/12 Q1025
YLEC 201154Z AUTO 22017G27KT //// // ////// 10/10 Q1015
YLHI 201130Z AUTO 07019KT 9999 // SCT022 SCT056 SCT073 18/14 Q1030
YLIS 201100Z AUTO 00000KT 9999 // NCD 14/13 Q1026
YLRE 201100Z AUTO 05009KT 9999 // NCD 25/05 Q1016
YMAV 201130Z AUTO 11008KT 9999 // NCD 15/13 Q1010 RF00.0/000.0
YMAY 201100Z AUTO 00000KT 9999 // NCD 15/10 Q1016
YMDG 201100Z AUTO 13003KT 9999 // NCD 19/11 Q1022
YMEK 201100Z AUTO 15006KT 9999 // NCD 16/M09 Q1023
YMEN 201100Z AUTO 04009KT 9999 // NCD 20/11 Q1011
YMER 201100Z AUTO 01010G20KT 9999 // OVC022 19/14 Q1021
YMHB 201130Z 35008KT CAVOK 19/11 Q1014 BKN150
YMIA 201113Z AUTO 02019G29KT 9999 // NCD 28/M04 Q1007
YMLT 201130Z AUTO 14005KT 9999 // NCD 12/09 Q1015 RF00.0/000.0
YMML 201130Z 03017KT CAVOK 20/10 Q1010 FM1200 01015G25KT CAVOK FM1130 MOD/SEV TURB BLW 5000FT TL1400 FM1400 SEV TURB BLW 5000FT
YMOR 201100Z AUTO 05011KT 9999 // NCD 23/02 Q1020
YMTG 201131Z AUTO 22004KT 140V250 9999 // BKN012 BKN045 BKN066 13/12 Q1012
YNAR 201100Z AUTO 07009KT 9999 // BKN048 21/07 Q1015
YNBR 201100Z AUTO 07006KT 9999 // NCD 19/02 Q1020
YNTN 201100Z AUTO 30006KT 9999 // NCD 24/16 Q1014
YNWN 201100Z AUTO 12004KT 9999 // NCD 18/M14 Q1020
YOLD 201100Z AUTO 21009KT 9999 // ////// 10/09 Q1017
YPAD 201130Z 35005KT 9999 SCT008 SCT014 OVC070 12/11 Q1014 FM1300 28010KT 9999 -SHRA SCT012 BKN020 TEMPO 1130/1300 5000 RA BKN008 INTER 1300/1430 5000 SHRA BKN012
YPBO 201100Z AUTO 12006KT 9999 // NCD 21/M13 Q1018
YPCC 201130Z AUTO 10013KT //// // SCT022 BKN029 BKN037 26/22 Q1014
YPDN 201130Z 27006KT CAVOK 26/20 Q1013
YPEA 201130Z AUTO 17008KT 9999 // SCT073 12/07 Q1028
YPGV 201155Z AUTO 11005KT 9999 // BKN013 24/21 Q1014 RF00.0/000.0
YPJT 201130Z AUTO 18006KT 9999 // NCD 12/07 Q1028 RF00.0/000.0
YPKG 201130Z AUTO 16008KT 9999 // OVC073 13/01 Q1025 RF00.0/000.0
YPKU 201130Z AUTO 36008KT 9999 // NCD 27/12 Q1012 RF00.0/000.0
YPLM 201130Z AUTO 20008KT 9999 // NCD 19/M06 Q1017 RF00.0/000.0
YPMQ 201135Z AUTO 03011KT 8000 // BKN015 BKN019 BKN026 19/17 Q1025
YPPD 201130Z AUTO 32003KT 9999 // NCD 22/16 Q1015 RF00.0/000.0
YPPH 201130Z 19012KT 9999 FEW048 13/06 Q1028 NOSIG
YPTN 201130Z AUTO 00000KT 9999 // NCD 25/08 Q1012
YPWR 201130Z AUTO 26008KT 9999 // NCD 09/09 Q1017 RF00.0/004.0
YPXM 201130Z AUTO 13013KT //// // BKN014 BKN022 23/20 Q1015
YRMD 201100Z AUTO 09007KT //// // NCD 27/04 Q1015
YSCB 201130Z AUTO 03011KT 9999 // BKN075 16/12 Q1021 RF00.0/000.0
YSDU 201130Z AUTO 07015KT 9999 // NCD 21/11 Q1019 RF00.0/000.0
YSNF 201130Z AUTO 10014G24KT 9999 // SCT013 BKN047 BKN082 15/13 Q1029
YSNW 201100Z AUTO 02004KT 9999 // BKN027 OVC033 17/15 Q1023
YSRI 201130Z AUTO 13003KT 9999 // ////// 17/16 Q1023 RF00.0/000.2
YSSY 201130Z 03018G28KT 9999 BKN017 19/16 Q1023 FM1130 MOD TURB BLW 5000FT
YSTW 201130Z AUTO 14007KT 100V160 9999 // NCD 19/12 Q1023 RF00.0/000.0
YSWG 201100Z AUTO 07009KT 9999 // SCT088 20/08 Q1016
YTEF 201100Z AUTO 15009KT 9999 // NCD 21/M12 Q1017
YTNK 201100Z AUTO 36007KT 9999 // NCD 27/00 Q1013
YTRE 201100Z AUTO 04012KT 9999 // SCT021 17/14 Q1025
YWGT 201100Z AUTO 19003KT 9999 // SCT091 13/11 Q1015
YWHA 201100Z AUTO 25008KT 9000 // ////// 11/10 Q1016
YWLM 201130Z AUTO 04012KT 9999 // NCD 18/14 Q1023
ZBAA 201130Z 12002MPS CAVOK 21/16 Q1017 NOSIG
ZBAD 201130Z 18001MPS 8000 NSC 21/16 Q1017 NOSIG
ZBHH 201100Z 04002MPS 360V070 9999 SCT040 17/09 Q1024 NOSIG
ZBSJ 201100Z 27002MPS 220V320 CAVOK 21/15 Q1017 NOSIG
ZBTJ 201130Z 20003MPS 5000 HZ NSC 23/16 Q1017 NOSIG
ZBYN 201130Z 03003MPS 350V060 CAVOK 17/08 Q1022 NOSIG
ZGGG 201130Z 33003MPS CAVOK 30/10 Q1008 NOSIG
ZGHA 201100Z 34006MPS CAVOK 25/13 Q1014 NOSIG
ZGKL 201100Z VRB02MPS 9999 BKN050 BKN073 28/19 Q1012 NOSIG
ZGNN 201100Z 34002MPS 320V020 CAVOK 29/20 Q1010 NOSIG
ZGOW 201100Z VRB01MPS CAVOK 29/13 Q1005 NOSIG
ZGSZ 201100Z 34005MPS CAVOK 29/15 Q1007 NOSIG
ZHCC 201100Z VRB01MPS 9999 BKN046 24/13 Q1017 NOSIG
ZHHH 201100Z 02003MPS CAVOK 25/07 Q1014 NOSIG
ZJHK 201100Z 07003MPS 040V100 CAVOK 28/21 Q1008 NOSIG
ZJSY 201100Z 31002MPS 260V340 9999 FEW020 SCT050 28/24 Q1008 NOSIG
ZLLL 201100Z 05002MPS 9999 FEW020 16/02 Q1027 NOSIG
ZLXY 201100Z VRB02MPS 9999 BKN060 22/15 Q1019 NOSIG
ZMUB 201200Z 16003MPS CAVOK 09/02 Q1024 NOSIG RMK QFE660.0 63
ZPPP 201100Z 06007MPS 9999 FEW016TCU SCT016 BKN033 13/10 Q1025 NOSIG
ZSAM 201100Z 11005MPS 070V140 CAVOK 27/19 Q1006 NOSIG
ZSFZ 201100Z 01002MPS CAVOK 25/14 Q1007 NOSIG
ZSHC 201130Z 03005MPS CAVOK 25/15 Q1013 NOSIG
ZSNB 201100Z 01003MPS 330V060 CAVOK 24/16 Q1012 NOSIG
ZSNJ 201100Z 04002MPS 010V070 CAVOK 23/14 Q1015 NOSIG
ZSOF 201100Z 35003MPS CAVOK 20/13 Q1015 NOSIG
ZSPD 201130Z 01007MPS 9999 FEW030 24/17 Q1013 NOSIG
ZSQD 201100Z 20001MPS CAVOK 21/11 Q1017 NOSIG
ZSSS 201130Z 04006MPS CAVOK 24/16 Q1013 NOSIG
ZUCK 201100Z 00000MPS 9999 FEW033 21/18 Q1020 NOSIG
ZUGY 201100Z 35006MPS 9999 SCT016 OVC033 17/13 Q1021 NOSIG
ZUUU 201100Z 00000MPS CAVOK 22/16 Q1020 NOSIG
ZWSH 201100Z 11003MPS 070V150 CAVOK 27/01 Q1022 NOSIG
ZWWW 201130Z 34003MPS CAVOK 28/06 Q1019 NOSIG
ZYCC 201100Z 23002MPS 6000 FEW030 15/11 Q1017 NOSIG
ZYHB 201100Z 26003MPS 9999 SCT040 16/11 Q1016 NOSIG
ZYTL 201130Z VRB01MPS CAVOK 17/14 Q1019 NOSIG
ZYTX 201130Z VRB01MPS CAVOK 18/14 Q1019 NOSIG
