
AGGH 192000Z 00000KT 9999 FEW013 FEW014CB OVC100 23/23 Q1010
AYMH 192000Z 00000KT 9999 FG BKN030 Q1020 RMK
AYNZ 192000Z VRB05KT 9999 SCT010 OVC050 23/21 Q1012
AYPY 192000Z VRB02KT 9999 BKN010 OVC020 24/23 Q1011
AZUH 191952Z 00000KT CAVOK 19/06 Q1017
BGBW 191950Z AUTO 25003KT 9999NDV FEW100/// 08/M01 Q1005
BGGH 191950Z 24004KT 200V300 9999 SKC 06/M01 Q1005
BGJN 191950Z 28006KT 9999 SKC 02/M06 Q1005
BGKK 191950Z AUTO 04008KT 360V080 9999NDV -DZ BKN027/// 04/M00 Q1005
BGSF 191950Z AUTO 24003KT 9999NDV NCD 05/M03 Q1004
BGTL 191956Z AUTO 30004KT 9999 CLR 00/M08 A2979 RMK AO2 SLP074 T00021080 TSNO $
BIAR 192000Z 19016KT 9999 BKN055 15/08 Q1003 RMK WIND VADLAHEIDI 19015KT
BIBD 191600Z 23003KT 9999 -RA FEW008 SCT014 OVC018 12/10 Q0999
BIEG 192000Z 16012KT 9999 FEW065 BKN150 15/09 Q1004 RMK WIND GAGNHEIDI 24029KT
BIHN 191700Z 21018KT 9999 2500S BR BKN002 OVC035 11/10 Q1009
BIIS 191700Z 07008KT 8000 -RA SCT003 BKN005 OVC008 08/07 Q1000
BIKF 192030Z 17022KT 0600 R19/P1500U -DZ FG OVC002 11/11 Q1001
BIRK 192000Z 17016KT 3800 -DZBR OVC007 12/10 Q1002
BIVM 191813Z 17020KT 150V190 0600 -DZ FG VV000 11/11 Q1005
BKPR 192030Z 31004KT 9999 -RA SCT025 BKN040 09/05 Q1024 NOSIG
CAHR 192000Z AUTO 36004KT 16/08 RMK AO1 SLP230 T01640080 58014
CBBC 192000Z AUTO 20005KT 160V240 9SM SCT019 BKN026 OVC060 16/12 A3009 RMK SLP190
CERM 192000Z AUTO 23002KT 22/08 RMK AO1 SLP226 T02180083 56017
CMFM 192000Z AUTO 25006KT 17/10 RMK AO1 SLP251 T01740098 56007
CMGB 192030Z AUTO 21002KT 20/ RMK AO1 SLP250 T0198 56009
CPBT 192000Z AUTO 32005KT 12/10 RMK AO1 T01210098
CPEH 192000Z AUTO 20003KT 13/10 RMK AO1 T01310096
CPFI 192000Z AUTO 29002KT 13/10 RMK AO1 T01330104
CPIR 192000Z AUTO 32001KT 12/09 RMK AO1 T01230093
CPRO 192000Z AUTO 24003KT 12/11 RMK AO1 T01230108
CPRY 192000Z AUTO 32003KT 12/09 RMK AO1 T01190092
CPST 192000Z AUTO 20004KT 12/08 RMK AO1 T01200077
CPSV 192000Z AUTO 14001KT 13/11 RMK AO1 T01290107
CPXL 192000Z AUTO 21004KT 13/09 RMK AO1 T01330094
CTCK 192000Z AUTO 17004KT 23/11 RMK AO1 SLP234 T02270106 58014
CTNK 192000Z AUTO 23002KT 23/07 RMK AO1 SLP232 T02280070 57007
CTRA 192000Z AUTO 33002KT 18/14 RMK AO1 SLP159 T01770137 53003
CWAE 192000Z 18005KT 15SM OVC075 14/08 A3004 RMK AC8 WND ESTD SLP176 DENSITY ALT 2400FT
CWAF 192000Z AUTO 19016KT 11/07 RMK AO1 PK WND 21022/1931 T01100073
CWAJ 192000Z AUTO 09007KT 22/16 RMK AO1 SLP207 T02160159 58016
CWAQ 192000Z AUTO 10014G21KT 24/09 RMK AO1 PK WND 09021/1955 SLP089 T02360091 58025
CWAV 192000Z AUTO 13007KT 16/ RMK AO1 T0164
CWBA 192000Z AUTO 18006KT 22/12 RMK AO1 T02150116
CWBE 192000Z AUTO 16010KT 18/13 RMK AO1 SLP225 T01790133 56006
CWBK 192000Z AUTO 03001KT 14/04 RMK AO1 SLP235 T01420040 58013
CWBO 192000Z AUTO 11001KT 13/10 RMK AO1 SLP133 T01290101 58008
CWBS 192000Z AUTO 00000KT 19/10 RMK AO1 T01850104
CWBT 192000Z AUTO 23004KT 10/06 RMK AO1 SLP193 T00970059 56014
CWBU 192000Z AUTO 19/06 RMK AO1 SLP151 T01850055 56012
CWBV 192000Z AUTO 10011KT 13/05 RMK AO1 SLP228 T01320050 56008
CWBY 191700Z AUTO 26012G17KT 14/05 RMK AO1 PK WND 25019/1604 SLP213 T01420050 56018
CWBZ 192000Z AUTO 29002KT 22/10 RMK AO1 SLP243 T02230104 58009
CWCF 192000Z AUTO 27006KT 14/09 RMK AO1 SLP177 T01440087 51002
CWCI 192000Z AUTO 14/14 RMK AO1 SLP164 T01440137 53008
CWCJ 192000Z AUTO 20004KT 17/15 RMK AO1 SLP155 T01720146 51006
CWCO 192000Z AUTO 17005KT 25/10 RMK AO1 SLP208 T02520102 58013
CWCT 192000Z AUTO 26002KT 12/10 RMK AO1 5PAST HR 8009 SLP144 P0002 T01170101 50005
CWDA 192000Z AUTO 00026KT 16/06 RMK AO1 SLP147 T01620064 58011
CWDC 192000Z AUTO 17003KT 17/07 RMK AO1 SLP084 T01660069 58017
CWDJ 192000Z AUTO 14013G18KT 23/09 RMK AO1 PK WND 14018/1955 SLP113 T02300091 58015
CWDK 192000Z AUTO 21002KT 14/08 RMK AO1 SLP143 T01360079 58008
CWDM 191900Z AUTO 23014G19KT 15/07 RMK AO1 PK WND 22021/1800 SLP172 T01460068 56012
CWDO 192000Z AUTO 25012KT 16/07 RMK AO1 PK WND 25019/1916 SLP170 T01640070 57006
CWDQ 192000Z AUTO 18006KT 23/12 RMK AO1 SLP222 T02330122 58014
CWDV 192000Z AUTO 28005KT 18/16 RMK AO1 SLP167 T01760157 53009
CWEB 192000Z AUTO 15004KT 14/13 RMK AO1 SLP192 T01350132 53008
CWEF 192000Z AUTO 12/08 RMK AO1 SLP228 T01230075 58010
CWEH 192000Z AUTO 04008KT 17/08 RMK AO1 SLP112 T01670081 56008
CWEK 192000Z AUTO 14/13 RMK AO1 SLP159 T01390131 53011
CWEL 192000Z AUTO 01003KT 16/13 RMK AO1 SLP183 T01570131 58003
CWEP 192000Z AUTO 02003KT RMK AO1 58013
CWEQ 192000Z AUTO 09004KT 21/10 RMK AO1 SLP158 T02070095 58012
CWER 192000Z AUTO 24017KT RMK AO1 PK WND 26023/1907
CWEU 192000Z 27010KT 6SM BR BKN007 BKN018 M06/M07 A2998 RMK FG1ST4SC2 VIS HIER W 15 SLP153
CWEW 192000Z AUTO 16004KT 21/06 RMK AO1 SLP251 T02130060 58015
CWEZ 192000Z AUTO 17002KT 13/12 RMK AO1 SLP184 T01270118 58001
CWFD 192000Z AUTO 19033G40KT ////SM //// SCT002 M02/// A2938
CWFF 192000Z AUTO 12010G16KT 20/10 RMK AO1 SLP139 T01960102 58014
CWFJ 192000Z AUTO 02003KT 12/08 RMK AO1 T01240078
CWFQ 192000Z AUTO 31001KT 19/06 RMK AO1 SLP255 T01910055 55005
CWGB 192000Z AUTO 29004KT 15/13 RMK AO1 SLP181 T01490126 58005
CWGD 192000Z AUTO 17008KT 26/10 RMK AO1 SLP220 T02550095 56018
CWGH 192000Z AUTO 24003KT 22/12 RMK AO1 SLP251 T02170116 58010
CWGL 192000Z AUTO 17008KT 21/12 RMK AO1 SLP214 T02080121 58013
CWGM 192000Z AUTO 25006KT 14/07 RMK AO1 T01380066
CWGR 192000Z AUTO 22009KT 14/06 RMK AO1 SLP228 T01390062 58012
CWGT 192000Z AUTO 33004KT 15/12 RMK AO1 SLP183 T01510115 58002
CWGW 192000Z AUTO 18007KT 12/06 RMK AO1 SLP145 T01220059 58014
CWGX 192000Z AUTO 29014G19KT 18/06 RMK AO1 PK WND 28022/1933 SLP134 T01770055 53003
CWGY 192000Z AUTO 12/11 RMK AO1 4PAST HR 5009 SLP143 P0002 T01180109 50011
CWGZ 192000Z CCA 18003KT 15SM SCT035 BKN150 BKN250 M00/M06 A2985 RMK SC3AC3CI1 S1 AFT 12UTC/LAST STFD OBS/NEXT 201300 UTC SLP115
CWHI 192000Z AUTO 15010KT 16/07 RMK AO1 T01570068
CWHL 192000Z AUTO 15013KT 12/ RMK AO1 2PAST HR 1004 PK WND 15019/1944 SLP161 P0001 T0124 50002
CWHN 192000Z AUTO 17011KT 150V220 9SM CLR 18/05 A2986 RMK SLP124
CWHO 192000Z AUTO 16/09 RMK AO1 SLP034 T01550091 58028
CWHP 192000Z AUTO 24014KT 11/09 RMK AO1 PK WND 23018/1904 SLP204 T01080087 58012
CWHQ 192000Z AUTO 25003KT 20/08 RMK AO1 T01980082
CWHT 192000Z AUTO 27006KT 15/01 RMK AO1 SLP065 T01450014 52011
CWHV 192000Z AUTO 20004KT 20/08 RMK AO1 SLP247 T01950079 56011
CWID 192000Z AUTO 24004KT 17/07 RMK AO1 SLP966 T01670071 56006
CWIG 192000Z AUTO 21017G25KT RMK AO1 PK WND 21025/1952
CWIJ 192000Z AUTO 13012KT 04/02 RMK AO1 PK WND 14017/1925 SLP064 T00440022 57010
CWIK 192000Z AUTO 13011KT 20/14 RMK AO1 PK WND 14018/1921 SLP145 T02010135 58009
CWIL 192000Z AUTO 34013KT ////SM BKN008 BKN014 OVC035 ///// A////
CWIP 191800Z AUTO 13005KT 12/ RMK AO1 T0124
CWIS 192000Z AUTO 21007KT 17/10 RMK AO1 SLP244 T01730101 56008
CWIT 192000Z AUTO 30001KT 21/08 RMK AO1 SLP246 T02120081 57012
CWIW 192000Z AUTO 15008KT 24/10 RMK AO1 SLP121 T02390100 57011
CWIZ 192000Z AUTO 03001KT 21/07 RMK AO1 T02110072
CWJB 192000Z AUTO 22006KT 20/ RMK AO1 T0199
CWJC 192000Z AUTO 34006KT 10/04 RMK AO1 SLP110 T00970043 53003
CWJD 192000Z AUTO 06005KT 15/10 RMK AO1 SLP174 T01490096 58003
CWJH 192000Z AUTO 22005KT 20/07 RMK AO1 SLP137 T01960068 57006
CWJI 192000Z AUTO 11008KT 23/04 RMK AO1 SLP107 T02290039 58020
CWJO 192000Z AUTO 23/12 RMK AO1 SLP215 T02300115 56011
CWJR 192000Z AUTO 27002KT 18/10 RMK AO1 SLP148 T01810103 58013
CWJT 192000Z AUTO 00023KT 23/08 RMK AO1 SLP240 T02270084 58012
CWJU 192000Z AUTO 25014KT 14/13 RMK AO1 PK WND 25019/1941 SLP171 T01390127 53012
CWJV 192000Z AUTO 30002KT 16/08 RMK AO1 SLP159 T01640080 58013
CWJW 192000Z AUTO 18004KT 13/05 RMK AO1 SLP147 T01260052 56016
CWJX 192000Z AUTO 36007KT 14/10 RMK AO1 2PAST HR 8008 SLP129 P0001 T01400102 50002
CWKG 192000Z AUTO 03002KT 18/04 RMK AO1 SLP233 T01770042 56013
CWKH 192000Z AUTO 14/ RMK AO1 SLP175 T0138 50000
CWKO 192000Z AUTO 11012G19KT 23/07 RMK AO1 PK WND 11019/1959 SLP099 T02320071 57023
CWKX 192000Z AUTO 23005KT 10/07 RMK AO1 SLP106 T00960070 53004
CWLB 192000Z AUTO 22009G15KT 18/05 RMK AO1 SOG 03 8018 SLP108 T01790046
CWLC 192000Z AUTO 00020KT 13/13 RMK AO1 T01320127
CWLE 192000Z AUTO 11005KT 21/07 RMK AO1 SLP117 T02120066 58012
CWLI 192000Z AUTO 32004KT 310V010 ////SM //// BKN060 BKN075 06/02 A2953
CWLM 192000Z AUTO 11004KT 13/11 RMK AO1 SLP187 T01250111 55000
CWLP 192000Z AUTO 30007KT 14/12 RMK AO1 SLP194 T01350120 50008
CWLS 192000Z AUTO 17007KT 23/09 RMK AO1 SLP229 T02280093 56015
CWLY 192000Z AUTO 17003KT 090V250 9SM CLR 17/09 A2999 RMK SLP158 DENSITY ALT 1000FT
CWME 192000Z AUTO 23006KT 15/13 RMK AO1 T01530128 50002
CWMJ 192000Z AUTO 20007KT 23/11 RMK AO1 SLP233 T02340113 56012
CWMM 192000Z AUTO 11001KT 16/12 RMK AO1 SLP184 T01640121 58005
CWMQ 192000Z AUTO 36007KT 15/10 RMK AO1 SLP125 T01480098 57013
CWMT 192000Z AUTO 14006KT 11/08 RMK AO1 6010 SLP965 T01090083 50001
CWMZ 192000Z AUTO 12009KT 21/12 RMK AO1 SLP213 T02110115 57017
CWNC 192000Z AUTO 13002KT 20/14 RMK AO1 SLP241 T02010144 58013
CWND 192000Z AUTO 34013KT 04/04 RMK AO1 PK WND 33017/1913 SLP992 T00410036 53011
CWNE 192000Z AUTO 22007KT 15/07 RMK AO1 SLP228 T01530066 56013
CWNH 192000Z AUTO 22007KT 18/09 RMK AO1 SLP220 T01830088 56017
CWNK 192000Z AUTO 22/13 RMK AO1 T02170133
CWNL 192000Z AUTO 15005KT 18/14 RMK AO1 SLP201 T01770142 58004
CWNM 192000Z AUTO 26007KT 19/10 RMK AO1 SLP139 T01870101 58019
CWNP 192000Z AUTO 25002KT 18/11 RMK AO1 SLP151 T01760106 58014
CWNZ 192000Z AUTO 27009G15KT 23/16 RMK AO1 PK WND 28017/1925 SLP133 T02340159 53012
CWOB 192000Z AUTO 19030G36KT ////SM OVC002 02/02 A2936
CWOC 192000Z AUTO 23003KT 17/02 RMK AO1 SLP217 T01720017 58015
CWOD 192000Z AUTO 13007KT 22/15 RMK AO1 SLP171 T02200154 58017
CWOE 192000Z AUTO 31012KT 15/10 RMK AO1 PK WND 30018/1906 SLP124 T01470098 57005
CWOY 192000Z AUTO 13010G15KT 21/11 RMK AO1 PK WND 14018/1946 SLP134 T02120113 56011
CWPC 192000Z AUTO 12003KT 21/10 RMK AO1 SLP235 T02050100 58012
CWPD 192000Z AUTO 21008KT 18/12 RMK AO1 SLP223 T01760116 56009
CWPE 192000Z AUTO 17004KT 15/11 RMK AO1 SLP233 T01500113 58014
CWPF 192030Z AUTO 16005KT 13/11 RMK AO1 SLP181 T01260108 58002
CWPK 192000Z AUTO 23003KT 22/12 RMK AO1 SLP213 T02160115 58011
CWPO 192000Z AUTO 13007KT 22/13 RMK AO1 SLP179 T02220130 58007
CWPR 192000Z AUTO 31001KT 15/06 RMK AO1 SLP171 T01450062 58019
CWPS 192000Z AUTO 05008KT 21/13 RMK AO1 SLP220 T02090132 58012
CWPX 192000Z AUTO 09009KT ////SM //// SCT008 OVC013 01/M01 A2977
CWPZ 192000Z AUTO 31002KT 15/09 RMK AO1 SLP126 T01540089 56007
CWQH 192000Z AUTO 32003KT 20/04 RMK AO1 T02020042
CWQK 192000Z AUTO 26005KT 14/12 RMK AO1 SLP186 T01360118 58001
CWQP 192000Z AUTO 11005KT 20/14 RMK AO1 SLP257 T02020139 58009
CWQR 192000Z AUTO 23012KT 08/06 RMK AO1 T00810055
CWQS 192000Z AUTO 29009KT 15/14 RMK AO1 SLP175 T01490135 51006
CWQV 192000Z AUTO RMK AO1
CWRA 192000Z AUTO RMK AO1 19 0002
CWRJ 192000Z AUTO 04007KT 16/11 RMK AO1 SLP118 T01630107 58010
CWRK 192000Z AUTO 18005KT 23/08 RMK AO1 SLP241 T02260081 58009
CWRM 192000Z AUTO 14006KT 17/04 RMK AO1 SLP116 T01690035 56019
CWRN 192000Z AUTO 11005KT 13/05 RMK AO1 SLP215 T01320051 55010
CWRO 192000Z AUTO 26008KT 14/14 RMK AO1 SLP162 T01410135 52010
CWRT 192000Z AUTO 30007KT 13/07 RMK AO1 T01290069
CWRU 192000Z AUTO 30016KT 15/10 RMK AO1 PK WND 29019/1916 SLP190 T01460103 50005
CWRX 192000Z AUTO 07015G33KT 040V100 ////SM //// SCT012 BKN016 BKN020 03/02 A2931
CWRY 192000Z AUTO 04002KT 14/09 RMK AO1 SLP134 T01370088 56007
CWRZ 192000Z AUTO 20008KT RMK AO1 58016
CWSA 192000Z AUTO 04017G24KT 9SM CLR 12/09 A3015 RMK SLP211
CWSD 192000Z AUTO 29004KT 18/04 RMK AO1 SLP228 T01770040
CWSF 192000Z AUTO 26003KT 11/07 RMK AO1 SLP199 T01090066 58012
CWSG 192000Z AUTO 26009KT 11/08 RMK AO1 SLP197 T01120080 58019
CWSK 192000Z AUTO 15004KT 16/11 RMK AO1 SLP170 T01550113 58008
CWSL 192000Z AUTO 01003KT 16/09 RMK AO1 SLP166 T01590091 56014
CWSP 192000Z AUTO 28005KT 12/ RMK AO1 SLP187 T0119 58003
CWSR 192000Z AUTO 13006KT 12/10 RMK AO1 2PAST HR 8003 SLP138 P0001 T01210097 50002
CWSS 192000Z AUTO 26003KT 21/06 RMK AO1 SLP232 T02080055 57017
CWST 192000Z AUTO 23015G20KT 21/09 RMK AO1 PK WND 25020/1950 SLP221 T02110093 56016
CWSW 192000Z 17007KT 140V210 15SM FEW018 FEW025 SCT040 BKN060 12/07 A3001 RMK SF1CU1CU2CU4 SF TR SLP173 DENSITY ALT 4300FT
CWTA 192000Z AUTO 26002KT 22/04 RMK AO1 SLP246 T02160042 58014
CWTG 192000Z AUTO 25017KT 10/08 RMK AO1 PK WND 24019/1912 SLP193 T01020081 57022
CWTN 192000Z AUTO 26006KT 21/ RMK AO1 SLP225 T0208 56015
CWTT 192000Z AUTO 23002KT 20/03 RMK AO1 T01950030
CWTY 192000Z AUTO 21008KT 18/11 RMK AO1 SLP239 T01770106 58015
CWUS 192000Z AUTO 08003KT 17/10 RMK AO1 SLP170 T01710103 58014
CWUW 192000Z AUTO 08028G37KT ////SM OVC004 M01/M01 A2927
CWUX 192000Z AUTO 26002KT 23/14 RMK AO1 SLP205 T02290141 56016
CWVF 192000Z AUTO 30001KT 15/13 RMK AO1 T01490128
CWVI 192000Z AUTO 18009KT 19/05 RMK AO1 SLP113 T01880054 57014
CWVN 192000Z AUTO 13010KT 21/07 RMK AO1 SLP091 T02140069 57019
CWVP 192000Z AUTO 02006KT 12/08 RMK AO1 SLP120 T01170078 58010
CWVQ 192000Z AUTO 18004KT 20/08 RMK AO1 SLP246 T02040079 58013
CWVT 192000Z AUTO 17007KT 19/05 RMK AO1 SLP123 T01920053 58017
CWVU 192000Z AUTO 33005KT 13/10 RMK AO1 SLP255 T01310099 57017
CWWA 192000Z AUTO 24001KT 15/12 RMK AO1 SLP182 T01460115 58002
CWWB 192000Z AUTO 14010KT 23/07 RMK AO1 SLP226 T02310070 56014
CWWE 192000Z AUTO 12006KT 14/07 RMK AO1 SLP231 T01350071 57011
CWWF 192000Z AUTO 12015G20KT 22/13 RMK AO1 PK WND 13020/1921 SLP121 T02200132 58016
CWWK 192000Z AUTO 23002KT 14/12 RMK AO1 SLP188 T01410119 58002
CWWL 192000Z AUTO 15012KT 14/13 RMK AO1 SLP165 T01390126 51004
CWWS 192000Z AUTO 17002KT 15/09 RMK AO1 SLP179 T01460091 51004
CWWX 192000Z AUTO 24007KT 20/13 RMK AO1 SLP210 T02030127 55004
CWWZ 192000Z AUTO 06009KT 21/16 RMK AO1 SLP231 T02070160 58011
CWXA 192000Z AUTO 26006KT 17/02 RMK AO1 SLP105 T01670019 56018
CWXC 192000Z AUTO 19007KT 20/ RMK AO1 8008 SLP203 T0200 50003
CWXI 192000Z AUTO 22025KT 10/07 RMK AO1 PK WND 23032/1925 SLP144 T01020073 56011
CWXL 192000Z AUTO 16002KT 15/10 RMK AO1 T01480095
CWYJ 192000Z AUTO 12002KT 15/12 RMK AO1 SLP186 T01480124 54000
CWYL 192000Z AUTO 24009KT 15/03 RMK AO1 SLP131 T01530033 56013
CWYY 192000Z AUTO 21003KT 19/09 RMK AO1 SLP152 T01890092 58014
CWZA 192000Z AUTO 23004KT 18/12 RMK AO1 SLP173 T01770115 58003
CWZG 192000Z AUTO 21008KT 16/02 RMK AO1 SLP113 T01570020 56028
CWZL 192000Z AUTO 08001KT 15/ RMK AO1 SLP173 T0150 52006
CWZN 192000Z AUTO RMK AO1
CWZO 192000Z AUTO 19004KT RMK AO1
CWZQ 192040Z AUTO 34007KT 13/08 RMK AO1 T01340078
CWZV 192000Z AUTO 28018KT 14/14 RMK AO1 PK WND 28020/1959 SLP180 T01390138 55002
CWZW 192000Z AUTO 26012G17KT 15/03 RMK AO1 PK WND 25018/1903 SLP067 T01450032 52009
CWZZ 192000Z AUTO 22016G23KT ////SM BKN075 BKN090 14/06 A2946
CXAF 192000Z AUTO 22007KT 18/08 RMK AO1 T01790075
CXAG 192000Z AUTO 16007KT 17/08 RMK AO1 T01740075
CXAJ 192000Z AUTO 19008KT 18/09 RMK AO1 T01810086
CXAK 192000Z AUTO 16010KT 16/08 RMK AO1 T01570084
CXAT 192000Z AUTO 31005KT 03/01 RMK AO1 SLP030 T00320010 58008
CXBA 192000Z AUTO 13004KT 14/14 RMK AO1 T01370137 50012
CXBI 192000Z AUTO 15006KT 22/11 RMK AO1 SLP228 T02170114 58012
CXBK 192000Z AUTO 13014G22KT 24/09 RMK AO1 PK WND 12022/1952 SLP105 T02420087 58015
CXBO 192000Z AUTO 25009KT RMK AO1
CXBR 192000Z AUTO 13002KT 12/09 RMK AO1 T01240087
CXBW 192000Z AUTO 24004KT 13/09 RMK AO1 T01320094
CXCA 192000Z AUTO 00000KT 21/16 RMK AO1 SLP137 T02050162 53007
CXCD 192000Z AUTO 28009KT 17/08 RMK AO1 PK WND 28019/1916 T01740082
CXCK 192000Z AUTO 35001KT 13/05 RMK AO1 SLP053 T01300052 52012
CXCP 192000Z AUTO 34003KT 13/09 RMK AO1 T01260087
CXCS 192000Z AUTO 11004KT 11/10 RMK AO1 5PAST HR M P0002 T01090101 50014
CXDB 192000Z AUTO 29010KT 12/06 RMK AO1 T01230062
CXDE 192000Z AUTO 16004KT 07/04 RMK AO1 SLP991 T00740042 53013
CXDI 192000Z AUTO 14006KT 23/09 RMK AO1 SLP229 T02290087 58016
CXDK 192000Z AUTO 36004KT 17/04 RMK AO1 SLP979 T01660035 53006
CXDP 192000Z AUTO 21007KT 18/07 RMK AO1 T01830074
CXDW 192000Z AUTO 13006KT 22/13 RMK AO1 T02210126
CXEA 192000Z AUTO 04002KT 20/12 RMK AO1 SLP173 T02000120 51004
CXEC 192000Z AUTO 17007KT 19/08 RMK AO1 SLP114 T01880078 56017
CXEG 192000Z AUTO 19/06 RMK AO1 T01860064
CXET 192000Z AUTO 17006KT 23/09 RMK AO1 SLP230 T02290094 57013
CXFM 192000Z AUTO 27003KT 13/09 RMK AO1 T01290093
CXFR 192000Z AUTO 26014KT 17/07 RMK AO1 PK WND 26023/1943 T01690072
CXGH 192000Z AUTO 13006KT 15/12 RMK AO1 SLP167 T01490120 58002
CXHA 192000Z AUTO 11003KT 23/16 RMK AO1 SLP200 T02300163 57014
CXHD 192000Z AUTO 15008KT 17/06 RMK AO1 T01740055
CXHF 192000Z AUTO 21/12 RMK AO1 T02080121
CXHM 192000Z AUTO 16003KT RMK AO1 56012
CXHP 192000Z AUTO 21008KT 16/08 RMK AO1 T01620076
CXHR 192000Z AUTO 10003KT 12/11 RMK AO1 T01170106
CXIB 192000Z AUTO 09002KT 13/06 RMK AO1 SLP230 T01260061 58004
CXKA 192000Z AUTO 22011G21KT 23/17 RMK AO1 PK WND 23022/1935 SLP123 T02320174 53003
CXKE 192000Z AUTO 20004KT 23/11 RMK AO1 SLP238 T02330106 58013
CXKI 192000Z AUTO 24/14 RMK AO1 SLP171 T02380139 58008
CXKM 192000Z AUTO 16005KT 15/07 RMK AO1 T01530070
CXKT 192000Z AUTO 32004KT 18/05 RMK AO1 SLP228 T01810047 58016
CXLB 192000Z AUTO 11006KT 14/07 RMK AO1 SLP223 T01440067 56015
CXMD 192000Z AUTO 13005KT 22/11 RMK AO1 SLP159 T02170111 58009
CXMG 192000Z AUTO 21010KT 17/08 RMK AO1 T01720083
CXMI 192000Z AUTO 16007KT 14/ RMK AO1 T0139
CXMM 192000Z AUTO 20009KT 19/05 RMK AO1 PK WND 20018/1923 SLP080 T01930050 56023
CXMO 192000Z AUTO 18006KT 12/09 RMK AO1 T01230088
CXMY 192000Z AUTO 14/05 RMK AO1 T01430053
CXNM 192000Z AUTO 29007KT 10/03 RMK AO1 T01020031
CXNP 192000Z AUTO 27003KT 18/06 RMK AO1 SLP235 T01810056 58017
CXOL 192000Z AUTO 15008KT 16/08 RMK AO1 T01550077
CXOX 192000Z AUTO 15008KT 17/05 RMK AO1 SLP144 T01730047 58008
CXOY 192000Z AUTO 12004KT 12/12 RMK AO1 2PAST HR M P0005 T01150115 50012
CXPA 192000Z AUTO 24010KT 19/07 RMK AO1 PK WND 22019/1948 T01850074
CXPC 192000Z AUTO 23/10 RMK AO1 SLP210 T02320100 56017
CXPL 192000Z AUTO 05003KT 14/11 RMK AO1 T01370110
CXRB 192000Z AUTO 05015KT 01/M02 RMK AO1 PK WND 05020/1924 SLP085 T00091018 58001
CXRH 192000Z AUTO 36002KT 14/07 RMK AO1 T01350072
CXRL 192000Z AUTO 21007KT 18/07 RMK AO1 T01760069
CXSC 192000Z AUTO 36004KT 12/11 RMK AO1 T01220113
CXSE 192000Z AUTO 04008KT M02/M04 RMK AO1 SOG 01 7002 SLP132 T10211043
CXSH 192000Z AUTO 22008KT 19/08 RMK AO1 SLP242 T01910083 58013
CXSL 192000Z AUTO 21006KT 18/07 RMK AO1 T01770068
CXSP 192000Z AUTO 15010KT 18/07 RMK AO1 T01770066
CXTD 192000Z AUTO 36006KT 13/06 RMK AO1 SLP239 T01280056 58011
CXTH 192000Z AUTO 16010KT 19/05 RMK AO1 T01860049
CXTN 192000Z AUTO 14010KT 03/M00 RMK AO1 SOG 01 3014 PK WND 13020/1900 SLP036 T00291003
CXTO 192000Z AUTO 21/11 RMK AO1 SLP238 T02110114 57013
CXTP 192000Z AUTO 29004KT 17/08 RMK AO1 SLP185 T01680076 57002
CXTV 192000Z AUTO 33009KT 06/05 RMK AO1 SLP016 T00640048 53016
CXVM 192000Z AUTO 15006KT 15/09 RMK AO1 T01540091
CXVN 192000Z AUTO 15005KT 24/08 RMK AO1 SLP228 T02370082 58012
CXVW 192000Z AUTO 18009KT 15/08 RMK AO1 T01460083
CXWB 192000Z AUTO 33024G34KT 05/M00 RMK AO1 PK WND 33034/1959 SLP967 T00521001 53015
CXWM 192000Z AUTO 29003KT 13/10 RMK AO1 T01310097
CXWN 192000Z AUTO 04003KT 19/12 RMK AO1 SLP166 T01930122 58008
CXYH 192000Z AUTO 28004KT 18/05 RMK AO1 SLP958 T01750046 53006
CXZC 192000Z AUTO 28007G15KT 26/16 RMK AO1 PK WND 24017/1902 SLP084 T02580163 53015
CXZV 192000Z AUTO 14003KT 13/07 RMK AO1 SLP184 T01340074 56019
CYAB 192000Z 28006KT 20SM FEW007 FEW016 FEW025 OVC035 03/02 A2961 RMK SC1SC1SC1SC7 SC TR SC TR DIST -SHRA S W CIG ESTD SLP031
CYAH 192000Z AUTO 22015G20KT 9SM SCT013 BKN018 BKN024 OVC033 16/15 A2974 RMK SLP080 DENSITY ALT 1600FT
CYAM 192000Z 18005KT 150V220 20SM FEW028 BKN058 BKN140 OVC250 23/16 A3006 RMK SC1SC5AS2CI1 SC TR SLP180 DENSITY ALT 1600FT
CYAS 192025Z 25010KT 13SM -RA OVC004 13/13 A2920 RMK ST8 SLP895 DENSITY ALT 1100FT
CYAT 192000Z AUTO 32012G23KT 9SM OVC012 13/11 A2983 RMK SLP103
CYAW 192000Z 13005KT 15SM BKN230 15/08 A3021 RMK CS7 DA-12FT HALO SLP230
CYAY 192000Z AUTO 23021G30KT 9SM CLR 16/07 A2993 RMK SLP137
CYAZ 192000Z 19004KT 160V220 15SM FEW021 SCT081 BKN170 16/13 A3008 RMK CU1AC3AC3 SLP187 DENSITY ALT 100FT
CYBB 192041Z 36015KT 1 1/2SM BR BKN006 BKN050 03/01 A2953 RMK FG1SF5SC1 VIS SW 3SM SLP002
CYBC 192000Z AUTO 24018G25KT 9SM FEW140 BKN160 15/07 A3010 RMK SLP196
CYBD 192000Z 29013G18KT 10SM FEW021 SCT047 BKN063 OVC070 15/12 A3005 RMK SC2SC1SC4AC1 INTMT -RA SLP178
CYBG 192000Z 25008KT 25SM FEW060 BKN140 24/12 A3014 RMK SC1AC6 SLP211
CYBK 192000Z 32018G25KT 20SM BKN018 06/01 A2970 RMK SC7 SLP062
CYBL 192000Z 07004KT 20SM -SHRA BKN025 BKN070 OVC190 15/12 A3008 RMK SC5AC2AS1 CVCTV CLD EMBDD SLP187
CYBN 192000Z AUTO 16012KT 9SM CLR 25/11 A3018 RMK SLP219
CYBQ 192000Z AUTO 31007KT 260V330 9SM SCT034 12/04 A2988 RMK SLP133
CYBR 192000Z 11010KT 090V160 15SM BKN038 BKN250 22/13 A3000 RMK CU5CI2 SLP164 DENSITY ALT 2400FT
CYBU 192000Z AUTO 07008KT 9SM FEW060 BKN130 19/07 A2995 RMK SLP154 DENSITY ALT 1800FT
CYBV 192000Z 28005KT 15SM FEW020 FEW220 15/10 A3005 RMK SC1CS1 SLP181 DENSITY ALT 800FT
CYBW 192000Z AUTO 17008G15KT 110V190 9SM CLR 14/07 A2989 RMK SLP135 DENSITY ALT 4700FT
CYBX 192000Z 23011G19KT 15SM SCT250 10/07 A2997 RMK CI4 SLP152
CYCA 192000Z AUTO 24009KT 9SM CLR 18/04 A2976 RMK SLP080 DENSITY ALT 500FT
CYCB 192026Z 34008KT 10SM -SHSN FEW007 BKN017 BKN028 02/M02 A2979 RMK CF1CU4SC2 SLP093
CYCD 192000Z 07002KT 15SM SCT015 OVC140 17/12 A3006 RMK SC3AC5 SLP182 DENSITY ALT 200FT
CYCG 192000Z VRB08KT 15SM FEW048 18/09 A2995 RMK SC2 SLP146 DENSITY ALT 2400FT
CYCK 192000Z AUTO 16010KT 9SM CLR 23/15 A3014 RMK SLP208 DENSITY ALT 1400FT
CYCO 192000Z 08014KT 15SM FEW007 FEW011 BKN024 BKN040 OVC110 05/02 A2965 RMK SF1SC1SC4SC1AS2 SF TR SLP043
CYCP 192015Z 00000KT 15SM -SHRA FEW008 SCT030 BKN065TCU OVC110 11/08 A2999 RMK SF1CF2TCU4AC1 SLP172 DENSITY ALT 2300FT
CYCQ 192000Z 22016G27KT 35SM FEW050 FEW120 OVC220 16/07 A2971 RMK CU1AC2CI6 CU TR ACSL S+SW SLP075 DENSITY ALT 2900FT
CYCS 192000Z 30025G31KT 15SM BKN017 06/02 A2955 RMK ST7 SLP010
CYCX 192000Z 34005KT 15SM FEW110 19/05 A3020 RMK AC1 DA517FT SLP229
CYCY 192037Z 12007KT 25SM -DZSN FEW010 SCT015 BKN019 OVC026 02/01 A2958 RMK SF1SF3SC3SC1 SLP019
CYDA 192000Z 24007KT 210V280 20SM FEW013 SCT025 BKN059 BKN090 13/07 A2962 RMK ST1SC3SC2AC1 SLP043 DENSITY ALT 1700FT
CYDB 192000Z 11008KT 30SM FEW055 13/04 A2965 RMK CU1 SLP065 DENSITY ALT 3400FT
CYDC 192000Z 00000KT 25SM FEW035 FEW055 SCT150 BKN230 BKN260 15/08 A3003 RMK CF1CU1AC2CC3CI1 CF TR SLP170 DENSITY ALT 2700FT
CYDF 192000Z 26009G17KT 220V290 15SM FEW210 16/03 A3012 RMK CI2 SLP201
CYDL 192000Z AUTO 22006KT 9SM BKN075 BKN090 10/07 A2978 RMK SLP092 DENSITY ALT 2700FT
CYDN 192000Z AUTO 13010G15KT 9SM CLR 21/09 A2999 RMK SLP162 DENSITY ALT 1800FT
CYDP 192000Z 29011G17KT 15SM -SHRA OVC032 17/10 A2958 RMK SC8 SLP018 DENSITY ALT 700FT
CYDQ 192000Z AUTO 27015G20KT 9SM CLR 17/08 A2969 RMK SLP068 DENSITY ALT 3000FT
CYED 192000Z 18009KT 15SM FEW040 FEW120 18/08 A2984 RMK CU1AC1 DA3330FT SLP113
CYEG 192000Z 15009G17KT 120V200 20SM SCT043 19/06 A2984 RMK CU3 SLP120 DENSITY ALT 3500FT
CYEK 192000Z 32017G25KT 15SM OVC026 08/04 A2976 RMK SC8 SLP080
CYEN 192000Z AUTO 11013G24KT 9SM CLR 22/16 A2989 RMK SLP126 DENSITY ALT 3100FT
CYER 192000Z AUTO 30008G16KT 9SM OVC040 16/07 A2990 RMK SLP126 DENSITY ALT 100FT
CYET 192000Z AUTO 30003KT 210V320 9SM FEW050 17/06 A2981 RMK SLP113 DENSITY ALT 4000FT
CYEV 192029Z 28007KT 3/4SM R06/3000V5000FT/U -DZ BR OVC002 05/05 A2960 RMK FG7ST1 SLP029
CYFB 192015Z 15022G33KT 4SM R34/4500VP6000FT/U -RA BR OVC005 03/03 A2922 RMK FG3ST5 VIS VRB 3-5 SLP900
CYFC 192000Z AUTO 30004KT 9SM CLR 20/04 A3020 RMK SLP228 DENSITY ALT 300FT
CYFO 192000Z 16007KT 15SM SCT150 BKN250 17/08 A2999 RMK AC3CI2 SLP165 DENSITY ALT 1400FT
CYFR 192000Z 15010KT 15SM FEW100 BKN140 BKN250 16/08 A2949 RMK AC1AC5CI1 SLP993 DENSITY ALT 1300FT
CYFS 192000Z VRB02KT 15SM FEW120 BKN170 OVC200 14/07 A2941 RMK AC2AC3CI3 SLP966 DENSITY ALT 1200FT
CYFT 192000Z 23012KT 15SM FEW150 BKN220 20/09 A2967 RMK AC2CI3 LAST STFD OBS/NEXT 200900 UTC SLP051 DENSITY ALT 1200FT
CYGE 192000Z 30009KT 20SM FEW065 FEW120 FEW230 15/08 A2992 RMK CU2AC1CI1 AC TR CI TR SLP143 DENSITY ALT 3200FT
CYGH 192000Z 28009KT 25SM SCT045 BKN100 09/05 A2953 RMK SC3AC3 SLP007
CYGK 192000Z 18008KT 15SM BKN240 19/14 A3026 RMK CI5 SLP250 DENSITY ALT 500FT
CYGL 192000Z 21010G17KT 10SM -RA SCT006 OVC010 17/16 A2967 RMK SF4SC4 CIG RAG SLP052 DENSITY ALT 1400FT
CYGP 192000Z 23006KT 15SM SKC 20/05 A3010 RMK SLP197 DENSITY ALT 600FT
CYGQ 192000Z 25005KT 15SM SCT023 OVC033 20/15 A2996 RMK SC4SC4 SLP150 DENSITY ALT 2000FT
CYGR 192000Z 22010KT 20SM FEW270 14/06 A3021 RMK CI1 SLP233
CYGT 192000Z 08018G25KT 5SM -RA BR SCT006 OVC008 02/02 A2934 RMK ST4SC4 SLP943
CYGV 192000Z AUTO 26012G18KT 9SM CLR 12/07 A3008 RMK SLP190
CYGW 192033Z AUTO 27012G18KT 1 1/2SM -RA BR 09/09 A2963 RMK PRESRR CLD MISG SLP035
CYGX 192000Z 27014G19KT 15SM FEW110 SCT230 SCT240 18/07 A2991 RMK AC1CI3CC1 AC TR CC TR SLP135 DENSITY ALT 1000FT
CYHA 192030Z 17013KT 15SM -RA SCT003 BKN010TCU OVC032TCU 10/10 A2917 RMK SF3TCU3TCU2 OCNL -SHRA SLP881 DENSITY ALT 500FT
CYHD 192040Z AUTO 28006KT 9SM SCT021 OVC029 19/14 A3003 RMK SLP176 DENSITY ALT 1900FT
CYHE 192000Z AUTO 29010G16KT 260V350 9SM CLR 18/11 A3003 RMK SLP171 DENSITY ALT 400FT
CYHI 192024Z 10020G29KT 15SM -RA VCSH BKN011 02/M01 A2975 RMK SC7 VIS N 5 / SH N STTN / CIG RAG / VRBL CIG 10-13 SLP080
CYHK 192000Z 03013KT 10SM BKN018 BKN027 04/02 A2966 RMK SC5SC1 SLP048
CYHM 192000Z 15009KT 15SM BKN250 22/09 A3021 RMK CI6 CONTRAILS SLP230 DENSITY ALT 1500FT
CYHU 192000Z AUTO 16003KT 100V200 9SM SCT240 21/06 A3026 RMK SLP247 DENSITY ALT 400FT
CYHY 192000Z 20011G17KT 15SM BKN130 BKN150 18/08 A2946 RMK AC5AS2 SLP981 DENSITY ALT 1600FT
CYHZ 192000Z 02009KT 350V060 15SM BKN280 17/02 A3020 RMK CI6 SLP232 DENSITY ALT 500FT
CYIN 192028Z AUTO 09003KT 060V170 9SM OVC050 13/05 A2999 RMK SLP172 DENSITY ALT 4200FT
CYIO 192000Z 07014KT 35SM FEW023 FEW040 SCT050 BKN065 BKN071 02/01 A2959 RMK SC1SC1SC1SC3AC1 SLP027
CYIV 192000Z 00000KT 15SM FEW030 BKN250 14/07 A3004 RMK SC1CI5 SC TR SLP182
CYJF 192000Z 26008G25KT 210V350 15SM FEW120 SCT190 BKN220 BKN240 20/05 A2946 RMK AC2AC2CI1CI1 AC LENT 190 SLP981 DENSITY ALT 2000FT
CYJT 192000Z 24013KT 15SM FEW022 12/09 A3019 RMK SC2 SLP226
CYKA 192000Z 20003KT 40SM FEW040 BKN130 BKN220 15/08 A2999 RMK CU1AC5CI2 CU TR SLP164 DENSITY ALT 1400FT
CYKD 192000Z 32012G20KT 15SM SCT014 BKN035 BKN058 05/02 A2962 RMK SC4SC1SC2 VIS LWR E SLP033
CYKF 192000Z AUTO 16009KT 9SM CLR 23/10 A3020 RMK SLP227 DENSITY ALT 1800FT
CYKG 192000Z 22009KT 5SM -RA BR FEW011 SCT026 BKN036 BKN055 OVC100 13/12 A2912 RMK SC1SC2SC2SC2AS1 SLP870 DENSITY ALT 1400FT
CYKJ 192000Z AUTO 23011G17KT 9SM FEW050 SCT065 18/05 A2985 RMK SLP125 DENSITY ALT 2400FT
CYKL 192030Z AUTO 24014G20KT 9SM -RA BKN090 OVC120 16/12 A2972 RMK SLP078 DENSITY ALT 2300FT
CYKO 191900Z 32022G31KT 7SM SCT007 OVC057 08/07 A2931 RMK SC5SC3 LAST OB NEXT / 201200 UTC PRESRR SLP927
CYKP 192000Z AUTO 30009G15KT 9SM BKN013 OVC022 13/11 A2994 RMK SLP137
CYKQ 192000Z 22018G27KT 12SM -RA BKN039 OVC072 22/17 A2978 RMK SC5AS3 SLP085 DENSITY ALT 1100FT
CYKY 192000Z 34006KT 290V030 15SM -SHRA BKN006 OVC060 13/12 A2990 RMK SC5SC3 TCU EMBD SLP136 DENSITY ALT 2700FT
CYLA 192000Z 21013G19KT 15SM FEW006 BKN014 15/15 A2926 RMK SF1SC8 SF TR SLP910 DENSITY ALT 1000FT
CYLC 192010Z CCA 17010KT 0SM -DZ FG VV002 07/07 A2918 RMK FG8 0.1/0 LASTSTFD OBS/NXT 201200Z SLP887
CYLD 192000Z 21009KT 14SM -DZ OVC009 19/17 A3005 RMK ST8 BR SLP185 DENSITY ALT 2100FT
CYLH 192000Z AUTO 31005KT 270V020 9SM OVC014 13/11 A2998 RMK SLP161
CYLJ 192000Z 12005KT 15SM FEW130 BKN210 18/09 A2989 RMK AC2CI4 SLP135 DENSITY ALT 2300FT
CYLK 192000Z 13010KT 110V190 25SM SCT170 BKN220 16/07 A2957 RMK AC3CI4 WSHFT 1956 SLP023 DENSITY ALT 1300FT
CYLL 192000Z 14007KT 15SM FEW055 OVC250 15/09 A2990 RMK SC1CI7 SLP139 DENSITY ALT 2700FT
CYLT 192000Z 30003KT 1SM BR FEW120 BKN220 M13/M15 A3009 RMK FG2AC1CI2 LAST OBS/NEXT 200500 UTC VIS HIER W SLP194
CYLU 192038Z 14014G20KT 3SM -DZRA BR FEW003 BKN005 OVC010 13/12 A2942 RMK ST2ST5ST1 CIG RAG SLP967 DENSITY ALT 600FT
CYLW 192000Z AUTO 35003KT 300V040 9SM CLR 17/11 A2999 RMK SLP160 DENSITY ALT 1900FT
CYMA 192000Z 23005KT 10SM -RA FEW005 SCT010 OVC051 09/08 A2961 RMK SF1SC3SC4 SLP048 DENSITY ALT 1700FT
CYMH 192000Z AUTO 25010G17KT 9SM CLR 20/05 A2983 RMK SLP103 DENSITY ALT 700FT
CYMJ 192000Z 11007KT 15SM FEW048 FEW100 BKN260 23/11 A2985 RMK CU1AC1CS6 SLP115
CYMM 192000Z AUTO 19008KT 160V220 9SM BKN065 20/07 A2975 RMK SLP085 DENSITY ALT 2200FT
CYMO 192000Z AUTO 26011G17KT 9SM FEW060 SCT073 SCT140 26/18 A2977 RMK SLP084 DENSITY ALT 1400FT
CYMT 192000Z AUTO 21017G24KT 9SM OVC120 22/11 A3001 RMK SLP166 DENSITY ALT 2200FT
CYMU 192000Z 27007KT 210V300 1/4SM SHRA FG VV001 09/09 A2956 RMK FG8 SLP013
CYMX 192000Z 20004KT 140V230 45SM FEW040 SCT150 BKN260 21/10 A3025 RMK SC2AC2CI3 SLP247 DENSITY ALT 700FT
CYNA 192000Z AUTO 26010G16KT 9SM CLR 11/07 A3007 RMK SLP185
CYNC 192000Z 23010G19KT 2 1/2SM -SHRA BKN002 OVC021 14/14 A2968 RMK SF6SC2 CVCTV CLD EMBD LAST STFD OBS/NEXT 201300UTC SLP053 DENSITY ALT 300FT
CYND 192000Z 16006KT 130V210 15SM FEW200 SCT250 23/12 A3022 RMK CI1CI3 CI TR SLP237 DENSITY ALT 900FT
CYNE 192000Z AUTO VRB02KT 9SM CLR 16/06 A3002 RMK SLP175 DENSITY ALT 900FT
CYNM 192000Z AUTO 22013G22KT 190V260 9SM BKN038 22/15 A2996 RMK SLP151 DENSITY ALT 1800FT
CYOA 192020Z 14015KT 15SM SCT013 BKN025 BKN220 08/04 A2961 RMK SC3SC2CS2
CYOC 192000Z 13003KT 020V190 15SM OVC011 04/01 A2964 RMK ST8 VIS W-N 3 SLP053
CYOD 192000Z 22007KT 15SM FEW050 SCT220 18/06 A2988 RMK CU2CI2 SLP130
CYOJ 192041Z 22003KT 170V280 10SM -RA OVC070 13/08 A2959 RMK AC8 SLP035 DENSITY ALT 1600FT
CYOO 192000Z AUTO 14006KT 100V180 9SM CLR 20/12 A3023 RMK SLP238 DENSITY ALT 800FT
CYOW 192000Z 16010KT 15SM FEW220 FEW250 24/11 A3023 RMK CI1CI2 CI TR SLP239 DENSITY ALT 1100FT
CYOY 192000Z 28006KT 220V300 15SM FEW100 BKN250 18/09 A3024 RMK AC1CI6 DA860FT SLP246
CYPA 192000Z 08007KT 15SM -SHRA SCT050 OVC080 17/09 A2995 RMK SC3AC5 SLP157 DENSITY ALT 1900FT
CYPC 192008Z 04003KT 030V130 15SM FEW040 BKN060 BKN093 06/03 A2958 RMK SC1SC5AC2 SC TR SLP018
CYPD 192000Z AUTO 29008KT 9SM CLR 13/04 A3020 RMK SLP232
CYPE 192040Z 27006KT 15SM -SHRA SCT048 BKN090 17/09 A2966 RMK SC3AC4 CVCTV CLD EMBD SLP059 DENSITY ALT 2800FT
CYPG 192000Z 11003KT 15SM FEW027 FEW240 21/14 A3001 RMK CU1CI2 DA1872FT SLP166
CYPH 192036Z AUTO 32023G32KT 9SM OVC011 08/06 A2952 RMK PRESRR SLP998
CYPL 192000Z AUTO 00000KT 9SM BKN019 OVC024 14/11 A3002 RMK SLP175 DENSITY ALT 1300FT
CYPO 192000Z AUTO 35012G19KT 9SM FEW031 14/07 A2989 RMK SLP121
CYPQ 192000Z AUTO 14008KT 120V180 9SM CLR 22/09 A3023 RMK SLP240 DENSITY ALT 1200FT
CYPR 192032Z AUTO 14004KT 130V190 9SM SCT008 OVC017 13/13 A3002 RMK SLP169
CYPW 192000Z VRB03KT 15SM -RA OVC008 14/12 A3008 RMK ST8 VRY LGT PCPN VIS N-E 2 LO CLD SLP189
CYPX 192024Z AUTO 30026G34KT 9SM SCT006 OVC012 08/06 A2938 RMK SLP952
CYPY 192000Z AUTO 19006G18KT 160V220 9SM 20/08 A2967 RMK CLD MISG SLP055 DENSITY ALT 1700FT
CYQA 192000Z AUTO 17008KT 9SM CLR 23/10 A3020 RMK SLP229 DENSITY ALT 1700FT
CYQB 192000Z 26010G15KT 30SM FEW050 FEW100 BKN250 19/10 A3025 RMK SC1AC1CI5 SC TR AC TR SLP246 DENSITY ALT 500FT
CYQD 192000Z AUTO 10005G15KT 080V180 9SM FEW190 17/08 A2999 RMK SLP162 DENSITY ALT 1200FT
CYQF 192000Z 16010KT 15SM SCT040 16/07 A2987 RMK CU4 SLP130 DENSITY ALT 3900FT
CYQG 192000Z AUTO 18007KT 9SM CLR 24/17 A3014 RMK SLP207 DENSITY ALT 1500FT
CYQH 192000Z 28016G23KT 30SM BKN062 OVC100 14/04 A2963 RMK SC5AC3 CU EMBD SLP048 DENSITY ALT 3000FT
CYQI 192000Z 33013KT 15SM BKN250 16/08 A3021 RMK CI5 SLP233
CYQK 192000Z 07004KT 20SM BKN015 17/14 A3005 RMK SC7 SLP181 DENSITY ALT 1800FT
CYQL 192041Z 00000KT 45SM -SHRA BKN013 BKN035 12/09 A2991 RMK CU6SC1 SLP139 DENSITY ALT 3500FT
CYQM 192000Z 27004KT 230V300 15SM FEW220 19/03 A3019 RMK CI1 CI TR SLP227 DENSITY ALT 500FT
CYQQ 192025Z 36007KT 20SM -SHRA FEW030 BKN072 OVC085 16/12 A3008 RMK SC2AC5AS2 SLP188
CYQR 192000Z 14012G18KT 15SM FEW048 BKN270 23/11 A2987 RMK CU1CI7 CU TR CS ASOCTD SLP120 DENSITY ALT 3300FT
CYQT 192000Z 32007KT 20SM BKN044 24/16 A2996 RMK SC7 SLP148 DENSITY ALT 1900FT
CYQU 192000Z 26019G29KT 25SM FEW055 BKN090 BKN240 16/07 A2973 RMK CU2AC3CI2 SLP083 DENSITY ALT 3100FT
CYQV 192000Z AUTO 14013KT 9SM CLR 21/13 A2995 RMK SLP152 DENSITY ALT 2700FT
CYQW 192030Z AUTO 04004KT 9SM FEW075 OVC086 12/11 A2993 RMK SLP149 DENSITY ALT 1800FT
CYQX 192000Z 26006KT 20SM FEW047 FEW260 18/07 A3007 RMK CU1CI1 CU TR CI TR SLP187 DENSITY ALT 800FT
CYQY 192000Z 04005KT 15SM BKN250 15/00 A3019 RMK CI5 SLP227
CYQZ 192000Z AUTO 00000KT 9SM -RA BKN036 OVC055 12/09 A2996 RMK SLP162
CYRA 192044Z 10004KT 15SM OVC010 08/06 A2944 RMK SC8 SLP981
CYRB 192000Z 04015KT 15SM BKN074 01/M02 A2979 RMK AC7 SLP094
CYRJ 192000Z 20008KT 160V230 40SM SCT095 OVC110 22/13 A3010 RMK AC4AS4 SLP198 DENSITY ALT 1400FT
CYRL 192000Z 23004KT 110V280 15SM SCT025 19/12 A3003 RMK SC4 SLP175 DENSITY ALT 2000FT
CYRQ 192000Z AUTO 21011KT 9SM CLR 19/09 A3024 RMK SLP245 DENSITY ALT 300FT
CYRT 192000Z 32024G29KT 30SM BKN020 BKN250 05/01 A2962 RMK SC6CI1 PRESRR SLP035
CYRV 192000Z AUTO 19006KT 160V240 9SM FEW085 SCT200 18/11 A2996 RMK SLP150 DENSITY ALT 2000FT
CYSB 192000Z 20016KT 20SM SCT140 BKN250 21/11 A3015 RMK AC4CI3 ACC AND CC ASOCTD SLP215 DENSITY ALT 1900FT
CYSC 192000Z AUTO 30003KT 240V320 9SM FEW250 19/04 A3028 RMK SLP260 DENSITY ALT 1000FT
CYSF 192000Z AUTO 14007KT 100V210 9SM CLR 16/07 A2979 RMK SLP101 DENSITY ALT 1300FT
CYSJ 192000Z 20009KT 160V230 15SM FEW290 18/08 A3021 RMK CI2 SLP236 DENSITY ALT 500FT
CYSK 192014Z 31019G28KT 8SM OVC005 07/07 A2962 RMK SF8 PRESRR SLP035
CYSM 192000Z 14015G//KT 15SM FEW170 BKN210 BKN240 19/08 A2959 RMK AC2CI3CI1 WND ESTD SLP027 DENSITY ALT 1700FT
CYSN 192000Z 19009KT 140V200 15SM BKN250 24/10 A3020 RMK CI7 SLP230 DENSITY ALT 1100FT
CYSP 192000Z VRB02KT 8SM SCT006 BKN025 BKN260 16/15 A2999 RMK ST3SC2CI2 BR SLP161 DENSITY ALT 1400FT
CYSY 192000Z 12017KT 15SM FEW080 OVC090 03/00 A2967 RMK AC2AS6 VIA CYHZ SLP057
CYTE 192037Z AUTO 24011G16KT 1 1/4SM BR BKN002 OVC018 05/05 A2907 RMK SLP850
CYTH 192000Z 24009KT 15SM FEW045 SCT160 BKN210 19/09 A2996 RMK CU2AC1CI2 SLP154 DENSITY ALT 1300FT
CYTL 192000Z AUTO 29009KT 9SM OVC025 13/08 A3000 RMK SLP168
CYTR 192000Z 17007KT 15SM SCT240 22/08 A3024 RMK CI3 SLP243
CYTS 192000Z 21006G17KT 180V270 15SM OVC025 21/16 A3001 RMK SC8 SLP168 DENSITY ALT 1800FT
CYTZ 192000Z AUTO 07008KT 9SM CLR 20/15 A3021 RMK SLP232 DENSITY ALT 500FT
CYUA 192000Z AUTO 31010KT ////SM FEW010 BKN015 BKN019 03/02 A2964
CYUB 192000Z 34005KT 15SM FEW008 OVC048 05/04 A2957 RMK ST1SC8 ST TR SLP014
CYUL 192000Z 20004KT 160V240 30SM BKN250 21/08 A3025 RMK CI7 CC ASOCTD SLP247 DENSITY ALT 500FT
CYUS 192000Z AUTO 01011G18KT 320V050 ////SM //// FEW016 SCT022 BKN037 03/01 A2962
CYUT 192000Z 34024G35KT 15SM -RA BKN025 03/02 A2923 RMK SC6 SLP900
CYUX 192000Z 07024G32KT 4SM -RA BR BKN011 OVC017 04/03 A2927 RMK ST7SC1 CIG RAG SLP914
CYUY 192000Z 20011G16KT 15SM BKN075 BKN100 21/14 A3006 RMK AC5AC2 SLP185 DENSITY ALT 1800FT
CYVC 192000Z 15010KT 15SM FEW120 BKN250 18/06 A2994 RMK AC2CI3 SLP151 DENSITY ALT 1900FT
CYVL 192000Z AUTO 23005KT 130V240 9SM OVC019 08/04 A2949 RMK SLP003
CYVM 192000Z 19007KT 10SM -DZ FEW025 SCT055 OVC069 06/00 A2944 RMK SC2SC2AS4 VRY LGT DZ VIS LWR S-W SLP972
CYVO 192000Z 20011G22KT 15SM SCT120 BKN160 BKN210 23/12 A3009 RMK AC4AC2CI1 SLP195 DENSITY ALT 2100FT
CYVP 192000Z 22013G19KT 15SM SCT013 OVC016 17/15 A2938 RMK SF3SC5 CIG RAG OCNL -SHRA CVCTV CLD EMBD SLP953 DENSITY ALT 1100FT
CYVQ 192000Z 28015KT 30SM FEW025 BKN060 BKN085 OVC130 10/07 A2951 RMK SC1SC7AC1AC1 SC TR AC TR SLP999
CYVR 192034Z 23004KT 190V250 15SM FEW012 BKN014 BKN020 OVC025 15/13 A3006 RMK SC2SC3SC2SC1 SLP182
CYVT 192000Z 17011G17KT 15SM FEW052 FEW220 19/06 A2984 RMK CU1CI1 CU TR SLP113 DENSITY ALT 2400FT
CYVV 192000Z 18007KT 150V210 15SM BKN200 BKN250 25/11 A3016 RMK CI5CC2 SLP213 DENSITY ALT 1800FT
CYWA 192000Z AUTO 19007KT 160V260 9SM CLR 26/10 A3019 RMK SLP223
CYWE 192000Z AUTO 10011KT 9SM OVC100 09/06 A2950 RMK SLP010
CYWG 192000Z 10005KT 050V140 15SM FEW018 FEW250 20/13 A3002 RMK SC1CI1 SLP169 DENSITY ALT 1400FT
CYWH 192006Z 14006KT 110V170 15SM FEW004 FEW018 BKN100 BKN220 14/12 A3008 RMK SF1CU2AC4CI1 SF TR SLP189
CYWJ 192000Z 16003KT 40SM FEW018 BKN025 BKN095 08/05 A2946 RMK SC1SC4AC2 SLP989
CYWK 192000Z 23019KT 15SM SCT120 23/10 A2984 RMK AC3 SLP118 DENSITY ALT 3200FT
CYWL 192000Z 14003KT 110V180 15SM -RA FEW015 OVC055 11/07 A2999 RMK CU1SC8 CU TR SLP175 DENSITY ALT 3300FT
CYWY 192000Z VRB02KT 15SM FEW050 FEW100 SCT120 BKN250 11/07 A2944 RMK SC1AC1AS2CI3 SLP976 DENSITY ALT 700FT
CYXC 192000Z 14006KT 25SM FEW052 SCT250 16/08 A2993 RMK SC2CI2 SLP141 DENSITY ALT 3900FT
CYXE 192000Z 05004KT 350V130 15SM FEW030 FEW090 BKN300 19/14 A2987 RMK CF1AC2CI4 CF TR SLP124 DENSITY ALT 2600FT
CYXH 192000Z VRB02KT 30SM BKN014 OVC070 13/11 A2990 RMK SC7AC1 SLP133 DENSITY ALT 2800FT
CYXJ 192000Z 24013G23KT 60SM FEW044 FEW070 BKN190 BKN240 19/08 A2967 RMK CU1AC1AC5CI1 CU TR AC TR SLP058 DENSITY ALT 3600FT
CYXL 192000Z 32006KT 15SM BKN020 OVC030 18/14 A3002 RMK SC6SC2 SLP172 DENSITY ALT 1900FT
CYXN 192000Z 32026KT 15SM BKN026 07/02 A2966 RMK SC5 SLP045
CYXP 192000Z 11028G38KT 2 1/2SM RA OVC025 04/01 A2936 RMK SC8 SLP946
CYXQ 192000Z 07004KT 010V100 30SM FEW045 FEW100 12/04 A2964 RMK CU1AC1 AC TR FU SLP059 DENSITY ALT 2600FT
CYXR 192000Z AUTO 19016G24KT 9SM BKN100 23/14 A3006 RMK SLP182 DENSITY ALT 1700FT
CYXS 192000Z AUTO 18015G20KT 9SM FEW012 12/09 A2991 RMK SLP144 DENSITY ALT 2400FT
CYXT 192000Z 16018G26KT 20SM -SHRA FEW008 SCT025 OVC050 13/11 A2997 RMK SF1SC3SC5 SF TR SLP155
CYXU 192000Z 15011G19KT 15SM BKN230 24/10 A3018 RMK CI7 SLP220 DENSITY ALT 1900FT
CYXX 192000Z 23006KT 200V260 8SM SCT030 BKN160 OVC200 16/12 A3007 RMK CU3AC2CI3 HZ SLP185 DENSITY ALT 200FT
CYXY 192000Z 34003KT 310V020 40SM FEW060 SCT160 14/04 A2967 RMK CU2AC2 SLP063 DENSITY ALT 3100FT
CYXZ 192016Z 23007G15KT 190V260 1 1/2SM BR OVC003 17/17 A3003 RMK ST8 SLP174 DENSITY ALT 1400FT
CYYB 192000Z 28012G18KT 30SM BKN150 OVC270 21/15 A3018 RMK AC6CI2 SLP222 DENSITY ALT 1900FT
CYYC 192000Z 18009KT 40SM FEW030 FEW140 FEW200 FEW270 15/08 A2989 RMK CU2AC1CI1CI1 AC TR CI TR CI TR SLP135 DENSITY ALT 4500FT
CYYD 192000Z VRB02KT 25SM FEW025 BKN060 BKN100 OVC230 15/10 A2988 RMK SF1SC5AC1CI2 SF TR SLP126 DENSITY ALT 2200FT
CYYE 192000Z 16006KT 30SM SCT077 BKN220 19/09 A2955 RMK AC3CI2 SLP015 DENSITY ALT 2400FT
CYYF 192000Z 02003KT 320V040 15SM FEW050 SCT160 BKN220 19/08 A2998 RMK CU1AC2CI4 SLP153 DENSITY ALT 1800FT
CYYG 192000Z 13007KT 110V180 15SM SCT260 16/06 A3020 RMK CI3 SLP231
CYYH 192000Z 01014KT 15SM SCT013 SCT018 BKN028 BKN067 05/00 A2962 RMK SC3SC1SC2AC1 SLP034
CYYJ 192000Z 10005KT 30SM FEW026 FEW120 SCT150 BKN250 15/13 A3007 RMK SC1AC1AC2CI4 SC TR SLP184
CYYL 192000Z AUTO 25008KT 180V270 9SM CLR 18/08 A2991 RMK SLP143 DENSITY ALT 1700FT
CYYN 192000Z AUTO 09008KT 070V150 9SM FEW230 21/07 A2984 RMK SLP104 DENSITY ALT 4000FT
CYYQ 192000Z 35012KT 15SM SCT041 11/07 A2985 RMK SC3 SLP110
CYYR 192000Z 23014G19KT 15SM FEW120 SCT250 OVC300 22/07 A2980 RMK ACC1CI3CI5 SLP093
CYYT 192000Z 27014KT 15SM FEW240 14/06 A3012 RMK CI1 SLP204
CYYU 192000Z 23017G24KT 15SM FEW026 BKN046 23/17 A2993 RMK SC2SC4 VIA CYXU SLP138 DENSITY ALT 1900FT
CYYW 192000Z AUTO 32008KT 9SM OVC044 19/14 A2998 RMK SLP145 DENSITY ALT 1600FT
CYYY 192000Z 27007KT 210V280 30SM FEW070 16/09 A3013 RMK AC1 SLP206 DENSITY ALT 200FT
CYYZ 192000Z 15009G19KT 15SM BKN260 22/13 A3021 RMK CI6 SLP230 DENSITY ALT 1300FT
CYZE 192000Z AUTO 16010KT 9SM BKN140 21/15 A3013 RMK SLP205 DENSITY ALT 1100FT
CYZF 192000Z 14017G23KT 15SM FEW015 BKN100 BKN220 12/08 A2946 RMK SC1AC6CI1 SC TR SLP988 DENSITY ALT 1000FT
CYZG 192000Z 26021KT 1 1/2SM -SHRA BR FEW003 BKN007 OVC012 08/08 A2919 RMK ST2ST4ST2 VIS VRB 1-2 SLP895 DENSITY ALT 1000FT
CYZH 192013Z AUTO 19008G16KT 150V240 9SM FEW060 19/05 A2973 RMK SLP080 DENSITY ALT 3000FT
CYZP 192000Z AUTO 26012KT 9SM BKN160 BKN210 18/13 A3001 RMK SLP164 DENSITY ALT 200FT
CYZR 192000Z AUTO 15011KT 100V180 9SM CLR 26/15 A3013 RMK RVR MISG SLP204 DENSITY ALT 1700FT
CYZS 192000Z 28018G23KT 12SM VCSH SCT015 OVC050 05/03 A2913 RMK SC3SC5 SLP870
CYZT 192000Z 36004KT 15SM FEW012 FEW022 FEW055 BKN074 BKN220 14/13 A3011 RMK SF1CU1SC1AC4CI1 SF TR SLP198
CYZU 192000Z 18010G16KT 15SM FEW220 16/07 A2980 RMK CI2 SLP106 DENSITY ALT 3400FT
CYZV 192000Z 15004KT 110V210 30SM FEW070 BKN130 BKN250 14/08 A3007 RMK CU1AC5CI2 CU TR SLP186
CYZW 192000Z 24012G18KT 30SM SCT055 BKN120 15/04 A2969 RMK SC3AC4 SLP068 DENSITY ALT 3100FT
CYZX 192000Z 32005KT 15SM BKN250 18/02 A3022 RMK CI5 SLP235
CYZY 192000Z AUTO 15008G16KT 9SM SCT043 SCT140 14/09 A2981 RMK SLP108 DENSITY ALT 2700FT
CZBF 192000Z AUTO 34004KT 270V020 9SM CLR 21/04 A3017 RMK SLP219 DENSITY ALT 600FT
CZCP 192000Z AUTO 11011KT ////SM //// BKN049 04/03 A2959
CZCR 192000Z AUTO 05002KT 18/08 RMK AO1 T01830079
CZDB 192000Z AUTO 04007KT 17/04 RMK AO1 SLP233 T01700039 58013
CZEL 192000Z AUTO 16008KT 22/09 RMK AO1 SLP240 T02170087 58011
CZEM 191800Z 22010G18KT 15SM BKN032 BKN110 21/17 A2972 RMK SC5AC2 LAST STFD OBS/NEXT 221400 UTC SLP064 DENSITY ALT 1000FT
CZEV 192000Z AUTO 30007KT 05/05 RMK AO1 SLP026 T00480048 53017
CZFA 192000Z 28006KT 240V330 30SM FEW032 SCT048 BKN081 12/04 A2961 RMK SC1SC3AC3 SLP045 DENSITY ALT 2900FT
CZFM 192000Z 34004KT 280V010 35SM FEW018 BKN032 06/04 A2962 RMK SC1SC6 SLP034
CZFN 192000Z 27008KT 220V290 15SM OVC056 12/06 A2948 RMK SC8 SLP989 DENSITY ALT 700FT
CZFS 192000Z AUTO 29001KT 14/07 RMK AO1 SLP968 T01440066 53004
CZHY 192000Z AUTO 19011KT 18/08 RMK AO1 PK WND 19017/1927 SLP975 T01790075 56012
CZMD 192000Z AUTO 31005KT 210V330 9SM BKN024 13/08 A3003 RMK SLP179
CZMJ 192000Z AUTO 13007KT 24/09 RMK AO1 SLP116 T02390086 58017
CZMT 192035Z 32006KT 15SM -RA FEW005 FEW015 SCT020 BKN030 OVC180 15/11 A3003 RMK SC1SC1SC2SC3CI1 SLP172
CZMU 192000Z AUTO 17007KT 19/07 RMK AO1 T01900073
CZOL 192000Z AUTO 20004KT 18/07 RMK AO1 T01750071
CZPC 192000Z AUTO 27006KT 210V300 9SM FEW032 SCT055 13/05 A2993 RMK SLP141 DENSITY ALT 4500FT
CZPS 192000Z AUTO 16009KT 16/08 RMK AO1 T01610078
CZRP 192000Z AUTO 01009KT M06/M06 RMK AO1 SLP157 T10561062 56001
CZSJ 192000Z AUTO 31005KT 270V010 9SM OVC014 11/09 A3005 RMK SLP185
CZSM 192000Z AUTO 17009G17KT 19/08 RMK AO1 PK WND 14018/1904 SLP026 T01940083 56022
CZSP 192000Z AUTO 01004KT 15/04 RMK AO1 SLP233 T01490037 58015
CZST 192030Z 24007KT 200V280 10SM -RA FEW012 OVC055 13/12 A2990 RMK SC2SC6 SLP127
CZTB 192000Z AUTO 32008KT 24/16 RMK AO1 SLP147 T02430156 53003
CZUM 192000Z AUTO 22009G15KT 180V270 9SM BKN120 22/10 A2979 RMK SLP101 DENSITY ALT 2700FT
CZVL 192000Z AUTO 19009KT 9SM CLR 18/07 A2983 RMK SLP113 DENSITY ALT 3100FT
CZZJ 192000Z AUTO 24004KT 16/02 RMK AO1 SOG 02 7018 SLP119 T01630021
DAAD 191800Z 21009KT 8000 SCT026 32/15 Q1015
DAAE 192000Z 19003KT 7000 FEW020 SCT090 24/22 Q1016
DAAG 192030Z 05005KT 010V070 7000 FEW020 SCT090 24/22 Q1017
DAAJ 192000Z 07011KT CAVOK 28/M03 Q1022
DAAP 192000Z 10006KT 8000 NSC 30/08 Q1019
DAAS 192000Z 16003KT 9999 FEW030 24/08 Q1021
DAAT 192030Z 17005KT CAVOK 27/M04 Q1024
DAAV 192000Z 24002KT 7000 FEW016 25/23 Q1016
DAAY 192000Z 18014KT 7000 SCT030 30/02 Q1021
DABB 192030Z 08004KT 060V120 8000 FEW023 SCT030 24/22 Q1016
DABC 192030Z VRB02KT 9999 FEW026 SCT100 22/20 Q1020
DABS 192000Z 31004KT 9999 FEW033 23/09 Q1021
DABT 192000Z 22011KT CAVOK 27/02 Q1020
DAFH 191800Z 21006KT 9999 SCT030 SCT100 33/07 Q1019
DAOB 192000Z 29004KT CAVOK 22/17 Q1021
DAOF 192000Z 32006KT 9999 FEW046 35/02 Q1012
DAOI 192000Z 00000KT 9999 FEW026 SCT100 25/19 Q1015
DAOL 192000Z 07008KT 7000 FEW030 SCT233 24/20 Q1016
DAON 192030Z 31002KT 9999 FEW026 22/19 Q1016
DAOO 192030Z 07006KT 9999 FEW010 SCT233 24/21 Q1016
DAOR 192000Z 16011KT 9999 FEW033 34/01 Q1017
DAOV 192000Z 35005KT 8000 FEW030 BKN233 21/19 Q1018
DAOY 192000Z 19010KT 9999 FEW030 26/M01 Q1022
DATM 191800Z 07009KT CAVOK 39/// Q1011
DAUA 192000Z 34006KT CAVOK 36/// Q1012
DAUB 192000Z 06005KT 9999 SCT040 30/13 Q1015
DAUE 192000Z 07004KT CAVOK 33/M04 Q1016
DAUG 192000Z 00000KT 9999 FEW046 SCT100 33/01 Q1018
DAUH 192030Z 11003KT CAVOK 34/09 Q1016
DAUI 192000Z 00000KT CAVOK 33/M02 Q1013
DAUK 192000Z 08006KT CAVOK 33/11 Q1015
DAUL 192000Z 18008KT 9999 SCT040 28/09 Q1019
DAUO 192000Z 17002KT 8000 SCT033 34/12 Q1014
DAUT 192000Z 04006KT CAVOK 34/// Q1013
DAUU 192000Z 00000KT CAVOK 33/02 Q1016
DAUZ 192000Z 18003KT CAVOK 31/03 Q1019
DBBB 192000Z 24007KT 9999 SCT010 SCT017 BKN028 26/25 Q1011 NOSIG
DFFD 192000Z 17005KT 9999 TS FEW020 FEW033CB 25/25 Q1012 BECMG NSW
DFOO 192000Z 09003KT CAVOK 27/22 Q1014
DGAA 192000Z 22010KT 9999 SCT010 26/24 Q1012 NOSIG
DGLE 191700Z 36008KT 9999 FEW011 SCT014 FEW030CB 30/24 Q1009 NOSIG
DGSI 191800Z 23006KT 9999 SCT010 27/23 Q1011 NOSIG
DGTK 191900Z 23002KT 9999 SCT011 25/25 Q1012 NOSIG
DIAP 192030Z 21007KT 9999 FEW011 BKN030 26/24 Q1012 NOSIG
DIBK 192000Z 02006KT 9999 TS FEW00/CB 22/22 Q1014 NOSIG
DIYO 192000Z 00000KT 9999 BKN010 25/23 Q1012 NOSIG
DNAA 192000Z 05008KT 9999 TS FEW007 FEW018CB 22/18 Q1015 NOSIG RMK CB SE TO N
DNAK 191900Z 00000KT 9999 TS SCT010 FEW020CB 24/23 Q1014
DNEN 192000Z 24003KT 9999 TS SCT010 FEW020CB 27/23 Q1012 TEMPO 5000 -TSRA
DNIB 192000Z 21005KT 9999 SCT010 25/24 Q1012
DNIL 192000Z 00000KT 9999 TS FEW010 FEW020CB 25/23 Q1014 RMK CB N TO E
DNJO 192000Z 12005KT 9999 SCT005 19/18 Q1020
DNKN 192000Z 17006KT 9999 TS FEW011 FEW019CB 26/20 Q1017 NOSIG
DNMM 192000Z 00000KT 9999 FEW009 25/24 Q1013 NOSIG
DNMN 192000Z 02007KT 9999 -TSRA BKN009 FEW019CB 23/22 Q1015 RMK N TO NW
DNPO 192000Z 00000KT 8000 BKN008 25/24 Q1012
DRRM 191800Z 18004KT 9999 TS FEW040CB 24/24 Q1011
DRRN 192000Z 20011KT 6000 TS FEW020 FEW030CB 29/21 Q1013 TEMPO 17025KT 3000 BLDU
DRRT 192000Z 16008KT CAVOK 30/19 Q1012
DRZA 191800Z 10008KT 6000 NSC 36/07 Q1011
DRZR 191800Z 14004KT 9999 TS FEW033CB 33/19 Q1011
DTKA 192000Z AUTO 13001KT NCD 23/23 Q1017
DTMB 192030Z 34010KT 8000 NSC 28/28 Q1015
DTNH 192030Z AUTO 02010G21KT CAVOK 27/21 Q1016
DTTA 192030Z 01004KT 350V050 9999 FEW023 24/22 Q1017
DTTB 192000Z 33003KT 9999 FEW020 23/21 Q1017
DTTD 192000Z AUTO 19002KT NCD 32/08 Q1018
DTTF 192000Z 14002KT 8000 FEW033 29/10 Q1015 NOSIG
DTTG 192000Z 20008KT 9999 SCT033 32/10 Q1016 NOSIG
DTTJ 192030Z 15007KT 9999 FEW026 29/21 Q1015 NOSIG
DTTK 192000Z 01003KT 340V150 9999 SCT023 SCT030 27/17 Q1016
DTTL 192000Z AUTO VRB02KT NCD 25/23 Q1016
DTTN 192000Z 01002KT 9999 SCT020 27/20 Q1016
DTTR 191600Z 33003KT 250V010 9999 FEW026 39/10 Q1016
DTTX 192000Z 13003KT 090V150 9999 FEW020 28/23 Q1015 NOSIG
DTTZ 192000Z 23007KT 8000 SCT030 33/11 Q1015 NOSIG
DXNG 191800Z 30004KT 250V360 9999 BKN007 FEW016CB 26/23 Q1013
DXSK 191800Z 00000KT 9999 SCT010 FEW020CB SCT120 BKN260 26/24 Q////
DXXX 192000Z 21007KT 9999 FEW011 26/24 Q1012 NOSIG
EBAW 192020Z 05003KT CAVOK 11/06 Q1030 NOSIG
EBBE 192025Z AUTO 05003KT 9999 NCD 11/06 Q1030 BLU
EBBL 192025Z AUTO VRB01KT 9999 NCD 09/06 Q1031 BLU
EBBR 192020Z 08003KT CAVOK 12/06 Q1030 NOSIG
EBCI 192020Z 06006KT CAVOK 11/05 Q1030 NOSIG
EBCV 192025Z AUTO 07004KT 9999 NCD 11/07 Q1030 BLU
EBDT 192025Z VRB02KT 9999 SKC 12/06 Q1030 BLU BLU
EBFN 192025Z AUTO 07004KT 9999 NCD 12/08 Q1030 BLU
EBFS 192025Z AUTO 03005KT 9999 SCT095/// BKN110/// OVC130/// 11/04 Q1030 BLU
EBLB 192025Z AUTO 05003KT 9999 NCD 05/03 Q1030 BLU
EBLG 192020Z 06007KT CAVOK 11/04 Q1030 NOSIG
EBOS 192020Z 08006KT 9999 FEW025 12/09 Q1031 NOSIG
EDAC 192020Z AUTO 14003KT 9999 // NCD 06/04 Q1029
EDDB 192020Z 28005KT CAVOK 09/04 Q1028 NOSIG
EDDC 192020Z 25004KT CAVOK 10/03 Q1029
EDDE 192020Z 31005KT CAVOK 09/02 Q1030
EDDF 192020Z 02007KT CAVOK 10/02 Q1029 NOSIG
EDDG 192020Z VRB01KT CAVOK 08/06 Q1030 NOSIG
EDDH 192020Z 32002KT CAVOK 09/07 Q1029 NOSIG
EDDK 192020Z 06006KT CAVOK 08/05 Q1030 NOSIG
EDDL 192020Z 05003KT CAVOK 09/05 Q1030 NOSIG
EDDM 192020Z 04002KT CAVOK 07/02 Q1029 NOSIG
EDDN 192020Z 07003KT 050V110 CAVOK 07/01 Q1029
EDDP 192020Z 29005KT CAVOK 10/03 Q1029 NOSIG
EDDR 192020Z 04006KT CAVOK 10/01 Q1028 NOSIG
EDDS 192020Z VRB02KT CAVOK 09/02 Q1028
EDDT 192020Z VRB02KT CAVOK 08/04 Q1028 NOSIG
EDDV 192020Z 26002KT CAVOK 07/04 Q1030 NOSIG
EDDW 192020Z 28004KT CAVOK 08/06 Q1030 NOSIG
EDFH 192020Z 05004KT CAVOK 08/02 Q1029
EDFM 191850Z 04004KT CAVOK 14/02 Q1028
EDGS 191750Z 36005KT CAVOK 10/02 Q1029
EDHI 192020Z AUTO 30005KT 9999 // FEW035/// BKN110/// BKN130/// 11/08 Q1029
EDHK 191550Z 30008KT 270V330 CAVOK 14/05 Q1027
EDHL 191850Z 28004KT 250V310 CAVOK 11/06 Q1028
EDLN 192020Z AUTO 33002KT 9999 // NCD 07/05 Q1030
EDLP 192020Z 16004KT CAVOK 07/04 Q1030
EDLV 192020Z 00000KT CAVOK 09/05 Q1030
EDLW 192020Z AUTO 15003KT 9999 // NCD 08/04 Q1030
EDMA 192020Z AUTO 04004KT 9999 // NCD 05/02 Q1029
EDMO 192020Z AUTO 07005KT 9999 // NCD 07/01 Q1028
EDNY 192020Z AUTO 36011KT 9999 // NCD 10/03 Q1027
EDQM 191750Z 33004KT CAVOK 07/02 Q1029
EDSB 192020Z 03007KT CAVOK 10/05 Q1028
EDTY 191750Z 03005KT CAVOK 11/01 Q1028
EDVE 191950Z 00000KT CAVOK 09/04 Q1029
EDVK 191920Z 23003KT CAVOK 08/03 Q1030
EDXW 191950Z 31010KT 9999 SCT032 12/08 Q1029
EEKA 191450Z 30010G23KT 240V340 9999 -RA SCT023 BKN041 10/05 Q1015
EEKE 192023Z AUTO 32006KT 270V350 9999NDV -RA SCT032 BKN039 06/05 Q1018
EETN 192020Z 35006KT 9999 BKN033 08/03 Q1016 NOSIG
EETU 191950Z 28007KT 260V330 CAVOK 06/02 Q1014
EFHK 192020Z 31007KT CAVOK 03/02 Q1016 NOSIG
EFIV 192020Z AUTO 27009KT 240V300 9999 OVC037 03/M02 Q1007
EFJO 192020Z AUTO 30005KT CAVOK 01/01 Q1012
EFJY 192020Z AUTO 32005KT CAVOK M00/M01 Q1015
EFKE 192020Z AUTO 30005KT 280V340 CAVOK 03/M01 Q1012
EFKI 192020Z AUTO 31009KT CAVOK 04/01 Q1012
EFKK 192020Z AUTO VRB01KT CAVOK 01/M01 Q1015
EFKS 192020Z AUTO 29003KT 250V310 9999 FEW014 M01/M02 Q1009
EFKT 192020Z AUTO 29006KT 250V350 CAVOK 02/M02 Q1009
EFKU 192020Z AUTO 29008KT CAVOK 03/02 Q1013
EFLP 192020Z AUTO 32007KT 280V020 9999 -SHSN OVC010 05/04 Q1012
EFMA 192020Z AUTO VRB01KT CAVOK 02/01 Q1020
EFMI 192020Z AUTO 30005KT 240V350 9999 FEW007 03/03 Q1014
EFOU 192020Z AUTO 12003KT 080V150 9999 SCT045 SCT064 03/01 Q1012
EFPO 192020Z AUTO 21004KT CAVOK 01/M01 Q1018
EFRO 192020Z AUTO VRB03KT 240V350 9999 FEW046 OVC125 02/00 Q1010
EFSA 192020Z AUTO 30005KT 270V360 CAVOK 03/02 Q1013
EFSI 192020Z AUTO 21001KT CAVOK M03/M03 Q1016
EFTP 192020Z AUTO VRB03KT 260V330 CAVOK 03/02 Q1017
EFTU 192020Z AUTO 30005KT CAVOK 02/M00 Q1018
EFUT 192020Z 34007KT 280V020 9999 FEW027 04/02 Q1014
EFVA 192020Z AUTO VRB01KT CAVOK M00/M01 Q1016
EGAA 192020Z 15004KT CAVOK 13/10 Q1029
EGAC 192020Z AUTO 16006KT 9999 NCD 14/11 Q1029
EGAE 191950Z 23004KT CAVOK 14/13 Q1028
EGBB 192020Z 00000KT CAVOK 14/09 Q1030
EGBJ 191820Z 04002KT CAVOK 18/11 Q1029
EGCC 192020Z AUTO 13003KT 9999 NCD 12/11 Q1030 NOSIG
EGCK 192020Z AUTO VRB01KT 9999 NCD 11/10 Q1029
EGCN 192020Z 18004KT CAVOK 12/10 Q1030
EGDM 191950Z AUTO 15003KT 9999 NCD 13/09 Q1029
EGDR 192025Z 08015KT CAVOK 14/12 Q1027 NOSIG RMK BLU BLU
EGDY 192019Z 15002KT CAVOK 13/10 Q1029 NOSIG RMK BLU BLU
EGEC 191620Z 36002KT 9999 FEW023 18/12 Q1029
EGFF 192020Z AUTO 04004KT 9999 NCD 14/10 Q1029
EGGD 192020Z AUTO 07005KT 9999 NCD 13/09 Q1029
EGGP 192020Z VRB03KT CAVOK 15/13 Q1030
EGGW 192020Z AUTO 15004KT 9999 NCD 13/08 Q1030
EGHC 191650Z 10014KT CAVOK 16/12 Q1028
EGHE 191650Z 09019KT 9999 FEW020 17/12 Q1028
EGHH 192020Z 07004KT CAVOK 11/10 Q1029
EGHI 192020Z 08001KT 9999 MIFG 11/10 Q1030
EGHQ 192020Z 10008KT CAVOK 13/12 Q1028
EGJA 191720Z 07017KT 9999 FEW025 16/12 Q1028
EGJB 191950Z 07013KT 9999 FEW020 15/11 Q1027
EGJJ 192020Z 08016KT CAVOK 15/12 Q1026
EGKA 191820Z 06003KT CAVOK 16/09 Q1029
EGKB 192020Z 13005KT 100V160 CAVOK 11/08 Q1030
EGKK 192020Z 09005KT CAVOK 12/08 Q1030
EGLC 192020Z AUTO 10006KT 9999 NCD 15/10 Q1030
EGLF 192020Z AUTO 11004KT 9999 NCD 14/08 Q1030
EGLL 192020Z AUTO 10005KT 9999 NCD 14/08 Q1030 NOSIG
EGMC 192020Z 00000KT CAVOK 10/09 Q1030
EGMD 192020Z AUTO 04004KT 010V070 9999 BKN019/// 12/11 Q1030
EGNC 191650Z 29005KT 250V320 CAVOK 16/12 Q1029
EGNH 191950Z 06003KT CAVOK 14/12 Q1030
EGNJ 192020Z 21005KT CAVOK 12/10 Q1030
EGNM 192020Z 27005KT CAVOK 14/11 Q1030
EGNO 191750Z 01003KT CAVOK 17/12 Q1029
EGNR 191950Z VRB01KT CAVOK 12/09 Q1030
EGNS 192020Z 02005KT CAVOK 11/09 Q1029 NOSIG
EGNT 192020Z VRB03KT CAVOK 13/12 Q1029
EGNV 192020Z 26004KT CAVOK 13/10 Q1029
EGNX 192020Z 00000KT CAVOK 15/10 Q1030
EGOM 191950Z AUTO 27006KT 1700 BR BKN001/// 11/11 Q1029
EGOP 191950Z AUTO 07004KT 9999 // NCD 10/08 Q1029
EGOS 192020Z 34001KT CAVOK 12/09 Q1029 NOSIG RMK BLU BLU
EGOV 191950Z AUTO 08006KT 9999 NCD 13/11 Q1029
EGOW 191550Z 34005KT 9999 FEW025 18/12 Q1030 RMK BLU
EGPA 192020Z AUTO 28008KT 9999 NCD 12/11 Q1026
EGPB 192020Z AUTO 27010KT 9999 OVC016/// 12/10 Q1025
EGPC 192020Z AUTO 28004KT 9999 NCD 11/09 Q1027
EGPD 192020Z VRB01KT 2500 0400N R16/0300 PRFG SCT001 11/11 Q1028 BECMG 1400 BR BKN001
EGPE 192020Z 22008KT CAVOK 12/10 Q1027
EGPF 192020Z AUTO 21001KT 9999 NCD 11/10 Q1029
EGPH 192020Z 25006KT CAVOK 11/10 Q1028
EGPI 192020Z AUTO 12005KT 060V160 9999 NCD 11/09 Q1028
EGPK 192020Z 00000KT CAVOK 11/11 Q1030
EGPL 192020Z AUTO 18004KT 9999 NCD 10/09 Q1027
EGPM 192020Z AUTO 25014KT 9999 BKN009/// 12/11 Q1024
EGPN 191920Z 27006KT CAVOK 15/13 Q1027
EGPO 192020Z AUTO 21009KT 9999 NCD 12/10 Q1027
EGPU 192020Z AUTO 15009KT 9999 NCD 13/12 Q1028
EGQK 191950Z AUTO 19002KT 9999 NCD 11/10 Q1027
EGQL 191950Z 25008KT CAVOK 14/11 Q1027 BLU
EGQS 192020Z 11001KT CAVOK 11/11 Q1027 NOSIG RMK BLU BLU
EGSC 191650Z VRB03KT CAVOK 21/09 Q1029
EGSH 192020Z AUTO VRB02KT 9999 NCD 11/10 Q1031
EGSS 192020Z AUTO 13006G17KT 110V210 9999 NCD 13/09 Q1031
EGTC 191650Z 06004KT 050V120 CAVOK 20/09 Q1029
EGTE 192020Z 04002KT CAVOK 14/12 Q1029
EGTK 192020Z 10003KT CAVOK 15/09 Q1029
EGUB 192020Z 11011KT CAVOK 15/08 Q1030 NOSIG RMK BLU BLU
EGUL 191956Z AUTO 28006KT 9999 CLR 14/10 A3042 RMK AO2 SLP304 T01360100 $
EGUN 191956Z 14003KT 9999 CLR 14/09 A3042 RMK SLPNO WND DATA ESTMD ALSTG ESTMD RVRNO .
EGUW 192020Z 15002KT CAVOK 13/09 Q1030 NOSIG RMK BLU BLU
EGVA 191956Z AUTO 04003KT 9999 CLR 14/10 A3039 RMK AO2 SLP295 T01420098 $
EGVN 192020Z 05002KT CAVOK 14/08 Q1029 NOSIG RMK BLU BLU
EGVO 192019Z 11005KT CAVOK 13/09 Q1030 NOSIG RMK BLU BLU
EGVP 192020Z 09002KT CAVOK 15/11 Q1029 NOSIG RMK BLU BLU
EGWU 192024Z 12004KT CAVOK 15/08 Q1030 NOSIG RMK BLU BLU
EGXC 191950Z 09004KT CAVOK 13/10 Q1030 RMK BLU
EGXE 191950Z AUTO 23003KT 9999 NCD 14/11 Q1029
EGXP 191950Z AUTO 15004KT 9999 // NCD 15/09 Q1029
EGXS 191950Z AUTO 16007KT 9999 // NCD 13/10 Q1030
EGXT 191950Z AUTO 13002KT 9999 NCD 14/09 Q1029
EGXU 192020Z 20002KT CAVOK 15/12 Q1029 NOSIG RMK BLU BLU
EGXV 191950Z AUTO 19003KT 9999 NCD 14/10 Q1029
EGXW 192020Z 15004KT CAVOK 15/09 Q1030 NOSIG RMK BLU BLU
EGXZ 191950Z 24003KT CAVOK 13/11 Q1029 RMK BLU
EGYD 191950Z AUTO 16004KT 9999 // NCD 13/08 Q1030
EGYH 191450Z 07006KT CAVOK 19/10 Q1030 RMK BLU
EGYM 191950Z 12006KT CAVOK 15/10 Q1030 BLU
EGYP 192021Z 21012KT 9999 -SHRA SCT012 SCT020 03/02 Q0980 TEMPO FEW012 SCT020
EHAK 192025Z AUTO 31006KT 9999 BKN013/// OVC016/// 14/11 Q1029 W///H///
EHAM 192025Z 04001KT CAVOK 11/09 Q1031 NOSIG
EHBK 192025Z AUTO 06005KT 9999 NSC 10/04 Q1030 NOSIG
EHDL 192025Z AUTO 00000KT 9999 OVC380 08/06 Q1031 BLU
EHDV 192025Z AUTO 20003KT 170V250 9999 FEW007/// SCT012/// 15/13 Q1030 W///H///
EHEH 192025Z AUTO 01004KT 9999 OVC380 11/07 Q1030 BLU 03006KT CAVOK
EHFD 192025Z AUTO 27007KT 9999 FEW013/// SCT016/// BKN019/// 15/11 Q1029 W///H///
EHFS 192025Z AUTO 04007KT 9999 NCD 14/11 Q1030 W///H///
EHFZ 192025Z AUTO 33004KT 230V040 9999 FEW016 OVC019 15/11 Q1030 W///H///
EHGG 192025Z AUTO 23003KT 9999 NSC 06/05 Q1031 NOSIG
EHGR 192025Z AUTO 02003KT 9999 NCD 10/07 Q1030 BLU 02003KT CAVOK
EHHW 192025Z AUTO 35006KT 300V010 9999 SCT026/// BKN030/// 14/08 Q1030 W///H///
EHJA 192025Z AUTO 28003KT 9999 NSC 15/13 Q1030 W///H///
EHJR 192025Z AUTO VRB02KT //// // ///////// 15/11 Q1031 RE// W18/H10
EHKD 192025Z AUTO VRB02KT 9999 BKN036 BKN380 12/09 Q1031 BLU VRB03KT 9999 SCT030
EHKV 192025Z AUTO 31004KT 230V020 9999 OVC022 15/12 Q1031 W///H///
EHLW 192025Z AUTO 19001KT 9999 BKN370 09/08 Q1031 BLU
EHMA 192025Z AUTO 33006KT 9999 FEW032 14/08 Q1031 W///H///
EHMG 192025Z AUTO 24003KT 9999 SCT021 BKN025 OVC030 15/10 Q1031 W///H///
EHPG 192025Z AUTO 02005KT 340V050 9999 FEW014 OVC028 16/12 Q1030 W///H///
EHQE 192025Z AUTO 30004KT 9999 ////// 15/11 Q1031 W///H///
EHRD 192025Z AUTO 35003KT 9999 NSC 10/09 Q1031 NOSIG
EHSA 192025Z AUTO 03008KT 9999 ///////// 16/11 Q1031 W16/H8
EHSC 192025Z AUTO 06006KT 9999 ///////// 16/11 Q1030 W18/H7
EHVK 192025Z AUTO 34001KT 9999 OVC370 09/07 Q1030 BLU
EHVL 192025Z AUTO 26002KT 9999 OVC033 14/10 Q1031 BLU
EHWO 192025Z AUTO 07002KT 9999 OVC370 08/07 Q1030 BLU
EICK 192030Z 10006KT 9999 FEW015 13/13 Q1028 NOSIG
EIDL 191830Z 36003KT CAVOK 16/11 Q1027
EIDW 192030Z 13005KT 090V160 9000 SCT004 13/13 Q1029 NOSIG
EIKN 192030Z 13005KT CAVOK 14/12 Q1028 NOSIG
EIKY 191830Z 10005KT CAVOK 16/11 Q1027
EIME 192000Z VRB02KT CAVOK 14/12 Q1028
EINN 192030Z 10006KT CAVOK 15/12 Q1027 NOSIG
EISG 191500Z 17005KT 130V220 CAVOK 21/11 Q1028
EIWF 191930Z 12003KT 3300 HZ NSC 12/11 Q1029
EKAH 192020Z AUTO 26006KT 9999NDV BKN110/// 10/07 Q1027
EKBI 192020Z AUTO 28005KT 260V320 9999 OVC066/// 10/08 Q1028
EKCH 192020Z AUTO 29004KT 9999 BKN100/// 10/06 Q1027 NOSIG
EKEB 192020Z AUTO 28003KT 9999 BKN068/// 09/07 Q1029
EKKA 192020Z AUTO 27007KT 9999 FEW065/// BKN072/// BKN110/// 11/08 Q1027
EKOD 191550Z 29009KT 9999 SCT034 14/05 Q1027
EKRK 192020Z AUTO 21001KT 9999 BKN047/// 08/06 Q1027
EKRN 192020Z AUTO 35005KT 9999 BKN130/// BKN220/// 11/04 Q1026
EKRS 192020Z AUTO 23002KT 9999 NCD 08/08 Q1027
EKSB 192020Z 30007KT 260V350 CAVOK 12/07 Q1028
EKSP 192020Z 28005KT CAVOK 10/07 Q1028 RMK BKN075
EKVD 192020Z AUTO 29006KT //// ///////// 10/08 Q1028
EKVG 192020Z AUTO 26005KT 180V310 9999 BKN004/// OVC015/// 11/11 Q1020
EKYT 192020Z AUTO 27009KT 9999 BKN085/// 12/08 Q1025
ELLX 192020Z 05009KT CAVOK 12/02 Q1029 NOSIG
ENAL 192020Z 18010KT 9999 BKN025 10/07 Q1019
ENAN 192020Z 31016KT 9999 SCT025 BKN038 06/02 Q1014
ENAT 191950Z 31011KT 9999 -SHRA SCT018 BKN024 04/02 Q1008 REDZ RMK WIND 700FT 32015KT
ENBL 191950Z 22004KT 3000 -DZ VCFG SCT003 BKN012 05/04 Q1023
ENBN 192020Z AUTO 09006KT 9999NDV NCD 06/03 Q1019
ENBO 192020Z 28013KT 9999 FEW030 SCT060 07/01 Q1017 NOSIG
ENBR 192020Z 15009KT 7000 -DZ SCT004 BKN012 08/07 Q1024 RMK WIND 1200FT 14021KT
ENBS 192020Z 31021KT 9999 -RA SCT014 BKN025 02/00 Q1001
ENBV 191950Z 30027KT 9999 -RA FEW015 BKN025 05/02 Q1002
ENCN 192020Z 29006KT 260V330 CAVOK 11/02 Q1025
ENDU 191950Z 23005KT 200V270 9999 VCSH FEW018 SCT100 03/01 Q1013 RMK WIND 1100FT 26009KT WIND 2200FT 28022KT
ENEV 191950Z VRB03KT 9999 SCT037 03/01 Q1016 RMK WIND 1400FT 28015KT
ENFB 192020Z AUTO 26024KT 9999NDV -SHRA BKN005/// 11/11 Q1022 W///S3
ENFL 192020Z 10014KT 3000 -DZ BR SCT006 BKN010 07/07 Q1022
ENGC 191950Z 28020KT 0500 -RA FG VV003 11/11 Q1022 W10/S3
ENGM 192020Z 24003KT 190V270 CAVOK 07/M00 Q1022 NOSIG
ENHD 192020Z 15009KT 2400 DZ BR SCT003 BKN017 09/08 Q1025
ENHE 192020Z 17020KT 9999 -RA SCT010 BKN025 07/05 Q1017 W///S3
ENHF 192020Z 32012KT 280V360 9999 FEW018 BKN025 04/M00 Q1007 RMK WIND 1254FT 34023KT
ENHK 191950Z 33011KT 9999 -SHRA SCT017 BKN024 05/03 Q1009
ENHM 192020Z AUTO 26022KT 9999NDV FEW008/// OVC024/// 12/11 Q1025 W12/S3
ENHV 191950Z 34017KT 9999 -RA FEW021 SCT034 BKN044 04/00 Q1006
ENKB 192020Z 12005KT 090V150 9999 RA FEW009 SCT034 BKN047 07/05 Q1020 RMK WIND 745FT 15013KT
ENKR 192020Z 29013KT 9999 BKN012 03/00 Q1003 RMK WIND 731FT 27023KT
ENLA 192020Z AUTO 25014KT 9999NDV OVC004/// 13/12 Q1028 W///S3
ENLE 192020Z 26012KT 9999 FEW007 BKN025 13/13 Q1029 W14/S3
ENLK 192020Z 27008KT 9999 VCSH SCT025CB BKN035 06/02 Q1017
ENMH 191950Z 30022KT 9999 SHRASN FEW024 BKN021 05/00 Q1004
ENML 192020Z 02007KT 9999 RA FEW020 BKN035 07/06 Q1020
ENMS 192020Z VRB02KT 9999 VCSH FEW020 SCT050 03/02 Q1019 RMK WIND 412FT VRB01KT
ENNA 192020Z 31016KT 9999 -DZ FEW008 SCT028 BKN045 04/01 Q1007 RMK WIND 1800FT 30025KT
ENNE 192020Z AUTO 16015KT 9999NDV FEW021/// BKN051/// 07/03 Q1018 W///S3
ENNM 191950Z VRB02KT 9999 VCSH FEW019 SCT030 BKN066 05/05 Q1021
ENNO 191650Z 00000KT CAVOK 11/04 Q1024
ENOA 191850Z 26018KT 9999 BKN005 11/11 Q1023 W///S3
ENOL 192020Z 15004KT 9999 -RADZ FEW012 BKN025 07/05 Q1020 NOSIG
ENOV 192020Z VRB01KT 9999 -DZ FEW019 SCT023 BKN029 07/05 Q1021 RMK WIND THR24 06008KT AT 2175FT 13015KT
ENQA 192020Z AUTO 27020KT 4100NDV BR SCT006/// OVC020/// 11/10 Q1023 W10/S3
ENQC 192020Z AUTO 24016KT 9000NDV BKN005/// 11/10 Q1022 W///S3
ENQR 192020Z AUTO 26019KT 7000NDV OVC004/// 11/11 Q1020 W///S4
ENRA 192020Z VRB01KT 9999 FEW025 SCT040 BKN055 04/02 Q1018
ENRM 191950Z 00000KT 9999 -DZ FEW025 SCT035 BKN070 06/05 Q1020
ENRO 192020Z AUTO 00000KT 9999NDV SCT058/// OVC086/// 02/02 Q1020
ENRS 191750Z 30013KT 9999 VCSH FEW020CB SCT028 07/02 Q1018
ENRY 192020Z 22003KT CAVOK 09/03 Q1024
ENSB 191950Z VRB01KT 9999 BKN028 01/M02 Q1011 RMK WIND 1400FT 06003KT
ENSD 192020Z 07003KT 9999 FEW007 SCT026 BKN033 07/07 Q1022 RMK WIND 1138FT 07004KT
ENSE 192020Z AUTO 27021KT 5000NDV -SHRA OVC004/// 11/11 Q1021 W///S4
ENSG 192020Z 23004KT 5000 -DZ FEW/// SCT008 VV015 04/04 Q1023 RMK WIND 3806FT 23014KT
ENSH 192020Z 32010KT 280V340 9999 -RA FEW015 SCT022 05/02 Q1016 RMK WIND 150FT 29007KT 270V330
ENSK 191950Z 32009KT 9999 SHRA FEW021 SCT027 04/02 Q1016
ENSL 192020Z AUTO 29017KT 1500NDV -SHRA BKN006/// 12/12 Q1027 W10/S3
ENSO 191950Z 13012KT 3000 RADZ BR FEW002 SCT004 BKN007 08/08 Q1025
ENSR 191820Z 28013KT 9999 -RA FEW012 SCT028 BKN049 04/02 Q1010 RMK WIND 1119FT 26023KT
ENSS 191920Z 28018KT 9999 SCT038 03/00 Q1001 RMK WIND 500FT 27029KT
ENST 191920Z 12003KT 9999 FEW028TCU SCT048 05/03 Q1019 RMK WIND 300FT 13004KT
ENTC 192020Z VRB02KT 9999 VCSH FEW023 BKN034 04/02 Q1013 TEMPO 28012KT RMK WIND 2600FT 31027G37KT
ENTO 192020Z 26004KT CAVOK 09/04 Q1024 NOSIG
ENUG 192020Z AUTO 33021KT 9999NDV BKN023/// 04/M01 Q1007 W///S4
ENUN 192020Z AUTO 17012KT 9999NDV BKN024/// BKN140/// 07/03 Q1016 W10/S/
ENVA 192020Z 11006KT 9999 FEW020 BKN033 06/05 Q1021 RMK WIND 670FT 16006KT
ENVD 192020Z 28012KT 9999 SCT015 BKN110 02/00 Q1002
ENWV 192020Z AUTO 25009KT 8000NDV BKN009/// BKN020/// 13/13 Q1029 W///S3
ENZV 192020Z 14008KT 5000 BR SCT004 BKN008 08/08 Q1026
EPBY 192030Z 25003KT CAVOK 06/03 Q1025
EPGD 192030Z 02006KT 270V050 9999 FEW044 07/05 Q1023
EPKK 192030Z 22005KT 9999 FEW040 06/05 Q1026
EPKT 192030Z 22004KT 6000 MIFG FEW044 05/04 Q1026
EPLB 192030Z 29007KT CAVOK 06/05 Q1023
EPLL 192030Z 25004KT CAVOK 05/04 Q1025
EPMO 192030Z 25009KT CAVOK 07/06 Q1024
EPPO 192030Z 27003KT CAVOK 08/05 Q1027
EPRZ 192030Z 27009KT 9999 SCT043 08/05 Q1025
EPSC 192030Z 27004KT CAVOK 09/06 Q1027
EPSY 192030Z 25004KT CAVOK 06/05 Q1022
EPWA 192030Z 26006KT 9999 BKN046 07/06 Q1024 NOSIG
EPWR 192030Z 28005KT CAVOK 06/03 Q1028
EPZG 192000Z 23002KT CAVOK 08/05 Q1027
EQYG 191857Z AUTO 29006KT 7SM CLR 24/21 A3004 RMK AO2 SLP164 T02390206 $
ESCF 192020Z AUTO 22005KT 9999 NCD 06/03 Q1023
ESCM 192020Z AUTO 00000KT 9999 NCD 02/00 Q1021
ESDF 192020Z 29004KT CAVOK 05/03 Q1025
ESGG 192020Z 20003KT 9999 SCT037 07/03 Q1025
ESGJ 192020Z 25005KT CAVOK 05/02 Q1024
ESGR 192020Z AUTO 23004KT 9999 NCD 06/03 Q1024
ESGT 192020Z AUTO 14004KT 9999 NCD 04/03 Q1025
ESIA 192020Z AUTO 26005KT 9999 NCD 06/03 Q1023
ESIB 192020Z AUTO 18004KT 9999 NCD 05/03 Q1024
ESKM 192020Z AUTO 25004KT 9999 BKN100/// 05/02 Q1022
ESKN 192020Z 27004KT CAVOK 03/M00 Q1022
ESMK 192020Z AUTO 27004KT 9999 NCD 07/04 Q1026
ESMQ 192020Z 28004KT CAVOK 04/02 Q1024
ESMS 192020Z 31003KT CAVOK 07/04 Q1026
ESMT 192020Z AUTO 06003KT 9999 FEW043/// 08/04 Q1026
ESMX 192020Z 25004KT CAVOK 03/01 Q1025
ESND 192020Z AUTO 28006KT 9999 NCD 04/M00 Q1021
ESNG 192020Z AUTO 33005KT 9999 NCD 01/M02 Q1012
ESNK 192020Z AUTO 29003KT 9999 NCD 04/M00 Q1019
ESNL 192020Z AUTO 27007KT 9999 NCD M00/M02 Q1017
ESNN 192020Z 33008KT CAVOK 05/02 Q1020
ESNO 192020Z 31009KT CAVOK 04/M01 Q1017
ESNQ 192020Z 31008KT CAVOK 01/M03 Q1011
ESNS 192020Z 27007KT CAVOK 02/M01 Q1015
ESNU 192020Z 28003KT CAVOK M02/M04 Q1017
ESNV 192020Z AUTO 29004KT 9999 NCD ///// Q1017
ESNX 192020Z AUTO 28010KT 9999 NCD 02/M02 Q1015
ESNZ 192020Z 32009KT 9999 BKN016 BKN024 05/02 Q1020
ESOE 192020Z AUTO 25004KT 9999 SCT120/// BKN150/// 07/03 Q1023
ESOH 192020Z AUTO 00000KT 9999 FEW100/// 02/02 Q1023
ESOK 192020Z AUTO 22003KT 7000 NCD 03/02 Q1023
ESOW 192020Z AUTO 00000KT 9999 NCD 03/M00 Q1022
ESPA 192020Z 30006KT CAVOK 03/M01 Q1014
ESPE 192020Z AUTO 31005KT 9999 NCD 02/M02 Q1015
ESSA 192020Z 27003KT CAVOK M00/M01 Q1021 NOSIG
ESSB 192020Z AUTO 00000KT 9999 NCD 03/02 Q1022
ESSD 192020Z AUTO 26006KT 9999 NCD 06/01 Q1022
ESSL 192020Z 26004KT CAVOK 08/03 Q1023
ESSP 192020Z AUTO 29005KT 9999 NCD 06/03 Q1023
ESST 192020Z AUTO 00000KT 9999 NCD 03/01 Q1023
ESSV 192020Z 34010KT 9999 FEW048 11/01 Q1022
ESTA 192020Z 23003KT CAVOK 06/03 Q1026
ESTL 192020Z AUTO 00000KT 9999 FEW100/// 04/04 Q1026
ESUP 192020Z AUTO 29008KT //// R11///// NCD M00/M03 Q1011
ESUT 192020Z AUTO 29007KT 9999 FEW032/// 02/M00 Q1017
ETAD 191956Z AUTO 01006KT 9999 CLR 11/02 A3039 RMK AO2 SLP284 T01060019
ETAR 191956Z AUTO 00000KT 9999 CLR 05/02 A3038 RMK AO2 SLP296 T00530018
ETEB 191956Z AUTO 04004KT 9999 CLR 09/00 A3039 RMK AO2 SLP311 T00930002 $
ETEK 191956Z AUTO 08003KT 9999 CLR 09/01 A3042 RMK AO2 SLP187 T00890007 $
ETGG 192020Z 31008KT 9999 BKN070 11/07 Q1028 BLU
ETHA 192020Z AUTO 06007KT //// // ////// 05/02 Q1028 ///
ETHB 192020Z 15002KT 9999 SCT400 08/05 Q1030 BLU+
ETHC 192020Z 26002KT 9999 FEW060 BKN320 08/05 Q1030 BLU+
ETHF 192020Z 31004KT 9999 BKN370 07/03 Q1030 BLU+BLU+
ETHL 192020Z 04006KT 9999 FEW320 08/01 Q1028 BLU+BLU+
ETHN 192020Z 07006KT 9999 SCT320 07/00 Q1029 BLU+BLU+
ETHS 192020Z 30002KT 9999 BKN350 07/04 Q1030 BLU+
ETIC 191956Z AUTO 00000KT 9999 CLR 04/01 A3039 RMK AO2 SLP306 T00390014 $
ETIH 191956Z AUTO 00000KT 9999 CLR 05/05 A3040 RMK AO2 SLP305 T00490048
ETIK 191956Z 00000KT 9999 CLR 08/00 A3043 RMK SLP157 WND DATA ESTMD ALSTG/SLP ESTMD
ETML 192020Z AUTO 30012KT //// // ////// 13/07 Q1028 ///
ETMN 192020Z 31002KT 9999 FEW030 BKN340 09/06 Q1030 BLU+
ETNG 191950Z 00000KT CAVOK 10/04 Q1030
ETNH 192020Z 26003KT 9999 BKN110 07/05 Q1029 BLU
ETNL 192020Z 29003KT 9999 FEW100 07/06 Q1028 BLU+
ETNN 192020Z 29001KT 9999 SCT360 09/03 Q1030 BLU+
ETNS 192020Z AUTO 26005KT 9999 // ////// 08/06 Q1029 ///
ETNT 192020Z 26003KT 9999 SCT330 08/06 Q1030 BLU+
ETNW 192020Z 34004KT 9999 FEW400 08/05 Q1030 BLU+
ETOU 191956Z AUTO 36003KT 9999 CLR 11/02 A3040 RMK AO2 SLP298 T01140016
ETSB 192020Z AUTO 02006KT 7000 // ////// 10/02 Q1029 ///
ETSH 192020Z 00000KT 9999 SCT240 OVC300 06/02 Q1029 BLU+
ETSI 192020Z AUTO 11002KT 9999 // ////// 06/02 Q1029 ///
ETSL 192020Z 05006KT 9999 FEW320 05/01 Q1028 BLACKBLU+
ETSN 192020Z 02002KT 9999 FEW340 07/02 Q1029 BLU+
ETWM 192020Z AUTO 31001KT //// // ////// 07/05 Q1031 ///
EVLA 192020Z AUTO 06002KT 9999 SCT042 07/05 Q1020
EVRA 192020Z 36008KT 9999 -SHRA SCT016 SCT022CB OVC036 08/06 Q1016 RESHRA NOSIG
EVVA 192020Z AUTO 33014KT 300V010 9999 SCT029 SCT038 SCT046 10/05 Q1019
EYKA 192020Z 27007KT 9999 BKN045 OVC055 07/05 Q1017
EYPA 192020Z 05004KT 9999 FEW023CB SCT057 07/06 Q1020
EYSA 192020Z 30012KT 9999 SCT012 SCT070 07/06 Q1017 GRN NOSIG
EYVI 192020Z 27007KT 9999 BKN045 07/05 Q1017 NOSIG
FABL 192000Z AUTO 07002KT 9999 ///////// 23/02 Q1024
FACT 192000Z 35018KT 9999 BKN015 17/14 Q1012 TEMPO BKN010
FAEL 191800Z 05015G27KT 020V080 9999 FEW008 BKN031 BKN043 21/19 Q1016
FAGG 192000Z AUTO 28006KT 9999 FEW190/// BKN230/// 17/16 Q1009
FAHS 192000Z AUTO 17005KT //// // ////// 22/15 Q1025
FAJB 192000Z AUTO 00000KT //// // ////// 19/01 Q1028
FAKM 192000Z AUTO 34008KT //// // ////// 26/01 Q1022
FAKN 192000Z AUTO 08012KT //// // ////// 18/16 Q1028
FALA 192000Z VRB03KT CAVOK 20/02 Q1028 NOSIG
FALE 192000Z 02009KT 9999 FEW035 BKN045 22/19 Q1022 NOSIG
FALW 192000Z AUTO 02016KT //// // ////// 14/13 Q1013
FAMM 192000Z AUTO 04005KT //// // ////// 19/M02 Q1026
FAOB 192000Z AUTO 24003KT //// // ////// 17/15 Q1009
FAOR 192000Z 35014KT CAVOK 22/04 Q1029 NOSIG
FAPE 192000Z 07011KT CAVOK 19/18 Q1011 NOSIG
FAPP 192000Z AUTO 13001KT //// // ////// 18/11 Q1027
FAUP 192000Z AUTO 36008KT //// // ////// 28/M01 Q1018
FAUT 192000Z AUTO 18007KT //// // ////// 16/16 Q1020
FAWK 191900Z AUTO 03008KT //// // ////// ///// Q1028
FBFT 191900Z 10010KT CAVOK 25/01 Q1023
FBKE 191800Z 13007KT CAVOK 26/M04 Q1019
FBMN 192000Z 09010KT CAVOK 26/M03 Q1020
FBSK 192000Z 03004KT CAVOK 24/M02 Q1024 NOSIG
FBSP 191800Z 11006KT CAVOK 26/11 Q1023
FCBB 192000Z VRB02KT 8000 NSC 26/23 Q1013 NOSIG
FCPP 192000Z 22003KT 9999 FEW010 24/24 Q1012 NOSIG
FDBB 192000Z AUTO 08005KT //// // ////// 23/19 Q1023
FDMY 192000Z AUTO 01003KT //// // ////// 20/17 Q1034
FDOT 192000Z AUTO 11005KT //// // ////// 22/16 Q1025
FDPP 192000Z AUTO 05005KT //// // ////// 15/14 Q1030
FDST 192000Z AUTO 00000KT //// // ////// 18/17 Q1025
FEFF 192000Z 00000KT CAVOK 26/25 Q1012 NOSIG
FGBT 192000Z 00000KT 9999 SCT010 26/26 Q1012
FGSL 192000Z 00000KT 9999 FEW010 24/23 Q1014 NOSIG
FIMP 192000Z 14006KT 9999 BKN016 SCT050 22/17 Q1019
FIMR 191600Z 13007KT 9999 SCT018 23/19 Q1018
FJDG 191955Z 16006KT 9999 FEW020 SCT080 BKN250 27/25 A2985 RMK SLP105 T02740250
FKKD 192000Z VRB02KT 9999 SCT013 FEW016CB 24/24 Q1012 NOSIG
FKKL 191600Z 29005KT 9999 TS FEW035 FEW040CB 23/22 Q1011
FKKN 191700Z 00000KT 9999 TS BKN013 FEW016CB 19/17 Q1015
FKKR 192000Z 26004KT 9999 FEW010 25/24 Q1013 NOSIG
FKYS 192000Z 21003KT 8000 TS BKN006 FEW016CB 22/22 Q1018 BECMG NSW
FLKK 191900Z 11004KT CAVOK 19/M05 Q1022
FMCH 191800Z 20007KT 170V230 9999 FEW020 26/22 Q1017 NOSIG
FMCZ 192030Z AUTO 27007KT 240V300 CAVOK 26/22 Q1015
FMEE 192030Z AUTO 15004KT CAVOK 17/15 Q1019
FMEP 192030Z AUTO 04005KT 9999 BKN037 OVC048 20/15 Q1019
FMMI 192030Z 08006KT 9999 FEW020 15/13 Q1024 NOSIG
FMMS 191500Z 16006KT 9999 BKN017 24/19 Q1018
FMMT 192000Z 00000KT 9999 SCT017 SCT033 21/19 Q1019
FMNA 191500Z 14010KT 9999 FEW020 25/16 Q1014
FMNM 192000Z VRB02KT 9999 FEW040 25/21 Q1016 NOSIG
FMNN 191500Z 26004KT 9999 FEW020 26/22 Q1014
FMSD 192000Z 12004KT 9999 FEW016 SCT033 21/18 Q1021
FNBC 191500Z VRB03KT 9999 FEW015 32/20 Q1010
FNCA 191900Z 24006KT 9000 SCT015 25/23 Q1012
FNCT 191700Z 26010KT CAVOK 22/22 Q1012
FNGI 191700Z 09005KT CAVOK 33/M01 Q1014
FNHU 191600Z 08008KT CAVOK 30/05 Q1019
FNLU 192000Z 20010KT 9999 SCT020 23/22 Q1013
FNMO 191600Z 28012KT CAVOK 23/16 Q1011
FNSA 191500Z 36006KT 9999 SCT027 32/17 Q1019
FNUE 191600Z 12006KT CAVOK 30/16 Q1017
FNUG 191600Z 27008KT 9999 FEW023 BKN090 28/18 Q1012
FOGM 191500Z /////KT 9999 FEW013TCU OVC033 31/23 Q////
FOGR 191500Z /////KT 6000 -RA SCT010 OVC027 26/22 Q////
FOOB 191500Z /////KT 9999 SCT013 FEW016CB BKN030 28/20 Q1009
FOOG 192000Z 23007KT 9999 FEW008 26/24 Q1012
FOOK 191500Z /////KT 9999 BKN020 29/23 Q////
FOOL 192030Z 25004KT 9999 SCT013 26/24 Q1012 NOSIG
FOON 191800Z 19006KT 9999 BKN016 26/22 Q1013
FOOR 191500Z /////KT 9999 SCT006 30/23 Q////
FOOT 191500Z VRB02KT 9999 SCT011 BKN033 30/23 Q////
FPST 192000Z 18008KT 9999 FEW023 SCT040 26/24 Q1013 NOSIG
FQBR 191900Z 15008KT 9999 FEW020 24/18 Q1020
FQCH 192000Z /////KT CAVOK 16/14 Q1025
FQIN 191900Z 16004KT 9999 FEW020 21/18 Q1023
FQLC 191600Z 09008KT 6000 FEW020 22/11 Q1023 RMK FU
FQMA 192000Z 06010KT 9999 SCT020 23/18 Q1024 NOSIG
FQNP 192000Z 18008KT CAVOK 21/18 Q1020
FQPB 192000Z 17008KT 9999 FEW020 24/22 Q1017
FQQL 191900Z 14006KT 9999 SCT020 24/20 Q1020
FQTT 192000Z 16008KT CAVOK 26/12 Q1019
FQVL 191800Z 15008KT 9999 FEW020 23/18 Q1021
FSIA 192000Z 13009KT 080V210 9999 SCT016 26/23 Q1012 NOSIG
FTTA 192000Z 00000KT 9999 TS FEW050CB 27/25 Q1012
FTTC 191500Z 00000KT CAVOK 38/// Q1010
FTTD 191500Z 24006KT 9999 FEW040 30/24 Q1012
FTTJ 192000Z 20005KT 8000 NSC 26/22 Q1011 NOSIG
FTTY 191500Z 06010KT CAVOK 40/11 Q1010
FVRG 192000Z 11009KT CAVOK 16/01 Q1027 NOSIG
FWCL 191500Z 18008KT 8000 FEW035 27/11 Q1019 NOSIG
FWKI 191500Z 09011KT CAVOK 25/04 Q1021 NOSIG
FXMM 191500Z 27008KT 9999 FEW040 19/03 Q1024 NOSIG
FYGB 192000Z AUTO 07004KT //// // ////// 22/M12 Q1024
FYGF 192000Z AUTO 03003KT //// // ////// 17/M07 Q////
FYKM 192000Z AUTO 10006KT //// // ////// 25/M02 Q1019
FYKT 192000Z AUTO 05007KT //// // ////// 28/M05 Q1020
FYLZ 192000Z AUTO 21002KT //// // ////// 14/13 Q1016
FYML 192000Z AUTO 10004KT //// // ////// 28/M08 Q1021
FYOA 192000Z AUTO 16003KT //// // ////// 28/M03 Q1015
FYOO 192000Z AUTO 00000KT //// // ////// 22/M06 Q1018
FYRN 191800Z 18004KT CAVOK 28/M00 Q1018
FYRU 192000Z AUTO 14004KT //// // ////// 25/M04 Q1021
FYWB 192000Z AUTO 21005KT //// // ////// 15/12 Q1017
FYWE 191800Z 00000KT CAVOK 25/M10 Q1024
FYWH 192000Z 00000KT CAVOK 16/M14 Q1024 NOSIG
FYWW 192000Z AUTO 14002KT //// // ////// 23/M09 Q1025
FZAA 192000Z 00000KT 6000 FEW018 26/22 Q1012 NOSIG
FZIC 191500Z 21006KT 9999 SCT032 FEW038CB BKN300 32/25 Q1008 NOSIG
FZNA 191500Z 19008KT 6000 SCT018 FEW020CB 29/13 Q1017 NOSIG
FZQA 191700Z 11006KT 8000 HZ NSC 27/18 Q1018 NOSIG
FZWA 191600Z 25010KT 9999 FEW020TCU BKN100 25/19 Q1011 NOSIG
GABS 192030Z 00000KT 9999 FEW020 28/25 Q1014 NOSIG
GAKD 191800Z 14005KT 9999 FEW030 FEW040CB 32/24 Q1010
GAMB 191800Z 00000KT 9999 FEW030 27/24 Q1011
GANR 191800Z 16004KT CAVOK 34/24 Q1012
GBYD 192000Z VRB02KT 9999 BKN011 FEW018CB SCT110 26/25 Q1011 CB(NE-E)
GCFV 192030Z 01012KT 9999 FEW032 23/19 Q1017
GCGM 192030Z AUTO VRB02KT 9999 NCD 21/18 Q1018 RMK R09/00000KT ARP/VRB01KT
GCHI 192030Z AUTO 36014KT 9999 BKN016 23/20 Q1018
GCLA 192030Z AUTO 03008KT 360V060 9999 FEW026 23/18 Q1018
GCLP 192030Z 36016KT 9999 FEW022 23/18 Q1017 NOSIG
GCRR 192030Z 03013KT 350V050 9999 FEW020 23/19 Q1016
GCTS 192030Z 07010KT 9999 SCT025 23/18 Q1017 NOSIG
GCXO 192030Z 31013KT 9999 FEW002 SCT006 18/16 Q1020 NOSIG
GEML 192030Z AUTO VRB02KT 9999 SCT016 23/20 Q1016
GFLL 192000Z 23005KT 9999 BKN012 FEW026CB 27/23 Q1011 RMK-CB-NE
GGOV 192000Z 01003KT 9999 BKN015 26/25 Q1011 NOSIG
GLRB 192030Z 00000KT 9999 BKN013 FEW024CB 25/24 Q1012 RMK CB-N-NE
GMAD 192030Z 00000KT 8000 NSC 18/15 Q1015 NOSIG
GMAT 191800Z 01016KT CAVOK 21/17 Q1013 NOSIG
GMFF 192030Z 23008KT CAVOK 24/14 Q1017 NOSIG
GMFK 192000Z 20007KT 150V260 9999 SCT026 FEW033CB 33/02 Q1018 NOSIG
GMFO 192030Z VRB02KT 8000 NSC 21/18 Q1017 NOSIG
GMME 192030Z 35003KT 8000 FEW020 SCT070 20/17 Q1016 NOSIG
GMMI 191800Z 36010KT 8000 NSC 26/16 Q1014 NOSIG
GMMN 192030Z 02006KT 360V060 9999 SCT016 SCT200 21/20 Q1017 NOSIG
GMMW 192000Z 04006KT 9999 SCT015 22/17 Q1016 NOSIG
GMMX 192030Z 02006KT 340V050 9999 FEW100 27/13 Q1016 NOSIG
GMMZ 192000Z 26011KT 9999 SCT040 FEW050TCU 31/01 Q1019 NOSIG
GMTA 192000Z 22002KT CAVOK 21/17 Q1015 NOSIG
GMTN 192000Z 03006KT CAVOK 22/17 Q1014 NOSIG
GMTT 192000Z 33006KT CAVOK 22/16 Q1015 NOSIG
GOBD 192030Z 09005KT 7000 -TSRA SCT010 FEW030CB 25/24 Q1011 TEMPO 4000 TSRA
GOGG 192000Z VRB02KT 8000 BKN016 26/24 Q1011
GOGK 191800Z VRB02KT 9999 BKN020 29/26 Q1009
GOGS 191800Z 04006KT 9999 SCT015 28/25 Q1010
GOOD 191800Z 00000KT 9999 SCT015TCU FEW030CB BKN130 30/26 Q1010
GOOG 191900Z 22004KT TS SCT013 FEW030CB BKN120 26/26 Q//// RERA
GOOK 191800Z 00000KT 9999 TS BKN013 FEW030CB 29/25 Q1011
GOOY 192000Z 00000KT 8000 -TSRA BKN013 FEW030CB 28/27 Q1011
GOSM 191900Z 18002KT 9999 FEW016 33/26 Q1010
GOSP 191800Z 00000KT CAVOK 37/23 Q1008
GOSS 192000Z 28006KT 9999 SCT013 BKN130 29/26 Q1010
GOTK 191800Z 18004KT 9999 TS BKN015 FEW030CB 32/24 Q1009
GOTT 192000Z 27002KT 9999 TS FEW026CB 27/25 Q1010
GQNO 192030Z 27011KT 6000 NSC 29/25 Q1009 NOSIG
GQPA 191800Z 18006KT 5000 DU SCT040CB 41/18 Q1010
GQPP 192000Z 34015KT 6000 NSC 21/18 Q1011 NOSIG
GUCY 191700Z 18008KT 9999 BKN015 FEW020TCU SCT110 30/26 Q1010 NOSIG
GVAC 192000Z 04013KT 9999 BKN013 27/23 Q1012 NOSIG
GVBA 191900Z 02015KT 9999 SCT015 28/23 Q1011 NOSIG
GVNP 192000Z 02007KT 9999 FEW015 28/22 Q1012 NOSIG
GVSV 192000Z 06025KT 9999 FEW016 27/22 Q1012 NOSIG
HAAB 191900Z 02005KT 9999 BKN025 16/13 Q1026
HBBA 191500Z 18028KT 9000 SCT030TCU29/20 Q1010 NOSIG
HEAT 192000Z 36008KT CAVOK 28/17 Q1014 NOSIG
HEAX 192000Z 33006KT 9999 SCT020 25/18 Q1014 NOSIG
HEBA 192000Z 33005KT CAVOK 22/18 Q1015 NOSIG
HECA 192030Z 02008KT CAVOK 26/21 Q1014 NOSIG
HECP 191800Z 01013KT CAVOK 26/16 Q1014 NOSIG
HEGN 192000Z 28009KT CAVOK 32/16 Q1008 NOSIG
HEIS 191600Z 35016KT CAVOK 29/18 Q1012
HELX 192000Z 16003KT CAVOK 32/19 Q1009 NOSIG
HEMA 192000Z 31010KT CAVOK 33/12 Q1008 NOSIG
HEMM 192000Z 34005KT 9999 FEW020 25/19 Q1016 NOSIG
HEPS 192000Z 36008KT 9999 SCT025 27/23 Q1014 NOSIG
HESC 192000Z 00000KT CAVOK 26/12 Q1024 NOSIG
HESG 192000Z 33006KT CAVOK 30/16 Q1009 NOSIG
HESH 192000Z 36010KT CAVOK 34/26 Q1008 NOSIG
HESN 192000Z 36005KT CAVOK 34/11 Q1009 NOSIG
HESW 192000Z 03020KT CAVOK 26/12 Q1016
HETR 192000Z 31017KT CAVOK 28/24 Q1008
HKEL 192000Z 14003KT CAVOK 15/13 Q1024
HKJK 192030Z 28003KT CAVOK 15/09 Q1023 NOSIG
HKKI 191800Z VRB01KT 9999 FEW021CB SCT090 25/18 Q1016
HKML 191900Z 17010KT 9999 SCT022 26/22 Q1015
HKMO 191700Z 18005KT 9999 FEW022 25/22 Q1016 NOSIG
HKNW 192000Z 00000KT CAVOK 16/10 Q1023
HKWJ 191800Z 00000KT SKC 30/17 Q1010
HRYR 191700Z 31007KT 9999 SCT025 SCT100 19/15 Q1019 NOSIG
HSNN 192000Z 00000KT CAVOK 28/21 Q1012
HSOB 192000Z 16005KT CAVOK 28/20 Q1012
HSPN 191900Z 36003KT CAVOK 32/20 Q1005
HSSS 192000Z 21005KT CAVOK 34/17 Q1010 TEMPO 6000
HTAR 191700Z 11006KT 9999 FEW028 21/13 Q1018 NOSIG
HTBU 191800Z 00000KT 9999 FEW013 FEW015CB BKN080 21/19 Q1015
HTDA 191800Z 09007KT 9999 FEW016 25/21 Q1016 NOSIG
HTDO 191800Z 09013KT 9999 SKC 23/11 Q1018
HTIR 191800Z 12005KT 9999 SKC 20/08 Q1021
HTKA 191800Z 00000KT 9999 FEW023 25/18 Q1015
HTKJ 191800Z 09010KT 9999 FEW026 24/13 Q1019 NOSIG
HTMG 191800Z 06010KT 9999 FEW024 23/18 Q1017
HTMT 191800Z 13005KT 9999 FEW020 23/201 Q1016
HTMU 191800Z 00000KT CAVOK 25/19 Q1015
HTMW 191800Z 28010KT 9999 FEW025 25/19 Q1014 NOSIG
HTSO 191800Z 11003KT 9999 SKC 22/16 Q1022
HTSU 191800Z 10003KT CAVOK 21/07 Q1020
HTTB 191800Z 09005KT CAVOK 25/10 Q1015 NOSIG
HTZA 191800Z 08005KT 9999 FEW012 25/22 Q1016 NOSIG
HUEN 192030Z 36003KT 9999 FEW021 FEW023CB20/19 Q1016
K04V 192036Z AUTO 17009G18KT 10SM SCT090 24/01 A3015 RMK AO2 PWINO
K04W 192035Z AUTO 28003KT 10SM CLR 27/16 A2999 RMK AO2
K05U 192035Z AUTO 01009KT 10SM FEW016 BKN024 BKN030 09/05 A3001 RMK A01
K06C 192035Z AUTO 00000KT 10SM CLR 29/18 A3007 RMK AO2 T02900180
K06D 192035Z AUTO 15007G13KT 10SM FEW037 23/14 A2999 RMK AO2
K08D 192035Z AUTO 12017G23KT 10SM CLR 25/13 A2987 RMK AO2
K0A9 192035Z AUTO 12006G12KT 10SM FEW039 OVC050 21/12 A3023 RMK AO2
K0CO 192036Z AUTO 10SM BKN060 OVC090 09/00 A3045 RMK AO2
K0E0 192035Z AUTO 29006KT 10SM BKN100 29/04 A3010 RMK AO2 T02850036
K0F2 192035Z AUTO 08010KT 10SM OVC025 28/21 A2992 RMK AO2 T02810209
K0J4 191958Z AUTO 15010G15KT 10SM CLR 33/16 A3006 RMK AO2 SLP173 T03280161
K0R0 192035Z AUTO 19008KT 10SM CLR 34/21 A3000 RMK AO2 LTG DSNT NE
K0R4 192035Z AUTO 20007KT 10SM CLR A2996 RMK AO2
K0S9 192035Z AUTO VRB04KT 10SM CLR 18/13 A3007 RMK AO2
K0V4 192035Z AUTO 09004KT 10SM CLR 24/10 A3027 RMK AO1 T02400095
K0VG 192035Z AUTO 10SM CLR 25/16 A3021 RMK AO2
K11R 192035Z AUTO 13005KT 10SM SCT075 26/26 A2984 RMK AO2 LTG DSNT SE THRU W T02610261
K12N 191954Z AUTO 00000KT 21/04 A3031 RMK AO1 SLP263 T02110044
K13K 192035Z AUTO 12011KT 10SM CLR 30/21 A2999 RMK AO2 T03030213
K14Y 192035Z AUTO 00000KT 10SM SCT055 26/14 A3000 RMK AO2
K17J 192030Z AUTO 10011KT 10SM SCT060 31/16 A3007 RMK AO2 T03060163
K18A 192035Z AUTO 06004KT 10SM SCT048 25/11 A3021 RMK AO2 T02510113
K18H 192035Z AUTO VRB05G14KT 10SM FEW026 32/24 A2990 RMK A01
K19S 192035Z AUTO 16014G25KT 10SM SCT065 SCT075 32/17 A2993 RMK AO2 T03160168
K1A5 192035Z AUTO 00000KT 10SM OVC032 21/13 A3029 RMK AO2 T02100131
K1A6 192035Z AUTO 15003KT 10SM BKN045 OVC050 26/17 A3017 RMK AO2 T02560172
K1A9 192035Z AUTO 06008KT 10SM CLR 32/17 A3006 RMK AO2 T03200174
K1AM 191958Z AUTO 28009KT 10SM FEW029 15/07 A2992 RMK AO2 SLP089 T01450069 $
K1AN 191956Z AUTO 11011G15KT 10SM FEW032 24/17 A2988 RMK AO2 SLP136 T02390167 $
K1AW 191958Z AUTO 18005KT 10SM CLR 27/06 A2997 RMK AO2 SLP090 T02680064 $
K1BM 191958Z AUTO 27012KT 10SM CLR 16/06 A2990 RMK AO2 SLP128 T01630057 $
K1BN 191956Z AUTO 15008KT 10SM FEW049 25/14 A2992 RMK AO2 SLP131 T02520140 $
K1BW 191958Z AUTO 15011KT 10SM FEW070 27/08 A2998 RMK AO2 SLP090 T02730081 $
K1CM 191958Z AUTO 32011G15KT 10SM CLR 17/07 A2990 RMK AO2 SLP124 T01670071 $
K1CN 191956Z AUTO 13012KT 10SM CLR 26/ A2992 RMK AO2 SLP132 $
K1CW 191958Z AUTO 14008KT 10SM CLR 28/12 A2996 RMK AO2 SLP087 T02800116 $
K1DM 191958Z AUTO 33015KT 10SM CLR 16/06 A2985 RMK AO2 SLP116 T01640063 $
K1DN 191956Z AUTO 17013KT 10SM CLR 26/12 A2991 RMK AO2 SLP128 T02590116 $
K1EM 191958Z AUTO 30015G21KT 10SM CLR 16/07 A2987 RMK AO2 SLP119 T01630068 $
K1EN 191956Z AUTO 14017G25KT 10SM CLR 25/12 A2987 RMK AO2 SLP121 T02450120 $
K1EW 191958Z AUTO 15004KT 10SM CLR 25/08 A2998 RMK AO2 SLP102 T02540082 $
K1F0 192035Z AUTO 11004KT 10SM SCT033 SCT039 OVC050 27/18 A2991 RMK AO2
K1FM 191958Z AUTO 00000KT 10SM BKN055 14/03 A2993 RMK AO2 SLP138 T01380033 $
K1FN 191956Z AUTO 14016KT 10SM CLR 25/13 A2980 RMK AO2 SLP124 T02460127 $
K1FW 191958Z AUTO 14009KT 10SM CLR 25/15 A2996 RMK AO2 SLP095 T02540152 $
K1GM 191958Z AUTO 25004KT 10SM BKN040 14/05 A2991 RMK AO2 SLP126 T01360047 $
K1GN 191956Z AUTO 14014G21KT 10SM CLR 25/12 A2988 RMK AO2 SLP126 T02460120 $
K1GW 191958Z AUTO 14010KT 10SM M 26/14 A2994 RMK AO2 SLP099 T02640137 $
K1H2 192035Z AUTO 07004KT 10SM CLR 32/12 A3006 RMK AO2 T03150119
K1HM 191958Z AUTO 34007KT 10SM BKN037 BKN065 15/06 A2991 RMK AO2 SLP124 T01500062 $
K1HN 191956Z AUTO 13012G21KT 10SM CLR 26/11 A2985 RMK AO2 SLP112 T02570107 $
K1HW 191958Z AUTO 16009KT 10SM FEW035 26/16 A2993 RMK AO2 SLP102 T02640161 $
K1IM 191958Z AUTO 27005KT 10SM FEW035 BKN085 15/07 A2992 RMK AO2 SLP141 T01510070 $
K1IN 191956Z AUTO 12018KT 10SM CLR 25/11 A2989 RMK AO2 SLP124 T02510108 $
K1J0 191958Z AUTO 08009KT 10SM SCT060 33/17 A3006 RMK AO2 SLP136 T03280167 $
K1JM 191958Z AUTO 00000KT 10SM BKN036 15/06 A2991 RMK AO2 SLP135 T01470059 $
K1JN 191956Z AUTO 11016G21KT 10SM FEW032 FEW038 24/15 A2990 RMK AO2 SLP125 T02350151 $
K1JW 191958Z AUTO 13010KT 10SM CLR 24/14 A2994 RMK AO2 SLP100 T02440143 PWINO $
K1K1 192035Z AUTO 15007G14KT 10SM CLR 30/21 A2997 RMK AO2 T02980208
K1KM 191958Z AUTO 02015G19KT 10SM CLR 19/06 A2985 RMK AO2 SLP098 T01870058 $
K1KN 191956Z AUTO 12013G20KT 10SM FEW032 23/15 A2991 RMK AO2 SLP131 T02340150 $
K1KW 191558Z AUTO 18008KT 10SM CLR 22/15 A3000 RMK AO2 SLP124 T02180152 $
K1LM 191958Z AUTO 36017G21KT 10SM CLR 16/07 A2988 RMK AO2 SLP116 T01610073 $
K1LW 191958Z AUTO 11009KT 10SM CLR 25/16 A2998 RMK AO2 SLP096 T02470158 $
K1M4 191956Z AUTO VRB04KT 10SM BKN035 30/21 A3012 RMK AO2 SLP557 T03000211
K1M5 192035Z AUTO 18008KT 10SM FEW055 31/19 A3007 RMK A01
K1MM 191958Z AUTO 33012KT 10SM FEW039 17/06 A2989 RMK AO2 SLP122 T01680055 $
K1MN 191956Z AUTO 11013KT 10SM FEW031 23/16 A2991 RMK AO2 SLP133 T02310156
K1NW 191958Z AUTO 13007KT 10SM CLR 27/10 A2994 RMK AO2 SLP088 T02660102 $
K1OM 191958Z AUTO 30018G24KT 10SM CLR 18/07 A2984 RMK AO2 SLP096 T01830074 $
K1P1 192035Z AUTO 00000KT 10SM CLR 21/06 A3027 RMK AO2 T02080055
K1R7 192035Z AUTO 04004G10KT 10SM FEW055 33/20 A2998 RMK AO2
K1S5 192035Z AUTO 00000KT 10SM OVC075 20/08 A2999 RMK AO2 T01950084
K1U7 192035Z AUTO 20008KT 10SM CLR 22/M06 A2982 RMK A01
K1V4 191954Z AUTO 21/M02 A3026 RMK AO1 SLP247 T02061017
K1V6 192030Z AUTO 11008G15KT 10SM CLR 32/02 A2995 RMK AO2
K1YT 191958Z AUTO 00000KT 10SM SCT085 21/04 A2999 RMK AO2 SLPNO T02060040 $
K20U 192035Z AUTO 14020G27KT 10SM CLR 27/12 A2979 RMK AO2
K20V 192029Z AUTO 20004KT 10SM SCT100 SCT120 23/00 A3006 RMK AO2
K21D 192035Z AUTO 00000KT 10SM CLR 27/16 A2999 RMK AO2
K22N 192036Z AUTO 16003KT 10SM CLR 22/01 A3030 RMK AO2
K24A 192020Z AUTO 11006KT 10SM OVC024 17/13 A3030 RMK AO2 T01730129
K24J 192035Z AUTO 04007G12KT 10SM FEW060 30/14 A3005 RMK A01
K27K 192035Z AUTO 22006KT 10SM SCT065 SCT080 31/15 A3008 RMK AO1
K28J 192015Z AUTO 03015G21KT 10SM FEW095 26/18 A3006 RMK AO2
K2A0 192035Z AUTO 23010KT 10SM SCT060 31/14 A3012 RMK A01
K2C8 192035Z AUTO 00000KT 9SM CLR 24/14 A2999 RMK AO2
K2D5 192035Z AUTO 14008KT 110V170 10SM CLR 28/16 A2996 RMK AO2 PWINO
K2DP 191956Z AUTO 04014G20KT 10SM SCT035 BKN060 22/14 A3022 RMK AO2 SLPNO T02210144 $
K2G4 192020Z AUTO 13006KT 10SM CLR 18/07 A3028 RMK AO1
K2G9 192035Z AUTO 19008KT 10SM CLR 19/07 A3028 RMK AO2
K2I0 192035Z AUTO 17005KT 10SM CLR 33/17 A3004 RMK AO2 T03330165
K2J3 192030Z AUTO 06008G16KT 10SM CLR 28/06 A3015 RMK AO2 T02810063
K2J5 192035Z AUTO 07007KT 040V110 10SM CLR 28/04 A3015 RMK AO2 T02790039
K2J9 192035Z AUTO 06007KT 030V100 10SM FEW055 30/16 A3007 RMK AO2
K2LS 192035Z AUTO VRB05KT 10SM CLR 29/23 A2998 RMK AO2
K2M2 192035Z AUTO 19007KT 170V250 10SM FEW043 30/18 A3008 RMK A01
K2P2 192035Z AUTO 19005KT 10SM CLR 18/17 A3004 RMK AO2 T01800171
K2R9 192035Z AUTO 17010G19KT 10SM CLR 37/21 A2980 RMK AO2 T03700212
K2V5 192035Z AUTO 14014G18KT 10SM CLR 34/05 A2989 RMK AO2
K2V6 192034Z AUTO 16006KT 10SM CLR 31/M10 A2990 RMK AO2
K2W6 192023Z AUTO 06004KT CLR 21/10 A3030 RMK AO1
K2WX 191956Z AUTO 14020G29KT 29/ A2979 RMK AO1 PK WND 13031/1929 SLP065 T0294
K33N 192035Z AUTO 05004KT 10SM CLR 21/09 A3030 RMK A01
K33V 192015Z AUTO 21020G27KT 10SM CLR 23/M03 A3013 RMK AO1
K3AU 192035Z AUTO 13009KT 10SM SCT044 31/21 A2996 RMK AO2
K3D2 192035Z AUTO 00000KT 10SM CLR 21/19 A3003 RMK AO2 T02070191
K3F3 192035Z AUTO 13013G21KT 7SM -RA OVC009 A2999 RMK AO2 P0008
K3J7 192035Z AUTO 04003KT 10SM CLR 28/12 A3018 RMK AO2
K3K3 192035Z AUTO 15014G26KT 10SM CLR 34/12 A2988 RMK AO2
K3K8 192035Z AUTO 16015KT 10SM FEW055 33/18 A2994 RMK AO2
K3LF 192035Z AUTO 18003KT 10SM CLR 30/20 A3005 RMK AO2 T03030196
K3R7 192035Z AUTO 00000KT 25/22 A2997 RMK AO2 LTG DSNT SW T02460224 PWINO
K3S8 192035Z AUTO 33007KT 10SM OVC050 18/09 A3012 RMK AO2
K3T5 192035Z AUTO 10008KT 3SM -RA SCT027 BKN060 OVC110 28/27 A2980 RMK AO2 LTG DSNT N AND NE P0002 T02790271
K40B 192016Z AUTO VRB05G11KT 21/06 A3021 RMK AO1 SLP238 T02110064 57013
K40J 192035Z AUTO 07009G16KT 10SM CLR 31/15 A3005 RMK AO2 T03050154
K41U 192035Z AUTO 21019G26KT 10SM CLR 28/M02 A2981 RMK AO1 T02761016
K42J 192035Z AUTO 05011KT 10SM SCT060 BKN070 BKN080 25/18 A3007 RMK A01 TSNO
K46D 192035Z AUTO 12010G15KT 10SM CLR 25/17 A2997 RMK AO2
K46U 192035Z AUTO 19008G15KT 160V240 10SM CLR 23/M03 A2984 RMK A01
K48A 192035Z AUTO 06009G19KT 10SM CLR 29/10 A3013 RMK AO2 T02870102
K49A 192035Z AUTO 12008KT 10SM SCT043 26/14 A3022 RMK AO2 T02640136
K4A6 192035Z AUTO VRB04G13KT 10SM CLR 31/17 A3010 RMK AO2
K4A9 192035Z AUTO 16007KT 090V200 10SM SCT055 29/16 A3012 RMK AO2 T02890157
K4BM 192032Z AUTO 22008KT 190V250 10SM SCT070 SCT080 18/M04 A3040 RMK AO2
K4I3 192036Z AUTO 13008KT 10SM CLR 28/15 A3015 RMK AO2
K4M9 192035Z AUTO 07009KT 9SM CLR 35/19 A2999 RMK AO2 PWINO
K4MR 191958Z AUTO 29008KT 10SM FEW055 FEW090 BKN110 26/11 A3000 RMK AO2 LTG DSNT E-SE SHRAE09RAB09E24SHRAB24E44 TSB09E24 SLP099 P0001 T02630107 $
K4O4 192035Z AUTO 16015G21KT 10SM CLR 31/16 A2990 RMK AO2
K4R5 192035Z AUTO 04003KT 10SM CLR 25/19 A2997 RMK AO2 T02470187
K4S1 192035Z AUTO 5SM HZ CLR 17/13 A3007 RMK AO2
K4S2 192035Z AUTO 29005KT 10SM CLR 19/10 A3004 RMK AO2
K4V0 192035Z AUTO 22017G26KT 10SM CLR 29/M01 A2987 RMK AO2 T02901012
K54A 192035Z AUTO 06012G21KT 10SM SCT060 SCT075 SCT085 31/15 A2993 RMK AO2
K54J 192035Z AUTO 10011G15KT 070V140 10SM SCT050 32/17 A3005 RMK AO2 T03170167
K57C 192035Z AUTO 18004KT 10SM SCT065 SCT085 OVC120 23/19 A3006 RMK AO2 T02250190
K5A6 192035Z AUTO 13006KT 10SM CLR 31/23 A2999 RMK AO2 T03070225
K5C1 192035Z AUTO 17004KT 10SM CLR 35/18 A2985 RMK AO1
K5H4 192035Z AUTO 11011G17KT 10SM CLR 25/17 A2996 RMK AO2
K5M9 192035Z AUTO 03003KT 10SM CLR 33/16 A3003 RMK AO2 T03260157
K5R8 192035Z AUTO 00000KT 10SM -DZ SCT004 BKN050 OVC090 23/22 A2997 RMK AO2 LTG DSNT SW P0002 T02310222
K5SM 192025Z AUTO 19007G20KT 100V010 10SM SCT065 15/M02 A3033 RMK AO2 LTG DSNT NW
K5T9 192035Z AUTO 17007G12KT 10SM SCT070 SCT110 39/17 A2977 RMK A01
K65S 192035Z AUTO 20003KT 10SM FEW030 17/08 A2995 RMK AO2
K66R 192035Z AUTO 16007KT 4SM TSRA SCT042 BKN065 OVC090 23/21 A2986 RMK AO2 LTG DSNT ALQS P0027 T02300213
K6A1 192035Z AUTO 06010G16KT 10SM 29/10 A3014 RMK AO2 T02920104
K6A2 192035Z AUTO 05008KT 10SM CLR 27/12 A3017 RMK AO2
K6B9 192035Z AUTO 21004KT 10SM CLR 21/08 A3028 RMK AO2
K6I2 192020Z AUTO 18009KT SCT050 31/19 A3009 RMK AO2
K6L4 192035Z AUTO 00000KT 10SM FEW055 26/13 A3018 RMK AO2
K6P9 192035Z AUTO 10007KT 10SM CLR 32/19 A2989 RMK AO2 T03150187
K6R3 191615Z AUTO 20007KT 2SM +RA SCT012 OVC024 23/23 A2997 RMK AO2 LTG DSNT SE THRU W P0019 T02300230
K6R6 191953Z AUTO 16004KT 36/12 A2984 RMK AO1 SLP063 T03610117
K6S0 192035Z AUTO VRB06KT 10SM CLR 19/06 A2987 RMK A01
K6S5 192030Z AUTO 29007KT 10SM FEW060 BKN075 15/08 A2994 RMK AO2
K74V 192035Z AUTO 20005KT 10SM BKN110 27/M01 A2984 RMK AO2
K77S 192035Z AUTO VRB03KT 10SM SCT035 BKN046 BKN055 19/11 A3008 RMK A01
K79J 191956Z AUTO 09007G16KT 070V140 10SM FEW060 34/17 A3005 RMK AO2 SLP168 T03390167
K7BM 192030Z AUTO 18012G18KT 10SM SCT095 20/M05 A3026 RMK AO2
K7L2 192035Z AUTO 15014G22KT 10SM CLR 27/15 A2992 RMK AO2
K7N0 191956Z AUTO 17009KT 10SM SCT045 33/22 A2998 RMK AO2 SLP152 T03330217
K7W4 192035Z AUTO 12004KT 10SM CLR 23/05 A3028 RMK AO1 T02270052
K7W6 192020Z AUTO 02011G17KT 10SM SCT039 SCT045 22/11 A3023 RMK AO2 T02230114
K82C 192035Z AUTO 00000KT 7SM BKN020 OVC028 24/20 A3002 RMK AO2 T02380201
K82V 192035Z AUTO 15006KT 10SM CLR 27/07 A2996 RMK AO2
K8A0 192035Z AUTO 17008KT 10SM SCT050 SCT060 30/15 A3012 RMK AO2
K8A3 192035Z AUTO 21007KT 10SM FEW048 28/16 A3012 RMK A01
K8B0 192035Z AUTO 29004KT 10SM CLR 19/01 A3028 RMK AO2
K8D3 191956Z AUTO 13008KT 27/16 A2996 RMK AO1 SLP128 T02720161
K8W2 192035Z AUTO 00000KT 10SM CLR 24/07 A3025 RMK AO1 T02360072
K96D 192035Z AUTO VRB03KT 10SM CLR 23/14 A2999 RMK AO2
K9A5 192035Z AUTO 12003KT 7SM SCT055 SCT070 28/14 A3014 RMK AO2 T02830137
K9D7 192035Z AUTO 14007G14KT 10SM SCT017 21/16 A3000 RMK AO2
K9L2 191958Z AUTO 25016G22KT 8SM CLR 25/05 A2986 RMK AO2 SLP092 T02450051 $
K9MN 192035Z AUTO 11003KT 10SM OVC026 24/20 A3002 RMK AO1 T02360200
K9V9 192035Z AUTO 13011G16KT 10SM CLR 28/23 A2990 RMK AO2 T02750233
KA08 192035Z AUTO 11006KT 10SM BKN050 33/19 A3003 RMK AO2 T03320189
KA39 192035Z AUTO 21013G20KT 10SM CLR 38/07 A2978 RMK AO2
KAAA 192035Z AUTO 00000KT 10SM CLR 32/20 A3003 RMK AO2 T03160199
KAAF 191953Z AUTO 12010KT 10SM CLR 29/19 A3005 RMK AO2 SLP174 T02940189
KAAO 191954Z AUTO 17010KT 10SM CLR 30/20 A2997 RMK AO2 SLP133 T03000200
KAAS 192035Z AUTO 17006KT 10SM BKN049 30/16 A3014 RMK AO1
KAAT 191955Z AUTO 02008KT 10SM SCT044 BKN055 14/04 A3001 RMK AO2 SLP144 T01390044
KABE 191951Z 00000KT 10SM CLR 22/02 A3031 RMK AO2 SLP262 T02170017
KABH 192028Z AUTO 20012G17KT 10SM CLR 28/M02 A3004 RMK AO2 WSHFT 25 SLP092 $
KABI 191952Z 11008G14KT 10SM SCT060 34/16 A2988 RMK AO2 SLP089 T03440161
KABQ 191952Z VRB04KT 10SM FEW100 FEW200 28/03 A3005 RMK AO2 SLP090 CB DSNT S-W T02830033
KABR 191953Z AUTO 14011KT 10SM CLR 27/16 A2994 RMK AO2 SLP133 T02720156
KABY 191953Z 04013G20KT 10SM CLR 31/13 A3011 RMK AO2 SLP194 T03060133
KACB 192040Z AUTO 00000KT 10SM CLR 29/15 A3005 RMK AO2 T02860152
KACJ 192035Z AUTO 05007KT 030V090 10SM CLR 31/11 A3013 RMK AO2
KACK 191953Z 02013KT 10SM CLR 17/08 A3027 RMK AO2 SLP251 T01670078
KACP 192043Z AUTO 00000KT 4SM RA SCT028 OVC090 25/24 A2998 RMK AO2 LTG DSNT SW P0005
KACQ 192019Z AUTO 00000KT 10SM BKN024 BKN029 BKN035 27/21 A3000 RMK AO2
KACT 191951Z 01009G15KT 10SM SCT048 33/20 A2984 RMK AO2 SLP098 T03330200
KACV 191953Z AUTO 32008KT 10SM CLR 18/13 A3005 RMK AO2 SLP180 T01780128
KACY 191954Z 07007KT 10SM CLR 21/09 A3031 RMK AO2 SLP262 T02060094
KADC 192036Z AUTO 08003KT 10SM SCT060 27/16 A2999 RMK AO2
KADF 192026Z AUTO 00000KT 7SM VCTS -RA FEW032 BKN070 OVC120 26/23 A2998 RMK AO2 TSB15 P0002
KADG 191953Z AUTO 09004KT 10SM CLR 26/12 A3013 RMK AO2 SLP202 T02560122
KADH 192035Z AUTO 11009KT 10SM SCT070 30/18 A2993 RMK AO2
KADM 191955Z 09008KT 10SM BKN037 BKN046 OVC055 30/21 A2992
KADS 192030Z 10012KT 10SM BKN022 OVC027 27/21 A2989
KADU 192035Z AUTO 10005KT 10SM 27/22 A3000 RMK AO2
KADW 191956Z AUTO 13005KT 10SM CLR 21/01 A3029 RMK AO2 SLP263 T02140005 $
KAEG 191947Z 26008KT 10SM SCT100 28/04 A3009
KAEJ 192035Z AUTO 00000KT 10SM SCT100 24/M04 A3011 RMK AO2 T02371036
KAEL 192029Z AUTO 21005KT 10SM CLR 27/20 A2999 RMK AO2
KAEX 191953Z 19009KT 10SM CLR 27/22 A2996 RMK AO2 LTG DSNT SE RAE1854 SLP149 P0000 T02670222
KAFF 192040Z AUTO 15015G24KT 10SM CLR 28/00 A3001 RMK AO2 WSHFT 35 SLP079
KAFJ 191956Z AUTO VRB04KT 10SM CLR 24/09 A3024 RMK AO2 SLP236 T02440094
KAFK 192035Z AUTO 16009KT 10SM CLR 31/22 A2996 RMK AO2 T03110219
KAFN 191952Z AUTO 25005KT 10SM CLR 20/03 A3030 RMK AO2 SLP268 T02000028
KAFO 192035Z AUTO 19013G19KT 10SM CLR 22/M03 A2985 RMK AO2
KAFP 192035Z AUTO 10SM 25/08 A3022 RMK AO2 T02490075
KAFW 191953Z 03009KT 10SM SCT021 BKN035 OVC043 27/22 A2988 RMK AO2 SLP105 BINOVC T02720217
KAGC 191953Z 10006KT 10SM CLR 24/09 A3022 RMK AO2 SLP234 T02390094
KAGS 191953Z 09010KT 10SM CLR 29/06 A3017 RMK AO2 SLP213 T02890056
KAHN 191951Z 02007KT 10SM CLR 26/12 A3020 RMK AO2 SLP220 T02610122
KAHQ 192035Z AUTO 16010KT 10SM CLR 31/21 A2994 RMK AO2 T03110208
KAIA 191953Z AUTO 12011KT 10SM CLR 26/16 A2992 RMK AO2 SLP097 T02560156
KAIB 192035Z AUTO 21018G26KT 10SM SCT100 BKN120 28/00 A3001 RMK AO2
KAID 191859Z 11003KT 10SM CLR 29/15 A3010
KAIG 192035Z AUTO 25004KT 10SM SCT120 22/18 A3005 RMK AO2 T02200177
KAIK 192035Z AUTO 07008KT 10SM CLR 27/04 A3022 RMK AO2
KAIO 192035Z AUTO 06004KT 10SM FEW070 28/23 A2996 RMK AO2
KAIT 192037Z AUTO 25004KT 10SM CLR 26/16 A2999 RMK AO2
KAIZ 191956Z AUTO 19007KT 10SM CLR 34/19 A3002 RMK AO2 SLP155 T03390189
KAJG 192035Z AUTO 17004KT 10SM CLR 31/18 A3004 RMK AO2 T03050177
KAJO 191956Z AUTO 30010KT 10SM CLR 26/15 A2985 RMK AO2 SLP102 T02610150
KAJR 192035Z AUTO 08008KT 10SM SCT043 23/12 A3023 RMK AO2 T02300115
KAJZ 192035Z AUTO 20008KT 10SM CLR 29/01 A2993 RMK AO2 T02940007
KAKH 191954Z AUTO 06006KT 10SM CLR 25/08 A3024 RMK AO2 SLP235 T02500083
KAKO 191953Z AUTO 18009KT 10SM CLR 31/04 A2994 RMK AO2 SLP076 T03060039 $
KAKQ 191954Z AUTO VRB04KT 10SM SCT050 22/11 A3028 RMK AO2 SLP253 T02170106
KAKR 191954Z AUTO 14008KT 10SM CLR 28/12 A3017 RMK AO2 SLP209 T02780122
KALB 191951Z 00000KT 10SM FEW250 21/04 A3030 RMK AO2 SLP260 T02110039
KALI 191953Z AUTO 17009KT 10SM FEW055 37/22 A2979 RMK AO2 SLP084 T03720222
KALK 191956Z AUTO 24014KT 10SM CLR 31/05 A3003 RMK AO2 SLP071 T03060050
KALM 192035Z AUTO 23004KT 10SM CLR 33/07 A2997 RMK AO2
KALN 191946Z VRB03KT 10SM FEW060 SCT250 31/21 A3004
KALO 191954Z 18009KT 10SM CLR 27/20 A3001 RMK AO2 SLP154 T02670200
KALS 191952Z AUTO 21017G21KT 10SM FEW100 24/M01 A3016 RMK AO2 SLP127 T02391011
KALW 191953Z 19009KT 10SM FEW025 SCT043 18/10 A3001 RMK AO2 SLP160 T01830100
KALX 192035Z AUTO 11008KT 10SM BKN048 29/17 A3012 RMK AO2 T02880169
KAMA 191953Z AUTO 12014G21KT 10SM FEW055 30/16 A2997 RMK AO2 LTG DSNT W AND NW SLP091 T03000161
KAMG 191953Z AUTO VRB05KT 10SM CLR 29/11 A3010 RMK AO2 SLP190 T02890111
KAMN 192036Z AUTO 19004KT 10SM CLR 27/09 A3011 RMK AO2 T02710086
KAMW 191953Z AUTO 19005KT 10SM CLR 26/19 A3002 RMK AO2 SLP155 T02560194
KANB 191953Z AUTO 12008KT 10SM CLR 31/16 A3012 RMK AO2 SLP189 T03060161
KAND 191956Z AUTO 06009KT 10SM SCT050 26/11 A3022 RMK AO2 SLP224 T02560111
KANE 191945Z 00000KT 10SM SCT250 28/17 A2998
KANJ 191955Z AUTO 17006KT 10SM FEW029 SCT060 24/17 A3006 RMK AO2 SLP174 T02390167
KANK 192035Z AUTO 15014G21KT 120V180 10SM CLR 26/00 A3017 RMK AO1 T02591004
KANQ 192035Z AUTO 00000KT 10SM CLR 26/ A3010 RMK AO2
KANW 192035Z AUTO 13011KT 3SM HZ CLR 27/19 A2991 RMK AO2 T02690193
KAOH 191953Z AUTO 18005KT 10SM CLR 28/17 A3010 RMK AO2 SLP187 T02830172
KAOO 191953Z AUTO 19004KT 10SM CLR 21/08 A3029 RMK AO2 SLP254 T02060078
KAPA 191953Z 03007KT 10SM SCT100 SCT220 29/02 A2997 RMK AO2 SLP076 T02890017
KAPC 191954Z 20006KT 10SM CLR 23/11 A2995 RMK AO2 SLP134 T02280111
KAPF 191953Z 04015G19KT 10SM BKN080 30/20 A2992 RMK AO2 SLP129 T03000200
KAPG 191959Z 12004KT 10SM CLR 22/07 A3030 RMK SLP264 T02160072 $
KAPN 191954Z 17003KT 10SM CLR 27/14 A3010 RMK AO2 SLP190 T02720144
KAPS 192035Z AUTO 14007KT 10SM SCT034 SCT043 SCT055 35/23 A2996 RMK AO2 T03450233
KAPY 192035Z AUTO 16010KT 10SM SCT060 36/20 A2978 RMK AO2 T03620196
KAQO 192035Z AUTO 16007G17KT 10SM SCT070 SCT120 32/20 A2986 RMK AO2
KAQP 192030Z AUTO 00000KT 10SM CLR 28/14 A2996 RMK AO2
KAQR 192035Z AUTO 12006G14KT 10SM SCT060 SCT075 32/18 A2991 RMK AO2
KAQV 191956Z AUTO VRB04KT 10SM -RA OVC100 24/22 A2996 RMK AO2 SLP142 P0005 T02390222
KAQW 191952Z AUTO VRB05KT 10SM CLR 21/06 A3029 RMK AO2 SLP258 T02110056
KAQX 192035Z AUTO VRB04G10KT 10SM CLR 28/08 A3015 RMK AO2 TSNO
KARA 191953Z 17009KT 10SM CLR 30/25 A2996 RMK AO2 LTG DSNT NW SLP146 T03000250 $
KARB 191953Z 13005KT 10SM CLR 25/14 A3013 RMK AO2 SLP199 T02500144
KARG 191956Z AUTO 05006KT 10SM FEW075 35/18 A2999 RMK AO2 SLP155 T03500183
KARM 192035Z AUTO 04003KT 4SM TSRA SCT025 BKN031 BKN060 25/21 A2989 RMK AO2 LTG DSNT NE E AND SW P0001 T02520211
KARR 191952Z VRB03KT 10SM CLR 27/19 A3008 RMK AO2 SLP182 T02670189
KART 191956Z AUTO 30006KT 10SM CLR 21/09 A3027 RMK AO2 SLP247 T02110089
KARV 192035Z AUTO 00000KT 10SM BKN033 25/19 A3002 RMK AO2 T02500193
KARW 192035Z AUTO 03011KT 7SM CLR 26/14 A3015 RMK AO2
KASD 191953Z AUTO 14007KT 10SM CLR 33/22 A2997 RMK AO2 SLP148 T03280217
KASE 191953Z 27008KT 10SM BKN100 22/M01 A3010 RMK AO2 SLP074 T02221006
KASG 191948Z 18007KT 10SM BKN044 31/22 A3005
KASH 191956Z 00000KT 10SM CLR 21/02 A3028 RMK AO2 SLP259 T02060022
KASJ 192035Z AUTO 36010KT 10SM SCT047 BKN060 22/12 A3026 RMK AO2 T02150119
KASL 192035Z AUTO 2 1/2SM OVC008 22/21 A2994 RMK AO1 P0003 T02240210
KASN 192035Z AUTO 16006KT 10SM BKN055 32/17 A3011 RMK AO2 T03220169
KAST 191955Z AUTO 35004KT 10SM OVC021 17/13 A3009 RMK AO2 SLP190 T01720128
KASW 192035Z AUTO 13005KT 10SM CLR 27/12 A3009 RMK AO2
KASX 191953Z AUTO 25008KT 10SM CLR 28/17 A2998 RMK AO2 SLP148 T02780172
KATL 191952Z 13009KT 10SM FEW060 FEW250 28/13 A3018 RMK AO2 SLP210 T02780128
KATP 192035Z AUTO 12010KT 10SM CLR 29/23 A2996 RMK A01
KATS 192035Z AUTO 13005G10KT 10SM CLR 33/11 A2993 RMK AO2
KATT 192036Z AUTO 24004KT 5SM -TSRA FEW038 BKN100 OVC120 26/23 A2985 RMK AO2 RAB1952 TSB1957 P0034 T02610228
KATW 191945Z 17008KT 10SM SCT035 BKN120 23/19 A3002
KATY 191953Z AUTO 12009G16KT 10SM CLR 27/16 A2996 RMK AO2 SLP138 T02670161
KAUG 191953Z AUTO 31006KT 10SM CLR 20/05 A3027 RMK AO2 SLP251 T02000050
KAUH 192035Z AUTO 17014G20KT 10SM SCT040 31/21 A2992 RMK AO2 T03050207
KAUM 192036Z AUTO 19006KT 10SM SCT025 28/18 A3000 RMK AO2
KAUN 192035Z AUTO 27006KT 10SM CLR 21/08 A2996 RMK A01
KAUO 191956Z AUTO VRB03KT 10SM FEW045 A3014 RMK AO2 SLPNO FZRANO $
KAUS 191953Z 14006KT 10SM SCT060 SCT120 BKN250 36/22 A2980 RMK AO2 SLP079 T03610217 $
KAUW 191954Z AUTO 16006KT 10SM CLR 22/19 A3003 RMK AO2 SLP167 T02220189
KAVC 192035Z AUTO 00000KT SCT050 22/10 A3032 RMK AO2 T02170096
KAVK 192035Z AUTO 16014G20KT 10SM FEW055 FEW070 32/18 A2992 RMK AO2
KAVL 191954Z 12005KT 10SM OVC032 19/10 A3029 RMK AO2 SLP239 T01890100
KAVP 191954Z 24007KT 200V260 10SM CLR 22/08 A3029 RMK AO2 SLP253 T02220078
KAVQ 192035Z AUTO 26005G16KT 10SM CLR 35/05 A2979 RMK AO2 T03530050
KAVX 192027Z AUTO 25008KT 10SM SCT007 19/14 A2990 RMK AO2 T01940139
KAWG 192035Z AUTO 11009KT 10SM CLR 25/21 A2998 RMK AO2
KAWM 191953Z AUTO 15011KT 10SM CLR 36/20 A2997 RMK AO2 SLP144 T03560200 $
KAWO 191956Z AUTO 15005KT 10SM SCT022 18/12 A3009 RMK AO2 SLP191 T01780122 PNO $
KAXA 192035Z AUTO 17007KT 10SM CLR 27/20 A2998 RMK A01
KAXH 192035Z AUTO 00000KT 4SM TSRA SCT060 BKN070 OVC080 22/22 A2993 RMK AO2 LTG DSNT ALQS P0009 T02160216
KAXN 191953Z AUTO 23006KT 10SM CLR 27/14 A3001 RMK AO2 SLP157 T02670144
KAXS 192035Z AUTO 10011G14KT 10SM RA SCT041 32/19 A2993 RMK AO2 T03230191
KAXV 192037Z AUTO 00000KT 10SM SCT070 28/17 A3008 RMK AO2
KAXX 192035Z AUTO 29012G16KT 270V330 SCT070 SCT090 SCT120 21/02 A3023 RMK AO2 T02130018 PWINO
KAYS 192035Z AUTO 10010G14KT 10SM SCT060 30/07 A3010 RMK AO2 T02950073 TSNO
KAZC 192035Z AUTO 23020G25KT 10SM CLR 30/M07 A2989 RMK AO2
KAZE 192030Z AUTO 06006G14KT 10SM CLR 29/07 A3011 RMK AO2 T02930067
KAZO 191953Z 12006KT 10SM CLR 29/11 A3010 RMK AO2 SLP187 T02890106
KBAB 191958Z AUTO 32005KT 10SM CLR 22/11 A2993 RMK AO2 SLP138 T02210109 $
KBAC 192035Z AUTO 12010KT 10SM CLR 25/17 A2998 RMK AO2
KBAD 192024Z 17020G31KT 10SM -RA OVC026 26/20 A2995 RMK AO2A RAB24 SLP143
KBAF 191953Z 00000KT 10SM CLR 21/M01 A3029 RMK AO2 SLP259 T02061006
KBAK 191945Z 18005KT 10SM SCT050 BKN060 30/16 A3007
KBAM 192035Z AUTO 13012KT 10SM SCT095 15/06 A2994 RMK AO1
KBAN 191952Z AUTO 24007G20KT 160V270 10SM FEW070 13/M06 A2998 RMK AO2 SLP080 T01331056 $
KBAX 192036Z AUTO 18008G15KT 10SM CLR 26/11 A3012 RMK AO2 T02560114
KBAZ 191951Z 22007G16KT 10SM CLR 38/20 A2979 RMK AO2 LTG DSNT N SLP078 T03780200
KBBB 192036Z AUTO 18005KT 10SM CLR 28/16 A2998 RMK AO2
KBBD 192035Z AUTO VRB03G10KT 10SM CLR 36/14 A2984 RMK AO2
KBBF 192035Z AUTO 18017KT 9SM CLR 30/25 A2985 RMK A01
KBBG 191945Z 14009KT 10SM SCT050 BKN250 33/18 A3004
KBBP 192035Z AUTO 04007KT 10SM CLR 25/11 A3021 RMK AO2
KBBW 191953Z AUTO 15014KT 10SM CLR 29/21 A2992 RMK AO2 PK WND 16027/1935 SLP109 T02940211
KBCB 192035Z AUTO 12008KT 10SM CLR 20/11 A3031 RMK AO2 T02020106
KBCE 191953Z AUTO 20018G34KT 10SM CLR 21/M03 A3004 RMK AO2 PK WND 18037/1920 SLP061 T02111033
KBCK 192035Z AUTO 00000KT 10SM OVC030 24/20 A3001 RMK AO2 T02440198
KBCT 191947Z 08015G25KT 10SM SCT035 30/20 A2993
KBDE 192014Z AUTO 34007KT 10SM SCT017 19/14 A3003 RMK AO2 T01890139
KBDG 192035Z AUTO 18020G26KT 10SM 27/02 A3004 RMK AO1 T02670021
KBDH 192038Z AUTO 16004KT 10SM CLR 28/17 A3001 RMK AO2
KBDL 191951Z 01004KT 10SM FEW220 21/01 A3029 RMK AO2 SLP258 T02110011
KBDN 192035Z AUTO 06005KT 10SM FEW032 FEW050 16/06 A3005 RMK AO2 LTG DSNT E
KBDR 191952Z 21007KT 10SM CLR 19/07 A3030 RMK AO2 SLP262 T01890067
KBDU 192030Z AUTO 07005KT 7SM CLR 28/02 A2995 RMK AO2
KBEA 192035Z AUTO 10SM SCT060 SCT070 36/23 RMK AO2 T03570226 TSNO
KBEC 192035Z AUTO 14011G18KT 10SM CLR 31/21 A2997 RMK AO2 T03060205
KBED 191951Z AUTO 10SM CLR 22/04 A3027 RMK AO2 SLP264 T02220039
KBEH 191953Z AUTO VRB03KT 10SM CLR 26/14 A3008 RMK AO2 SLP184 T02560144
KBFD 191953Z AUTO 18006KT 10SM CLR 20/08 A3029 RMK AO2 SLP252 T02000078
KBFF 191953Z AUTO 11013G19KT 10SM CLR 29/16 A2990 RMK AO2 SLP080 T02940156
KBFI 191953Z 33003KT 10SM SCT024 BKN031 19/12 A3008 RMK AO2 SLP187 T01890117
KBFL 191954Z 10SM FEW045 24/10 A2992 RMK AO2 SLP125 T02390100
KBFM 192042Z 33018G22KT 10SM TSRA OVC014 24/23 A3005 RMK AO2 LTG DSNT ALQDS P0000 T02440228
KBGD 192017Z AUTO 12006KT 10SM BKN110 24/16 A2995 RMK AO2 LTG DSNT E AND SE RAE05 TSE11 P0000 T02390161
KBGE 192035Z AUTO 07014KT 10SM CLR 31/14 A3007 RMK AO2 T03140141
KBGF 192035Z AUTO 16008KT 130V190 10SM SCT055 SCT070 30/15 A3010 RMK A01
KBGM 191953Z 23005KT 10SM CLR 19/07 A3030 RMK AO2 SLP259 T01940067
KBGR 191953Z 31005KT 10SM CLR 20/04 A3025 RMK AO2 SLP242 T02000044
KBHB 191956Z AUTO 21009KT 10SM CLR 18/07 A3025 RMK AO2 SLP246 T01830072
KBHC 192035Z AUTO 06010KT 10SM CLR 28/12 A3011 RMK AO2
KBHK 191951Z AUTO 14020KT 10SM CLR 28/11 A2979 RMK AO2 SLP071 T02830106
KBHM 191953Z VRB04KT 10SM SCT055 BKN150 31/17 A3011 RMK AO2 SLP186 T03060172
KBID 191956Z AUTO VRB03KT 10SM CLR A3029 RMK AO2 SLPNO FZRANO $
KBIE 192035Z AUTO 17012G15KT 10SM CLR 31/22 A2995 RMK AO2 T03100221
KBIF 191958Z AUTO 21003KT 10SM CLR 31/11 A2995 RMK AO2 SLP072 T03130108 $
KBIH 191956Z AUTO 10SM CLR 24/M06 A2984 RMK AO2 SLP061 T02441061
KBIJ 192035Z AUTO 07006G14KT 030V090 10SM CLR 30/13 A3009 RMK AO2
KBIL 191953Z 36006KT 10SM FEW080 SCT200 20/07 A2983 RMK AO2 SLP080 T02000067 $
KBIS 191952Z 13015G22KT 10SM CLR 26/14 A2990 RMK AO2 SLP122 T02610144
KBIV 191953Z AUTO 28003KT 10SM CLR 26/16 A3009 RMK AO2 SLP187 T02610161
KBIX 192039Z AUTO 23009KT 5SM TSRA SCT003 BKN018 BKN025 OVC047 27/24 A3001 RMK AO2 RAB00 TSB09 CIG 018V025 SLP165
KBJC 191950Z 05005KT 20SM SCT100 28/00 A2999
KBJI 192036Z AUTO 00000KT 10SM CLR 24/15 A3001 RMK AO2 T02370153
KBJJ 191956Z AUTO 16008G16KT 10SM CLR 26/13 A3016 RMK AO2 SLP209 T02610133
KBKB 191954Z AUTO VRB03KT 10SM -RA FEW065 BKN110 24/23 A2995 RMK AO2 SLP167 P0000 T02440228
KBKD 192035Z AUTO 5SM HZ CLR 33/18 A2988 RMK AO2 T03260176
KBKE 191953Z AUTO 33017G22KT 10SM SCT060 BKN070 17/07 A2998 RMK AO2 SLP146 T01720067
KBKF 191958Z 34005KT 10SM FEW110 29/01 A2997 RMK AO2A SLP074 T02880013
KBKL 191953Z 19008KT 10SM CLR 28/13 A3013 RMK AO2 SLP200 T02780128
KBKN 192035Z AUTO 12013G19KT 10SM CLR 33/21 A2996 RMK AO2
KBKS 192035Z AUTO 14011G18KT 10SM SCT075 36/24 A2978 RMK AO1 T03590235
KBKT 192035Z AUTO 02004KT 10SM CLR 23/08 A3027 RMK AO1 T02260081
KBKV 191953Z AUTO 05015G24KT 10SM BKN043 OVC050 27/18 A3002 RMK AO2 SLPNO T02670183
KBKW 191951Z AUTO 17011G16KT 130V190 10SM CLR 23/11 A3025 RMK AO2 SLP220 T02280106
KBKX 191956Z AUTO 15010KT 10SM CLR 26/18 A2998 RMK AO2 SLP157 T02610183
KBLF 191952Z AUTO VRB04KT 10SM FEW032 19/11 A3028 RMK AO2 SLP231 T01940106
KBLH 191952Z AUTO VRB04KT 10SM CLR 33/02 A2972 RMK AO2 SLP058 T03330022
KBLI 192028Z 20006KT 10SM FEW008 SCT028 15/11 A3007 RMK AO2 T01500111
KBLM 191956Z AUTO 05004KT 10SM CLR 18/06 A3032 RMK AO2 SLP267 T01780061
KBLU 191952Z AUTO 27006KT 10SM FEW045 SCT050 11/06 A3005 RMK AO2 SLP144 T01060056
KBLV 191956Z AUTO 10003KT 10SM CLR 32/19 A3002 RMK AO2 SLP165 T03210193 $
KBMC 192030Z AUTO 00000KT 10SM CLR 23/M03 A2981 RMK AO1 T02281032
KBMG 191953Z VRB03KT 10SM BKN050 29/17 A3007 RMK AO2 SLP174 T02940167
KBMI 191956Z VRB03KT 10SM SCT060 29/18 A3007 RMK AO2 SLP174 T02940178
KBML 191952Z AUTO VRB04KT 10SM CLR 22/01 A3027 RMK AO2 SLP255 T02220011
KBMQ 192017Z AUTO 19007KT 10SM VCTS BKN060 32/19 A2987 RMK AO2 LTG DSNT SE AND W T03220189
KBMT 192035Z AUTO 11006KT 10SM -VCTSDZ SCT015 BKN025 OVC038 24/23 A2994 RMK AO2 LTG DSNT SW T02400226
KBNA 191953Z 16008KT 10SM BKN055 BKN250 33/17 A3009 RMK AO2 SLP180 T03280172
KBNL 192035Z AUTO 05006G15KT CLR 28/07 A3017 RMK AO2
KBNO 191953Z AUTO 01011KT 10SM SCT050 17/03 A2999 RMK AO2 SLP141 T01670028 $
KBNW 192035Z AUTO 21008KT 9SM CLR 26/20 A3000 RMK AO2
KBOI 191953Z 34007KT 10SM CLR 14/08 A2993 RMK AO2 SLP128 T01390083
KBOK 191956Z AUTO 31013KT 10SM BKN046 19/12 A3007 RMK AO2 SLP181 T01940122
KBOS 191954Z 09008KT 10SM CLR 18/06 A3030 RMK AO2 SLP258 T01780061
KBOW 191950Z 04010G20KT 10SM SCT040 31/17 A2997
KBPC 192035Z AUTO 14011G16KT 10SM -RA SCT046 BKN080 OVC120 22/17 A2994 RMK AO2
KBPG 192035Z AUTO 11004KT 7SM SCT120 34/12 A2991 RMK AO2 LTG DSNT SW T03400123
KBPI 191953Z AUTO 20010G19KT 10SM CLR 21/M04 A2993 RMK AO2 SLP061 T02111044
KBPK 191953Z AUTO 09006KT 10SM CLR 32/21 A3000 RMK AO2 LTG DSNT W SLP148 T03220206
KBPT 191953Z 11008KT 10SM -RA SCT035 BKN050 OVC100 25/23 A2994 RMK AO2 SLP139 P0005 T02500228 $
KBQK 192035Z AUTO 05019G23KT 10SM BKN033 BKN038 BKN046 25/18 A3012 RMK AO2 T02520179
KBQP 192035Z AUTO 24010KT 10SM SCT065 BKN090 30/21 A2997 RMK AO2 T02980207
KBQX 192035Z AUTO 17017KT 9SM BKN019 BKN025 BKN030 30/27 A2988 RMK A01
KBRD 191953Z AUTO 28005KT 6SM HZ CLR 28/16 A3000 RMK AO2 SLP154 T02830161
KBRG 192035Z AUTO 11003KT 10SM CLR 29/01 A3002 RMK AO2 T02910012
KBRL 191953Z AUTO 07007KT 10SM CLR 27/20 A3003 RMK AO2 SLP163 T02720200
KBRO 191953Z 17018G26KT 10SM FEW035 SCT045 34/24 A2982 RMK AO2 PK WND 15026/1905 SLP095 T03390239
KBRY 192035Z AUTO 21005KT 10SM SCT055 31/16 A3005 RMK AO1
KBTA 192035Z AUTO 16011KT 10SM CLR 30/22 A2995 RMK AO2 T02970215
KBTL 191953Z 16005KT 10SM CLR 27/12 A3011 RMK AO2 SLP192 T02720117
KBTM 191953Z AUTO 33003KT 10SM OVC065 11/04 A2997 RMK AO2 SLP125 T01110044
KBTP 191956Z AUTO 14006KT 10SM CLR 23/11 A3024 RMK AO2 SLP241 T02280106 PNO $
KBTR 191953Z 11007KT 10SM SCT030 31/22 A2995 RMK AO2 SLP141 T03110222
KBTV 191954Z VRB04KT 10SM SCT150 22/00 A3028 RMK AO2 SLP255 T02170000
KBUF 191954Z 21006KT 10SM FEW200 SCT240 BKN300 24/09 A3022 RMK AO2 SLP233 T02390089
KBUR 191953Z VRB03KT 10SM CLR 25/13 A2986 RMK AO2 SLP097 T02500133
KBUU 192035Z AUTO 19004KT 10SM SCT050 SCT070 SCT095 14/10 A3008 RMK AO2 T01410100
KBUY 191954Z AUTO 10SM CLR 25/08 A3025 RMK AO2 SLP238 T02500078
KBVE 191951Z AUTO VRB06KT 10SM BKN034 31/23 A2998 RMK AO2 SLP151 T03060228
KBVI 192035Z AUTO 14004KT 10SM CLR 25/08 A3022 RMK AO2 T02530081
KBVN 192030Z AUTO 16011KT 10SM SCT038 30/21 A2994 RMK AO2 T02950213
KBVO 191953Z AUTO 12012G18KT 10SM FEW050 33/21 A2997 RMK AO2 SLP138 T03280206
KBVS 192035Z AUTO VRB04KT 10SM FEW015 19/13 A3008 RMK A01
KBVU 192035Z AUTO 25021G28KT 10SM CLR 31/M06 A2973 RMK AO2
KBVX 192028Z AUTO 27004KT 9SM VCTS CLR 28/21 A2999 RMK AO2 TSB01E09B11E25B28
KBVY 191953Z 13009KT 10SM CLR 18/07 A3029 RMK AO2 SLP252 T01780072
KBWD 192015Z AUTO 02006KT 10SM CLR 33/17 A2985 RMK AO1
KBWG 191953Z AUTO 15004KT 10SM BKN055 31/18 A3008 RMK AO2 SLP180 T03060178
KBWI 191954Z VRB03KT 10SM FEW180 FEW250 22/04 A3029 RMK AO2 SLP258 T02220039
KBWP 192035Z AUTO 18004KT 10SM 27/13 A2997 RMK AO1
KBWW 192035Z AUTO 15024G31KT 10SM CLR 28/13 A2982 RMK AO2
KBXA 192035Z AUTO 13003KT 10SM CLR 34/20 A2997 RMK AO2 T03410198
KBXK 192035Z AUTO 20010KT 150V220 10SM CLR 35/12 A2974 RMK A01
KBYG 191953Z AUTO 35011G19KT 10SM BKN100 21/06 A2984 RMK AO2 SLP061 T02110056
KBYH 191950Z 06005KT 10SM FEW060 FEW100 34/19 A3001
KBYI 191953Z AUTO 27010KT 10SM BKN060 12/07 A2992 RMK AO2 SLP114 T01170072
KBYL 192035Z AUTO 00000KT 10SM FEW050 28/17 A3013 RMK AO1
KBYS 192037Z AUTO 21018G27KT 10SM FEW002 26/01 A2979 RMK AO2 SLP064
KBYY 192035Z AUTO 17009KT 10SM SCT021 BKN027 30/27 A2987 RMK AO2 T03010268
KBZN 191956Z 28008KT 9SM SCT045 17/06 A2991 RMK AO2 SLP107 T01720056
KC07 192030Z AUTO 10SM CLR 16/M01 A3029 RMK AO2 LTG DSNT W
KC09 192035Z AUTO 00000KT 10SM SCT060 27/18 A3006 RMK AO2 T02680183
KC29 192035Z AUTO 16004KT 10SM CLR 24/19 A3003 RMK AO1 T02410186
KC35 192035Z AUTO 00000KT 10SM CLR 23/20 A3002 RMK AO2 T02330200 PWINO
KC62 192035Z AUTO 13005KT 10SM CLR 26/10 A3011 RMK AO2 T02690100
KC65 192035Z AUTO 06006KT 10SM CLR 28/12 A3007 RMK A01
KC75 192035Z AUTO 06005KT 10SM SCT100 28/21 A3003 RMK AO2 T02760205
KC83 192035Z AUTO 34008KT 10SM CLR 24/08 A2994 RMK AO2
KC99 192012Z AUTO 18003KT 10SM SCT065 BKN075 BKN090 15/M02 A3035 RMK AO2 LTG DSNT W
KCAD 192038Z AUTO 25004KT 10SM CLR 26/13 A3009 RMK AO2 T02650139
KCAE 191956Z 09010KT 10SM FU SCT250 27/05 A3018 RMK AO2 SLP217 FU NW DRIFT S-SW T02720050
KCAG 191953Z AUTO 21018G30KT 10SM CLR 28/M02 A2996 RMK AO2 PK WND 23036/1924 SLP079 T02781017
KCAK 191951Z 16010KT 10SM FEW250 27/13 A3018 RMK AO2 SLP212 T02720128
KCAO 191955Z AUTO 16017G25KT 10SM FEW075 30/06 A3003 RMK AO2 PK WND 18027/1916 LTG DSNT N AND SE SLP098 T03000061
KCAR 191954Z AUTO 22007KT 10SM CLR 21/07 A3020 RMK AO2 SLP232 T02110072
KCAV 192035Z AUTO 18009KT 10SM CLR 28/20 A3000 RMK A01
KCBE 192020Z AUTO 24007KT 10SM CLR 24/09 A3029 RMK AO2 T02410088
KCBF 192035Z AUTO 20007KT 10SM CLR 29/22 A2994 RMK AO2
KCBG 192037Z AUTO 23003KT 10SM CLR 32/19 A2998 RMK AO2
KCBK 192035Z AUTO 16016G23KT 10SM CLR 33/12 A2991 RMK AO2 PWINO
KCBM 191956Z AUTO 15007KT 10SM BKN034 29/21 A3005 RMK AO2 SLP177 T02940213
KCCA 192035Z AUTO VRB04G10KT 6SM RA FEW026 FEW038 SCT043 29/21 A2999 RMK AO2
KCCB 192035Z AUTO 21009KT 10SM CLR 24/11 A2986 RMK AO2
KCCO 192035Z AUTO 09007KT 060V120 10SM CLR 29/14 A3016 RMK AO2 T02900142
KCCR 191953Z 07003KT 10SM CLR 24/08 A2995 RMK AO2 SLP129 T02440078
KCCU 192030Z AUTO 17014G24KT 120V230 10SM SCT080 16/M03 A3042 RMK AO2 LTG DSNT NW
KCCY 192035Z AUTO 21010KT 10SM FEW024 25/21 A3001 RMK AO2
KCDA 192036Z AUTO 17003KT 10SM CLR 20/06 A3030 RMK AO2 T01970061
KCDC 191953Z AUTO 21022G38KT 10SM CLR 25/M08 A2986 RMK AO2 PK WND 19038/1944 SLP032 T02501083
KCDD 192024Z AUTO 33003KT 10SM OVC023 19/14 A3005 RMK AO2
KCDH 192035Z AUTO 21007KT 10SM CLR 29/20 A2995 RMK AO2
KCDI 192035Z AUTO 18003KT 10SM CLR 27/12 A3015 RMK AO2 T02740121
KCDJ 191952Z AUTO 10004KT 30/21 A3002 RMK AO1 SLP152 T03000211
KCDN 192035Z AUTO 06009KT 10SM CLR 26/07 A3021 RMK AO2
KCDR 191953Z AUTO 15014G20KT 10SM CLR 30/14 A2985 RMK AO2 SLP082 T03000144
KCDS 191953Z AUTO 08006G15KT 10SM CLR 32/19 A2994 RMK AO2 SLP108 T03170189
KCDW 191953Z 29004KT 10SM CLR 22/01 A3031 RMK AO2 SLP267 T02220006
KCEC 191956Z AUTO 34013KT 10SM CLR 18/13 A3006 RMK AO2 SLP178 T01830133
KCEF 191956Z 16005KT 10SM CLR 21/03 A3028 RMK AO2A SLP260 T02100032
KCEU 191954Z AUTO VRB04KT 10SM SCT049 24/11 A3024 RMK AO2 SLP231 T02390111
KCEW 191953Z AUTO 08007KT 10SM SCT050 SCT065 32/18 A3005 RMK AO2 SLP172 T03170183
KCEY 192035Z AUTO 24003KT 10SM FEW060 33/17 A3002 RMK AO1
KCEZ 192026Z AUTO 18014G31KT 10SM BKN095 28/06 A3002 RMK AO2 PK WND 17031/2018 WSHFT 2006 T02780056
KCFD 192035Z AUTO 18008KT 10SM CLR 33/25 A2983 RMK AO2 LTG DSNT SE T03260248
KCFE 192035Z 10SM CLR 27/16 A2999 RMK AO2 T02710157
KCFJ 192035Z AUTO 11004KT 10SM BKN050 28/17 A3006 RMK AO2 T02800169
KCFS 192040Z AUTO 16004KT 10SM CLR 27/13 A3012 RMK AO2 T02670126
KCFV 191952Z AUTO 16010G17KT 10SM SCT050 33/20 A2996 RMK AO2 SLP138 T03330200
KCGC 192035Z AUTO 07008KT 10SM BKN070 OVC085 28/18 A3003 RMK AO2
KCGE 192020Z AUTO 32007KT 10SM CLR 22/10 A3028 RMK A01
KCGF 191945Z 16007KT 20SM SCT200 26/14 A3016
KCGI 191953Z 00000KT 10SM CLR 33/17 A3002 RMK AO2 SLP161 T03330167
KCGS 192022Z AUTO 03004KT 10SM CLR 22/M02 A3029 RMK AO1 T02241019
KCGZ 191956Z AUTO 20014G24KT 10SM CLR 37/09 A2977 RMK AO2 PK WND 21028/1921 SLP063 T03720089
KCHA 191953Z 12004G15KT 10SM SCT060 SCT200 29/14 A3014 RMK AO2 SLP198 T02940144
KCHD 191947Z 20015G25KT 10SM FEW100 37/07 A2975
KCHK 192035Z AUTO 15014KT 10SM SCT042 BKN050 31/20 A2990 RMK AO2 T03060203
KCHO 191953Z 00000KT 10SM CLR 23/08 A3028 RMK AO2 SLP248 T02330083
KCHS 191956Z 03008KT 10SM BKN050 BKN250 26/13 A3016 RMK AO2 SLP214 T02560133 $
KCIC 191947Z 00000KT 40SM SCT080 FEW160 21/09 A2997
KCID 191952Z 13011KT 10SM FEW055 24/19 A3001 RMK AO2 SLP159 T02390194
KCIN 192035Z AUTO 17007KT 10SM CLR 27/19 A2999 RMK AO2
KCIR 192035Z AUTO 19003KT 10SM CLR 32/18 A3002 RMK AO2 T03200177
KCIU 191956Z AUTO 20006KT 10SM SCT032 22/16 A3008 RMK AO2 SLP182 T02220161
KCJR 192035Z AUTO 00000KT 10SM CLR 24/07 A3028 RMK AO2 T02350065
KCKB 191953Z VRB03KT 10SM CLR 28/08 A3020 RMK AO2 SLP214 T02780078
KCKC 191617Z AUTO 23003KT 10SM SCT025 22/13 A3001 RMK AO2
KCKF 192035Z AUTO 07006KT 10SM CLR 29/10 A3012 RMK AO2 T02930095
KCKI 192035Z AUTO 03003KT 7SM CLR 25/09 A3020 RMK AO2
KCKM 192035Z AUTO 08011KT 10SM 35/22 A2995 RMK A01
KCKN 192035Z AUTO 00000KT 10SM CLR 24/16 A2999 RMK AO2
KCKP 192035Z AUTO 14006KT 10SM CLR 28/19 A2998 RMK AO2 T02760191
KCKV 191952Z AUTO 19007KT 10SM SCT055 32/19 A3005 RMK AO2 SLP170 T03220194
KCKZ 192035Z AUTO 00000KT 10SM CLR 20/04 A3031 RMK AO2
KCLE 191951Z 17009KT 10SM FEW250 28/14 A3016
KCLI 192035Z AUTO 30004KT 10SM BKN014 OVC023 22/19 A3003 RMK AO2 T02240186
KCLK 192035Z AUTO 13011G14KT 10SM CLR 31/17 A2994 RMK AO2
KCLL 192013Z 16009KT 10SM SCT026 BKN032 BKN048 31/25 A2983
KCLM 191953Z AUTO VRB04KT 10SM CLR 17/12 A3009 RMK AO2 SLP190 T01670122
KCLS 192035Z AUTO 20004KT 7SM CLR 20/12 A3009 RMK AO2
KCLT 191952Z 03008G15KT 10SM FEW050 SCT250 26/09 A3024 RMK AO2 SLP234 T02560089
KCLW 192035Z AUTO 05007G16KT 10SM SCT047 30/18 A2997 RMK AO2
KCMA 191955Z 25012KT 10SM SCT024 24/15 A2987 RMK AO2 SLP121 T02390150
KCMD 192035Z AUTO 12007KT 10SM SCT050 31/17 A3012 RMK AO2 T03090170
KCMH 191951Z COR 14009KT 10SM FEW050 FEW250 29/14 A3012 RMK AO2 SLP192 T02890139
KCMI 191953Z 00000KT 10SM CLR 30/16 A3006 RMK AO2 SLP173 T03000156
KCMR 192035Z AUTO 19017G32KT 170V230 10SM CLR 24/M02 A3005 RMK AO2 PWINO
KCMX 191953Z AUTO 27007KT 10SM CLR 24/17 A3000 RMK AO2 SLP153 T02390167
KCMY 192035Z AUTO 00000KT 10SM SCT023 BKN031 23/19 A3002 RMK AO2 T02340190
KCNB 192036Z AUTO 10005KT 10SM CLR 30/16 A2997 RMK AO2 T02970160
KCNC 192035Z AUTO 00000KT 9SM CLR 26/23 A3000 RMK AO2
KCNI 192030Z AUTO 11009KT 10SM SCT044 27/12 A3020 RMK AO2
KCNK 191955Z AUTO 16018G23KT 10SM CLR 34/19 A2993 RMK AO2 RAB15E55 SLP114 P0000 T03390194
KCNM 191953Z AUTO 15011G18KT 10SM CLR 34/11 A2991 RMK AO2 SLP064 T03440106 $
KCNO 191953Z 22005KT 10SM FEW040 27/12 A2986 RMK AO2 SLP107 T02670122
KCNU 191952Z AUTO 12008KT 10SM SCT049 BKN060 33/21 A2999 RMK AO2 SLP143 T03280206
KCNW 191955Z 35008KT 10SM SCT049 33/20 A2985
KCNY 191953Z AUTO 23019G27KT 10SM CLR 31/M03 A2982 RMK AO2 PK WND 19039/1856 SLP032 T03061028
KCOD 191956Z AUTO 03014G20KT 10SM CLR 17/07 A2986 RMK AO2 SLP091 T01720067
KCOE 191956Z AUTO 28006KT 10SM OVC010 13/09 A3000 RMK AO2 SLP182 T01280094
KCOF 191956Z 06017G22KT 10SM CLR 27/20 A3000 RMK AO2A PK WND 04027/28 SLPNO ALSTG ESTMD T02730204 $
KCOM 192035Z AUTO 00000KT 10SM SCT070 36/15 A2986 RMK AO2 T03600147
KCON 191951Z AUTO VRB03KT 10SM CLR 20/02 A3028 RMK AO2 SLP254 T02000022
KCOQ 192035Z AUTO 23008KT 10SM CLR 27/13 A2999 RMK AO2
KCOS 191954Z 17015G23KT 10SM SCT110 29/00 A3003 RMK AO2 SLP083 T02890000
KCOT 191953Z AUTO 10SM SCT060 38/18 A2978 RMK AO2 SLP077 T03830183
KCOU 191954Z 20006KT 10SM CLR 33/20 A3002 RMK AO2 SLP156 T03280200 $
KCPC 191935Z AUTO 05007KT 10SM BKN060 23/11 A3021 RMK AO2 T02330114
KCPK 192035Z AUTO 05008KT 10SM SCT044 OVC050 21/10 A3027 RMK AO2 T02090103
KCPR 191953Z 21021G30KT 10SM CLR 29/M01 A2987 RMK AO2 PK WND 21030/1951 SLP052 T02941006
KCPS 191953Z VRB03KT 10SM CLR 33/20 A3002 RMK AO2 SLP163 T03280200
KCPT 192035Z AUTO 04011KT 10SM FEW028 SCT035 OVC050 31/22 A2989 RMK AO2
KCPU 192035Z AUTO 31008G14KT 10SM CLR 22/08 A2994 RMK AO2 T02180078
KCPW 192030Z AUTO 21013G26KT 160V230 10SM CLR 11/01 A3049 RMK AO2
KCQB 192035Z AUTO 09010KT 10SM SCT050 SCT080 31/21 A2994 RMK AO2 T03150207
KCQC 191953Z AUTO 24012G29KT 10SM FEW100 27/02 A3018 RMK AO2 PK WND 23031/1920 SLP112 T02670017
KCQF 192035Z AUTO 17006KT 2SM -RA SCT009 BKN023 OVC030 23/23 A3003 RMK AO2 P0030
KCQM 192036Z AUTO 30003KT 10SM SCT026 21/14 A3002 RMK AO2
KCQT 191952Z AUTO 10SM BKN040 27/16 A2984 RMK AO2 SLP103 T02670156
KCQW 192035Z AUTO 08008KT CLR 26/09 A3021 RMK AO2
KCQX 191952Z AUTO 05007KT 10SM CLR 17/07 A3029 RMK AO2 SLP257 T01720072
KCRE 191953Z 04008KT 010V080 10SM FEW055 26/12 A3019 RMK AO1 SLP224 T02610122
KCRG 192029Z 03010KT 10SM FEW015 BKN044 OVC085 24/22 A3009 RMK AO2 RAE16 P0021 T02440217
KCRP 191951Z 16016G24KT 10SM FEW036 SCT041 SCT055 BKN250 35/25 A2981 RMK AO2 SLP093 MDT CU W-NW DSNT S T03500250
KCRQ 191953Z 24009KT 10SM CLR 23/15 A2987 RMK AO2 SLP112 T02280150
KCRS 191953Z AUTO 06005KT 9SM SCT016 BKN021 OVC038 26/23 A2988 RMK AO2 RAE15 SLP112 P0000 T02610233
KCRW 191954Z 15006KT 10SM FEW070 29/11 A3015 RMK AO2 SLP200 T02890111
KCRX 192035Z AUTO 18009KT 9SM BKN031 30/21 A3005 RMK AO2
KCSG 191951Z 08007KT 050V110 10SM SCT055 31/15 A3011 RMK AO2 SLP189 T03060150
KCSM 191953Z 12010KT 10SM FEW045 31/19 A2996 RMK AO2 SLP118 T03110189
KCSQ 192035Z AUTO 13007KT 10SM CLR 28/20 A2999 RMK AO2
KCSV 191953Z AUTO VRB04KT 10SM FEW043 OVC070 26/14 A3018 RMK AO2 SLP202 T02560144
KCTB 191956Z AUTO VRB06KT 10SM FEW023 SCT031 BKN060 14/07 A2992 RMK AO2 SLP125 T01390067
KCTJ 192035Z AUTO 11005KT 10SM CLR 27/14 A3020 RMK AO2 T02710141
KCTY 192035Z AUTO 04012KT 10SM SCT070 31/16 A3002 RMK AO2 T03060161
KCTZ 192015Z AUTO 03008G14KT 10SM SCT050 23/12 A3024 RMK AO2 T02330118
KCUB 191953Z AUTO 06007KT 10SM CLR 28/04 A3020 RMK AO2 SLP224 T02780044
KCUH 192035Z AUTO 15007KT 10SM BKN046 31/20 A2993 RMK AO2 T03060202
KCUL 192035Z AUTO 00000KT 10SM CLR 32/13 A3002 RMK AO2
KCUT 191953Z AUTO 14009G15KT 110V170 10SM CLR 24/08 A2999 RMK AO2 SLP092 T02440083
KCVB 192035Z AUTO 13008KT 10SM SCT060 38/17 A2981 RMK AO2 T03820169
KCVC 192035Z AUTO 08008G14KT 030V100 10SM CLR 28/12 A3017 RMK AO2 PNO
KCVG 191952Z 00000KT 10SM FEW046 SCT070 30/17 A3008 RMK AO2 SLP175 MDT CU ALQDS T03000167
KCVH 192040Z AUTO VRB06G11KT 10SM CLR 24/10 A2994 RMK A01
KCVN 191956Z AUTO 18005KT 10SM VCTS BKN090 29/13 A3000 RMK AO2 LTG DSNT SW-NW TSB36 SLP115 T02940133
KCVO 192041Z AUTO VRB04KT 10SM SCT026 19/12 A3010 RMK AO2
KCVS 191958Z COR 16010G15KT 4SM -TSRA BKN065 OVC085CB 21/15 A3004 RMK AO2A PK WND 29034/19 VIS E-SE 2 VIS 2 RWY31 SHRAB25 TSB08 SLP122 P0010 T02060154 $ COR 2011
KCVX 192036Z AUTO 27005KT 10SM CLR 27/16 A3009 RMK AO2 T02660162
KCWA 191947Z 00000KT 10SM SCT014 SCT040 OVC050 22/18 A3006
KCWC 192035Z AUTO 06009G14KT 10SM BKN038 29/20 A2992 RMK AO2 T02920201
KCWF 191945Z 13003G15KT 10SM -TSRA SCT046 BKN060 24/23 A2996 RMK LTGCG DIS NE
KCWI 191956Z AUTO 11011KT 10SM CLR 23/21 A3004 RMK AO2 SLP172 T02330206
KCWN 191958Z AUTO 13012G29KT 10SM FEW100 25/00 A3002 RMK AO2 PK WND 14029/46 SLP981 T02490004 $
KCWV 192035Z AUTO 10007KT 10SM SCT060 28/14 A3013 RMK AO2 T02810139
KCXE 192035Z AUTO 09007KT 10SM CLR 23/07 A3026 RMK AO1 T02300073
KCXO 192008Z 15012G18KT 10SM -RA BKN007 OVC055 24/23 A2990 RMK AO2 P0001 T02390233
KCXP 192035Z AUTO 33012G17KT 10SM FEW049 BKN090 OVC120 15/02 A2998 RMK AO2 LTG DSNT NE
KCXU 192035Z AUTO 13009G14KT 10SM CLR 31/13 A3008 RMK AO1 T03110125
KCXW 192035Z AUTO 07011G20KT 10SM BKN100 26/21 A2995 RMK A01
KCXY 191956Z 10007KT 10SM CLR 23/06 A3030 RMK AO2 SLP260 T02280061
KCYS 191953Z 13011KT 10SM CLR 27/04 A3001 RMK AO2 SLP079 T02670039
KCZL 192035Z AUTO 12010KT 10SM CLR 28/13 A3017 RMK AO2
KCZT 192035Z AUTO 17007KT 10SM SCT065 37/20 A2976 RMK AO2
KCZZ 191952Z AUTO 22011G22KT 26/06 A2988 RMK AO1 SLP092 T02560056
KD07 191956Z AUTO 14018G29KT 27/13 A2985 RMK AO2 PK WND 15032/1900 SLPNO T02720128 PWINO TSNO
KD25 192035Z AUTO 23006KT 10SM SCT030 25/18 A3002 RMK AO2 T02500176
KD39 191959Z AUTO 00000KT 10SM SCT046 26/15 A2999 RMK AO2
KD50 192035Z AUTO 11017G24KT 10SM CLR 25/12 A2984 RMK AO2
KD55 192035Z AUTO 10007G14KT 10SM CLR 24/15 A3000 RMK AO2
KD57 192035Z AUTO 15017G24KT 10SM CLR 27/11 A2986 RMK AO2
KD60 192035Z AUTO 13020G26KT 10SM CLR 25/12 A2987 RMK AO2
KD73 192035Z AUTO 04008KT 020V080 10SM CLR 26/13 A3020 RMK AO2 T02600130
KD95 192036Z AUTO 13007KT 10SM CLR 25/14 A3014 RMK AO2 T02520138
KDAA 191956Z AUTO 00000KT 10SM CLR 23/03 A3028 RMK AO2 SLP256 T02310025 $
KDAB 191953Z 05018G24KT 10SM FEW038 SCT050 SCT090 29/20 A3003 RMK AO2 SLP168 T02890200
KDAG 191950Z AUTO 28020G30KT 10SM CLR 28/05 A2982 RMK AO2 PK WND 27030/1946 SLP071 T02830050
KDAL 191958Z 08003KT 6SM -RA SCT022 BKN032 OVC040 25/22 A2989 RMK AO2 P0000 T02500222
KDAN 191953Z AUTO VRB05KT 10SM FEW055 23/08 A3026 RMK AO2 SLP240 T02330083
KDAW 191951Z AUTO 15003KT 10SM CLR 21/05 A3026 RMK AO2 SLP246 T02110050
KDAY 191956Z 15009KT 10SM BKN060 BKN250 29/18 A3010 RMK AO2 SLP186 T02940178
KDBN 192035Z AUTO 08009G17KT 10SM CLR 29/06 A3016 RMK AO2
KDBQ 191953Z 13009KT 10SM FEW120 22/20 A3003 RMK AO2 SLP165 T02170200 $
KDCA 191952Z COR 05003KT 10SM FEW250 24/01 A3029 RMK AO2 SLP257 T02390011
KDCM 192035Z AUTO 06005KT 7SM CLR 25/06 A3023 RMK AO2
KDCU 191953Z AUTO 21007KT 10SM BKN049 31/19 A3010 RMK AO2 SLP184 T03060189
KDCY 192035Z AUTO 20005KT 10SM CLR 31/17 A3004 RMK AO2 T03110167
KDDC 191952Z AUTO 16019G31KT 4SM HZ FEW002 34/17 A2994 RMK AO2 PK WND 17031/1949 RAB21E32 SLP103 P0000 T03440172
KDDH 191954Z AUTO 00000KT 10SM CLR 20/06 A3030 RMK AO2 SLP261 T02000061
KDEC 191954Z VRB03KT 10SM CLR 30/16 A3005 RMK AO2 SLP172 T03000161
KDED 192035Z AUTO 05014KT 10SM SCT043 SCT060 28/19 A3002 RMK AO2
KDEH 192035Z AUTO 19004KT 10SM CLR 25/20 A3000 RMK AO2
KDEN 191953Z VRB03KT 10SM FEW090 FEW220 29/02 A2996 RMK AO2 SLP068 T02890017
KDEQ 191953Z AUTO 13012G19KT 10SM SCT070 33/17 A2990 RMK AO1 SLP121 T03330172
KDET 191953Z 12007KT 10SM CLR 24/16 A3014 RMK AO2 SLP203 T02390156
KDEW 192016Z AUTO 10SM OVC015 13/09 A3000 RMK AO2 T01330094
KDFI 191953Z AUTO VRB04KT 10SM CLR 27/14 A3010 RMK AO2 SLP191 T02720144
KDFW 191953Z 05009KT 10SM FEW020 SCT030 OVC041 28/21 A2987 RMK AO2 SLP106 SHRA E T02780211
KDGW 191953Z AUTO 15015G23KT 10SM CLR 29/03 A2988 RMK AO2 SLP057 T02940028
KDHN 191953Z AUTO 06005KT 10SM BKN050 30/17 A3012 RMK AO2 SLP191 T03000172
KDHT 192034Z AUTO 14018G27KT 10SM OVC075 28/13 A2996 RMK AO2 PK WND 12027/2025 LTG DSNT NE-S T02830128
KDIJ 191956Z AUTO 21006KT 10SM CLR 19/01 A2991 RMK AO2 SLP078 T01940006 $
KDIK 191956Z AUTO 15021G31KT 10SM CLR 27/11 A2983 RMK AO2 PK WND 14033/1900 SLP089 T02720111
KDKB 192035Z AUTO 05003KT 4SM RA SCT030 SCT060 BKN090 23/20 A3007 RMK AO2 P0002 T02300199
KDKK 191953Z AUTO 36006KT 10SM CLR 24/13 A3022 RMK AO2 SLP232 T02390128
KDKR 192030Z AUTO 14007G17KT 10SM FEW012 SCT080 27/23 A2988 RMK AO2 PWINO
KDKX 192035Z AUTO 00000KT 10SM OVC050 28/17 A3014 RMK A01
KDLF 191956Z AUTO 12006G17KT 10SM SCT075 38/18 A2979 RMK AO2 SLP072 T03790178 RVRNO $
KDLH 191955Z 25008KT 10SM SCT037 26/16 A2999 RMK AO2 SLP152 T02610156
KDLL 192035Z AUTO 19003KT 10SM CLR 23/18 A3003 RMK AO2 T02310180
KDLN 191953Z AUTO 00000KT 10SM FEW080 12/05 A2992 RMK AO2 SLP110 T01220050
KDLO 192035Z AUTO 33004KT 10SM 22/09 A2991 RMK AO2 T02230094
KDLP 192035Z AUTO 18007KT 140V200 10SM CLR 29/23 A2997 RMK A01
KDLS 191953Z AUTO 33012KT 10SM CLR 22/09 A3001 RMK AO2 SLP160 T02170094
KDLZ 192036Z AUTO 15006KT 10SM CLR 28/13 A3011 RMK AO2
KDMA 191958Z AUTO 29006KT 10SM FEW100 34/10 A2986 RMK AO2 SLP065 T03440096 $
KDMH 191954Z AUTO 23/06 A3031 RMK AO1 SLP262 T02280056
KDMN 191953Z AUTO 18006KT 10SM CLR 31/11 A2999 RMK AO2 SLP079 T03060106 TSNO
KDMO 191953Z AUTO 17006KT 10SM CLR 32/20 A3002 RMK AO2 LTG DSNT S SLP155 T03170200
KDMW 192020Z AUTO 00000KT 10SM CLR 23/06 A3030 RMK AO2
KDNA 192035Z AUTO 00000G12KT 10SM FEW080 32/10 A2997 RMK AO2
KDNL 191953Z AUTO 03010KT 10SM CLR 29/04 A3018 RMK AO2 SLP214 T02890039
KDNN 192035Z AUTO 16007G16KT 10SM CLR 29/09 A3016 RMK AO2
KDNS 192035Z AUTO 16006KT 10SM CLR 27/22 A3000 RMK AO2
KDNV 192035Z AUTO 11003KT 10SM CLR 30/16 A3004 RMK AO2 T03010163
KDOV 191956Z AUTO 00000KT 10SM CLR 20/09 A3030 RMK AO2 SLP264 T02020085 $
KDPA 191952Z 14004KT 10SM CLR 28/17 A3007 RMK AO2 SLP179 T02780172
KDPG 191955Z 30010KT 45SM FEW080 FEW120 SCT180 21/M01 A2982 RMK SLP055 T02091010
KDPL 192035Z AUTO 00000KT 10SM BKN050 OVC060 22/13 A3024 RMK AO2
KDQH 192035Z AUTO 10007G15KT 060V120 10SM CLR 29/09 A3012 RMK AO2 T02930088
KDRA 191953Z AUTO 19010G18KT 10SM CLR 26/00 A2980 RMK AO2 SLP047 T02560000
KDRI 192035Z AUTO 19006KT 10SM -RA BKN065 OVC075 23/22 A2999 RMK AO2 LTG DSNT SW P0001 T02270219
KDRM 192036Z AUTO 16004KT 10SM CLR 23/16 A3009 RMK AO2 T02250155
KDRO 191953Z AUTO 24010G19KT 10SM FEW090 FEW110 24/04 A3011 RMK AO2 SLP116 T02440039
KDRT 191953Z AUTO 17010G16KT 10SM CLR 39/18 A2978 RMK AO2 SLP064 T03890183
KDSF 192030Z AUTO 04009KT 10SM CLR 31/24 A2998 RMK A01
KDSM 191954Z 03003KT 10SM FEW020 FEW120 FEW220 BKN260 25/20 A3000 RMK AO2 SLP153 ACC NE-E AND SW-W T02500200
KDSV 191954Z AUTO 00000KT 10SM CLR 24/09 A3025 RMK AO2 SLP251 T02390089
KDTA 192035Z AUTO 22019G27KT 10SM CLR 26/M07 A2978 RMK AO1
KDTL 191955Z AUTO 00000KT 7SM CLR 26/15 A3001 RMK AO2
KDTN 192019Z 15020G29KT 10SM BKN027 OVC034 26/20 A2996 RMK AO2 PK WND 14033/1958 T02610200
KDTO 192032Z 06008KT 10SM BKN028 BKN037 OVC055 28/21 A2989 RMK AO2 T02830211
KDTS 191953Z 14010KT 10SM CLR 31/21 A3003 RMK AO2 SLP169 T03110206 $
KDTW 191953Z 14007KT 10SM BKN250 24/13 A3014 RMK AO2 SLP204 T02440133
KDUA 191935Z AUTO 10012G16KT 10SM BKN037 OVC050 31/19 A2994 RMK AO2
KDUB 192035Z AUTO 09005KT 10SM CLR 21/M06 A2990 RMK AO2
KDUC 192035Z AUTO 11014KT 10SM SCT034 OVC047 29/20 A2994 RMK AO2 T02890205
KDUG 191956Z AUTO VRB03KT 10SM CLR 31/08 A2997 RMK AO2 SLP072 T03110083
KDUH 192036Z AUTO 08006KT 10SM CLR 26/16 A3011 RMK AO2 T02590158
KDUJ 191953Z AUTO VRB04KT 10SM CLR 20/10 A3026 RMK AO2 SLP246 T02000100
KDUX 192035Z AUTO 12012G17KT 10SM -RA CLR 26/17 A2996 RMK AO2 T02630166
KDVK 192035Z AUTO 20006KT 10SM SCT050 SCT060 SCT075 31/17 A3010 RMK AO2
KDVL 191956Z AUTO 16010KT 10SM SCT014 19/16 A3000 RMK AO2 SLP739 T01940156
KDVN 191952Z AUTO 10012KT 10SM CLR 24/19 A3005 RMK AO2 SLP167 T02440189
KDVO 192035Z AUTO 14006KT 7SM CLR 25/08 A2994 RMK AO2
KDVP 191859Z AUTO 14005KT 10SM SCT041 26/16 A3002 RMK AO2 T02590156
KDVT 191953Z 17007G14KT 120V220 10SM CLR 34/09 A2977 RMK AO2 SLP053 T03440089
KDWH 192013Z 14007KT 10SM FEW009 BKN070 BKN080 23/22 A2989 RMK AO2 RAE1957 P0000 T02330217
KDWU 191956Z AUTO 22005KT 10SM SCT047 29/18 A3013 RMK AO2 SLP198 T02890178
KDWX 192030Z AUTO 18025G36KT 10SM CLR 26/M06 A2998 RMK AO2 T02601059
KDXR 191953Z VRB05KT 10SM CLR 21/01 A3031 RMK AO2 SLP263 T02110006
KDXX 192039Z AUTO 15005KT 10SM CLR 29/17 A2996 RMK AO2
KDYA 192035Z AUTO 00000KT 10SM OVC046 31/19 A3003 RMK AO2 T03130194
KDYB 192035Z AUTO 03007G13KT 10SM FEW050 26/13 A3017 RMK AO2
KDYL 191954Z AUTO 36003KT 10SM CLR 23/05 A3030 RMK AO2 SLP259 T02330050
KDYR 191956Z AUTO VRB03KT 9SM SCT060 34/19 A3003 RMK AO2 SLP171 T03440194
KDYS 191956Z AUTO 05007KT 10SM CLR 34/15 A2988 RMK AO2 SLP070 T03440148 PNO FZRANO $
KDYT 192035Z AUTO 23006KT 10SM SCT060 27/13 A2996 RMK AO2
KDZB 192041Z AUTO 20009KT 10SM CLR 31/19 A2984 RMK AO2 LTG DSNT E AND SE
KDZJ 192035Z AUTO 14007KT 10SM SCT038 A3023 RMK AO2
KE11 192035Z AUTO 00000KT 10SM SCT046 SCT050 SCT070 29/15 A2995 RMK AO2 LTG DSNT N AND S T02930145
KE16 192030Z AUTO 33009G15KT 10SM CLR 24/08 A2994 RMK AO2 PWINO PNO AWOS NOTAMED OS 09-19-2019 1800 TO 2359 HRS. UTC
KE38 192035Z AUTO 03007KT 10SM SCT032 BKN070 BKN110 26/16 A3008 RMK AO2 T02560158
KEAN 192035Z AUTO 11012G19KT 10SM SCT100 32/02 A2986 RMK AO2 T03180018
KEAR 191956Z AUTO 15016G22KT 10SM CLR 30/21 A2992 RMK AO2 SLP113 T03000211
KEAT 191955Z AUTO 26007KT 10SM FEW085 20/07 A2997 RMK AO2 SLP147 T02000067
KEAU 191956Z 22004KT 10SM BKN085 27/18 A2998 RMK AO2 SLP149 T02720178
KEBG 192035Z AUTO 13019G23KT 10SM SCT046 SCT065 SCT080 35/22 A2978 RMK AO2 T03460221
KEBS 192015Z AUTO VRB06KT 160V230 10SM CLR 27/20 A2999 RMK AO2
KECG 191954Z 02013KT 10SM FEW042 23/13 A3025 RMK AO2 SLP243 T02280128
KECP 191953Z 09006KT 10SM FEW055 32/17 A3003 RMK AO2 SLP181 T03170172
KECS 192035Z AUTO 14014G23KT 10SM CLR 30/00 A2986 RMK AO2
KECU 192035Z AUTO 00000G12KT 10SM CLR 35/15 A2992 RMK AO2
KEDC 192035Z AUTO 15003KT 10SM FEW060 34/21 A2981 RMK AO2
KEDE 192020Z AUTO 06006KT 10SM OVC050 23/14 A3025 RMK AO2 T02290136
KEDJ 192040Z AUTO 11008KT 10SM CLR 29/14 A3011 RMK AO1
KEDN 192035Z AUTO 07009G14KT 050V110 10SM SCT055 30/17 A3006 RMK AO2 T02960172
KEDU 192035Z AUTO 33007KT 10SM CLR 23/08 A2994 RMK AO1
KEDW 192030Z 28012KT 50SM FEW050 25/05 A2983 RMK AO2A WSHFT 17 SLP083
KEED 191956Z AUTO 36/00 A2972 RMK AO2 SLP028 T03610000 PWINO $
KEEN 191956Z AUTO 00000KT 10SM CLR 21/03 A3029 RMK AO2 SLP263 T02060033 $
KEEO 191953Z AUTO 19019G32KT 10SM CLR 25/01 A2998 RMK AO2 PK WND 18033/1942 SLP072 T02500006
KEET 191953Z AUTO VRB06KT 10SM SCT055 32/17 A3008 RMK AO2 SLP177 T03220167
KEFD 191950Z 15009KT 3SM +RA BR OVC015 23/22 A2992
KEFK 192035Z AUTO 00000KT 10SM CLR 20/05 A3029 RMK AO2 T02020053
KEFT 192035Z AUTO 15008KT 10SM CLR 23/20 A3003 RMK AO2 T02250198
KEGE 191956Z 25018G26KT 10SM CLR 26/01 A3002 RMK AO2 PK WND 25028/1913 SLP107 T02610006
KEGI 191956Z AUTO 10008KT 10SM FEW050 SCT180 32/19 A3003 RMK AO2 SLP168 T03180187 $
KEGV 192035Z AUTO 24004KT 10SM SCT023 24/17 A3003 RMK AO2 T02360170
KEHA 192035Z AUTO 16016G23KT 10SM VCTS CLR 31/17 A2991 RMK AO2 LTG DSNT SW AND W T03050165
KEHO 192035Z AUTO 04005KT 10SM SCT040 OVC050 22/12 A3025 RMK AO2 T02160122
KEHR 191956Z AUTO VRB03KT 10SM CLR 32/17 A3003 RMK AO2 SLP167 T03220172
KEHY 192030Z AUTO 10SM SCT095 26/M23 A2999 RMK AO2 PWINO
KEIK 192030Z AUTO 06005KT 10SM CLR 29/M01 A2998 RMK AO2 T02911013
KEIR 192035Z AUTO 00000G13KT 10SM FEW036 SCT050 SCT060 29/25 A2996 RMK A01
KEKM 191952Z 13006KT 10SM CLR 29/10 A3008 RMK AO2
KEKN 191951Z AUTO 24008KT 10SM CLR 24/08 A3024 RMK AO2 SLP233 T02440078
KEKO 191956Z AUTO 07006KT 10SM FEW050 SCT075 BKN090 08/06 A2999 RMK AO2 RAE37 SLP139 P0002 T00830056
KEKQ 191956Z AUTO 10SM OVC049 29/18 A3014 RMK AO2 SLP190 T02890178
KEKS 192035Z AUTO 32012G17KT 10SM CLR 17/05 A2994 RMK AO2
KEKX 192035Z AUTO 14004KT 10SM SCT060 BKN065 31/17 A3007 RMK AO2 T03080166
KEKY 191956Z AUTO 16005KT 10SM SCT055 32/19 A3009 RMK AO2 SLP035 T03220189
KELA 192035Z AUTO 13013G16KT 4SM +TSRA BKN007 BKN018 OVC045 26/25 A2984 RMK AO2 LTG DSNT SE AND S P0027 T02600252
KELD 191953Z AUTO 05006KT 10SM OVC070 27/24 A2998 RMK AO2 RAE1857 TSE1858 SLP149 P0000 T02670239
KELK 192035Z AUTO 12010G16KT 10SM SCT047 30/19 A2993 RMK AO2 T03040190
KELM 191953Z 00000KT 10SM CLR 22/10 A3026 RMK AO2 SLP247 T02220100
KELN 191953Z AUTO 32012KT 10SM BKN085 21/06 A3000 RMK AO2 SLP154 T02110061
KELO 192036Z AUTO 28005KT 10SM CLR 21/13 A3002 RMK AO2
KELP 191951Z 11007KT 10SM FEW085 FEW160 32/11 A2996 RMK AO2 SLP065 CB DSNT NW TCU DSNT NE SE AND S T03220111
KELY 191953Z AUTO 01010KT 10SM SCT095 14/01 A2992 RMK AO2 RAB1856E06 SLP066 T01390006
KELZ 191956Z AUTO 16007KT 130V190 10SM CLR 19/06 A3029 RMK AO2 SLP259 T01940061
KEMK 192035Z AUTO 14013KT 10SM CLR 30/24 A2992 RMK A01
KEMM 192035Z AUTO 24007G18KT 10SM CLR 20/M08 A2991 RMK AO2
KEMP 191953Z AUTO 17012G19KT 10SM CLR 32/21 A2998 RMK AO2 LTG DSNT W SLP142 T03220206
KEMT 191945Z 19005KT 10SM FEW060 25/14 A2986
KEMV 192035Z AUTO 03006KT 10SM SCT050 22/10 A3029 RMK AO2 T02160101
KEND 191956Z AUTO 13013G18KT 10SM CLR 31/21 A2994 RMK AO2 SLP126 T03100212 $
KENL 192035Z AUTO 00000KT 10SM SCT070 32/15 A3003 RMK AO2 T03170151
KENV 191956Z AUTO 31026G33KT 10SM SCT095 17/02 A2988 RMK AO2 PK WND 30033/1954 WSHFT 1901 SLP096 T01720022
KENW 191953Z 00000KT 10SM CLR 27/18 A3008 RMK AO2 SLP180 T02670183
KEOD 191958Z AUTO 29006KT 10SM SCT055 32/18 A3005 RMK AO2 SLP173 T03220183
KEOK 192035Z AUTO 09008KT 10SM CLR 28/23 A3001 RMK AO2
KEPH 191953Z AUTO 30006KT 10SM FEW055 BKN080 21/07 A2997 RMK AO2 SLP146 T02110067
KEQA 192035Z AUTO 14011KT 10SM SCT045 31/20 A2997 RMK AO2
KEQY 191953Z AUTO 10SM CLR 24/09 A3023 RMK AO2 SLP240 T02440089
KERI 191951Z AUTO 17009KT 10SM CLR 26/12 A3020 RMK AO2 SLP223 T02560122
KERV 192035Z AUTO 19006KT 180V240 10SM SCT070 SCT110 37/18 A2984 RMK AO2 T03730176
KERY 192036Z AUTO 20007KT 10SM BKN020 23/22 A3004 RMK AO2 T02330216
KESC 192019Z AUTO 17008KT 10SM BKN005 19/18 A3003 RMK AO2
KESF 192040Z AUTO 22004KT 2SM RA BR BKN024 BKN029 OVC080 23/22 A2999 RMK AO2 RAB15 P0047 T02330222
KESN 191950Z 02004KT 10SM SKC 23/08 A3032
KEST 191952Z AUTO 16005KT 10SM CLR 26/19 A2999 RMK AO2 SLP149 T02560189
KETB 192035Z AUTO 13006KT 10SM SCT028 SCT034 BKN110 25/20 A3005 RMK AO2
KETC 192035Z AUTO 05005KT 10SM SCT048 SCT050 22/11 A3025 RMK AO2 PWINO T02220112
KETN 192035Z AUTO 08009KT 10SM CLR 32/19 A2987 RMK AO2 T03230195
KEUG 191954Z 01005KT 10SM BKN041 BKN150 19/12 A3011 RMK AO2 SLP195 T01940117
KEUL 191956Z AUTO 31007KT 10SM FEW030 17/08 A2993 RMK AO2 SLP130 T01720078
KEVB 191947Z 08013G22KT 10SM SCT030 26/20 A3004
KEVM 192028Z AUTO 32005KT 10SM CLR 23/16 A3003 RMK AO2
KEVV 191954Z 00000KT 10SM CLR 32/15 A3004 RMK AO2 SLP169 T03170150
KEVW 191953Z AUTO 21022G31KT 10SM CLR 23/M09 A2989 RMK AO2 PK WND 22031/1953 SLP029 T02281089
KEWB 191953Z 04005KT 10SM CLR 20/07 A3027 RMK AO2 SLP250 T02000072
KEWK 191956Z AUTO 17014G20KT 10SM FEW049 31/20 A2998 RMK AO2 SLP135 T03110200
KEWN 191954Z 04008KT 10SM BKN060 24/14 A3022 RMK AO2 SLP232 T02440139
KEWR 191951Z VRB05KT 10SM FEW180 22/03 A3030 RMK AO2 SLP259 T02170028
KEXX 192035Z AUTO 36004KT 10SM CLR 23/09 A3024 RMK AO2 T02340094
KEYE 191953Z AUTO VRB05KT 10SM CLR 30/16 A3006 RMK AO2 SLP172 T03000156
KEYF 192035Z AUTO 04007KT 10SM BKN050 23/11 A3023 RMK AO2 T02290113
KEYW 191953Z AUTO 07010G18KT 10SM CLR 31/19 A2989 RMK AO2 SLP121 T03110189
KEZF 192035Z AUTO 07004KT 10SM CLR 22/09 A3027 RMK AO2 T02230094
KEZM 192035Z AUTO 05008G17KT 10SM CLR 30/08 A3015 RMK AO2 T02950075
KEZS 192035Z AUTO 29006KT 10SM SCT010 BKN019 BKN026 23/20 A3003 RMK AO2 T02270197
KEZZ 192035Z AUTO 09007KT 10SM CLR 31/23 A3000 RMK AO2 T03120228
KF00 192035Z AUTO 12013G18KT 10SM BKN032 OVC042 29/21 A2991 RMK AO2 T02880208
KF05 192035Z AUTO 11010G15KT 10SM CLR 32/19 A2991 RMK AO1 T03210186
KF17 192035Z AUTO 15011G14KT 7SM RA BKN006 OVC011 23/21 A2993 RMK AO2 P0002 T02250213
KF44 192035Z AUTO 00000KT 10SM SCT017 BKN025 OVC035 27/22 A2984 RMK AO2
KF45 192030Z AUTO 07011G18KT 10SM FEW042 29/19 A2996 RMK AO2 TSNO
KF46 192035Z AUTO 08013G17KT 10SM SCT017 BKN030 OVC038 26/22 A2989 RMK AO2 T02580216
KF70 192035Z AUTO 18009G14KT 10SM CLR 25/12 A2987 RMK AO1
KFAF 191956Z 05007KT 10SM BKN047 22/09 A3027 RMK AO2A SLP254 T02210086 $
KFAM 191956Z AUTO 18008KT 10SM CLR 33/19 A3004 RMK AO2 SLP171 T03330194 PNO $
KFAR 191953Z VRB05KT 10SM CLR 26/17 A2996 RMK AO2 SLP145 T02610167
KFAT 191953Z 29007KT 10SM FEW060 24/09 A2992 RMK AO2 SLP128 TCU OMTNS DSNT N-E-S T02440094 $
KFAY 191953Z 03008KT 10SM BKN050 23/11 A3023 RMK AO2 SLP231 T02330106
KFBG 191956Z AUTO 05009KT 10SM SCT050 25/11 A3023 RMK AO2 SLP238 T02460105 $
KFCH 192035Z AUTO 30011KT 10SM CLR 24/10 A2992 RMK A01
KFCI 191956Z AUTO VRB04KT 10SM CLR 23/08 A3028 RMK AO2 SLP263 T02280083
KFCM 191953Z 19004KT 10SM CLR 28/17 A2998 RMK AO2 SLP147 T02780172
KFCS 191958Z AUTO 15016G21KT 10SM CLR 29/M01 A3000 RMK AO2 SLP100 T02941009 $
KFDK 191950Z 00000KT 10SM SKC 24/07 A3029
KFDR 191953Z AUTO 11008KT 10SM CLR 32/21 A2990 RMK AO2 SLP105 T03170206
KFDW 192035Z AUTO 07007KT 10SM CLR 25/07 A3021 RMK AO1
KFDY 191953Z AUTO 12006KT 10SM CLR 29/16 A3010 RMK AO2 SLP183 T02940161
KFEP 192035Z AUTO 14012KT 10SM CLR 22/20 A3005 RMK AO2 P0001 T02180200
KFET 192035Z AUTO 15010KT 10SM CLR 31/21 A2995 RMK AO2 T03060213
KFEW 191958Z 14012G20KT 10SM CLR 27/03 A3002 RMK AO2A SLP093 T02650026 $
KFFA 192020Z AUTO 04009G17KT 10SM CLR 21/13 A3023 RMK AO2 T02100132
KFFC 191953Z AUTO 08007KT 10SM CLR 29/13 A3016 RMK AO2 SLP207 T02940133
KFFL 192035Z AUTO 12009KT 10SM CLR 26/22 A2999 RMK A01
KFFM 192036Z AUTO 13006KT 10SM CLR 27/14 A2997 RMK AO2
KFFO 191956Z 11004KT 10SM FEW050 SCT250 30/18 A3009 RMK AO2A SLP187 T02980179
KFFT 191953Z AUTO 18008KT 10SM CLR 31/17 A3007 RMK AO2 SLP174 T03110167
KFFX 192035Z AUTO 24003KT 10SM CLR 25/10 A3008 RMK AO2 T02540098
KFFZ 191954Z 19012KT 10SM CLR 36/08 A2976 RMK AO2 SLP051 T03610083
KFGN 192041Z AUTO 02005KT 10SM 17/13 A3002 RMK AO2
KFGX 192035Z AUTO 17006KT 10SM SCT080 28/18 A3011 RMK AO2 T02820179
KFHB 192035Z AUTO 04016G24KT 10SM SCT026 BKN031 OVC065 26/21 A3009 RMK AO2 T02570206
KFHR 191953Z AUTO 12004KT 7SM CLR 16/12 A3009 RMK AO2 SLP190 T01560117
KFHU 191958Z AUTO 25009KT 10SM CLR 31/06 A3002 RMK AO2 SLP087 T03060063
KFIG 191954Z AUTO VRB04KT 10SM CLR 21/09 A3028 RMK AO2 SLP254 T02110089
KFIN 191950Z 05014G21KT 7SM SCT028 26/21 A3005 RMK ATIS U VA06
KFIT 191952Z AUTO 00000KT 10SM CLR 21/01 A3029 RMK AO2 SLP257 T02110011
KFKA 192035Z AUTO 21007KT 10SM SCT020 24/19 A3003 RMK AO2 T02430190
KFKL 191956Z AUTO 15010KT 10SM CLR 22/11 A3026 RMK AO2 SLP243 T02220106
KFKN 192035Z AUTO 04004KT 10SM OVC049 21/10 A3028 RMK AO2 T02060101
KFKR 192035Z AUTO 00000KT 10SM SCT110 29/17 A3009 RMK AO2 T02940167
KFKS 192038Z AUTO 22005KT 10SM CLR 24/16 A3006 RMK AO2 T02420155
KFLD 191953Z AUTO 19005KT 10SM FEW021 24/19 A3005 RMK AO2 SLP172 T02440189
KFLG 191957Z 22027G35KT 10SM CLR 22/01 A3009 RMK AO2 PK WND 22035/1949 SLP102 T02220011
KFLL 191953Z 06016KT 10SM SCT040 SCT050 SCT080 29/19 A2991 RMK AO2 SLP128 T02890189
KFLO 191953Z 03009G15KT 10SM CLR 26/10 A3021 RMK AO2 SLP228 T02560100
KFLP 191956Z AUTO 06006KT 10SM CLR 34/21 A3000 RMK AO2 LTG DSNT S AND W SLP150 T03390211
KFLY 192035Z AUTO 17008G20KT 10SM SCT100 26/M03 A3008 RMK AO2 T02571033
KFME 192021Z AUTO 00000KT 10SM CLR 21/03 A3032 RMK AO1
KFMH 191945Z 03007KT 10SM CLR 17/07 A3029
KFMM 192035Z AUTO 11003KT 10SM CLR 30/07 A2993 RMK AO2 T02960074
KFMN 191953Z 20010G17KT 170V240 10SM FEW090 29/03 A3000 RMK AO2 SLP096 T02890028
KFMY 191953Z AUTO 09011KT 10SM SCT050 BKN060 OVC070 28/19 A2993 RMK AO2 SLP138 T02780194
KFNB 191953Z AUTO 14011KT 10SM CLR 31/22 A2996 RMK AO2 SLP136 T03060217
KFNL 192039Z AUTO 13010G15KT 100V170 1 3/4SM HZ CLR 29/05 A2994 RMK AO2 VIS 1/2V5
KFNT 191953Z 15006KT 10SM CLR 27/14 A3012 RMK AO2 SLP197 T02670139
KFOD 191956Z AUTO 20008KT 10SM CLR 28/19 A3001 RMK AO2 SLP178 T02780194
KFOE 191953Z 16013G18KT 10SM FEW055 33/21 A2997 RMK AO2 SLP137 T03330206
KFOK 191953Z 03007KT 10SM CLR 20/03 A3031 RMK AO2 SLP263 T02000028
KFOT 192035Z AUTO 29011G17KT 10SM FEW090 FEW110 19/11 A3004 RMK AO1
KFOZ 192036Z AUTO 00000KT 10SM SCT110 22/14 A3007 RMK AO1
KFPK 192035Z AUTO 00000KT 10SM CLR 27/11 A3009 RMK AO2 T02700105
KFPR 191953Z 07013G20KT 10SM FEW075 BKN085 28/19 A2997 RMK AO2 SLP147 T02830189
KFQD 192035Z AUTO 00000KT 10SM OVC042 20/11 A3027 RMK AO2
KFRG 191953Z 21006KT 10SM CLR 19/09 A3030 RMK AO2 SLP260 T01890094
KFRH 192035Z AUTO 27003KT 10SM CLR 30/14 A3006 RMK AO1
KFRI 191956Z AUTO 17010KT 10SM CLR 34/21 A2994 RMK AO2 SLP125 T03360210
KFRM 191956Z AUTO 18008KT 10SM FEW040 27/19 A2999 RMK AO2 SLP153 T02720194
KFRR 192035Z AUTO 12003KT 10SM CLR 23/10 A3026 RMK AO1
KFSD 191956Z 15011G18KT 10SM FEW040 FEW250 28/18 A2997 RMK AO2 SLP142 T02780178
KFSE 192037Z AUTO 00000KT 10SM CLR 26/14 A3001 RMK AO2
KFSI 191956Z AUTO 09010KT 10SM BKN041 31/23 A2992 RMK AO2 SLP122 T03050234
KFSM 192034Z 09008G21KT 040V150 1/2SM R25/2400VP6000FT +RA SCT024 SCT044 OVC055 26/22 A2997 RMK AO2 LTG DSNT SE RAB24 TSB20 P0010 T02560222
KFSO 192035Z AUTO 00000KT 10SM CLR 22/02 A3028 RMK AO2 T02240020
KFST 191953Z AUTO 31004KT 6SM RA BKN095 OVC110 28/15 A2993 RMK AO2 LTG DSNT N AND NW RAB10 SLP083 P0005 T02830150
KFSW 192035Z AUTO 10007KT 10SM CLR 27/23 A3001 RMK AO2
KFTG 191958Z 08007G14KT 10SM SCT120 30/02 A2998
KFTK 191956Z AUTO 19006KT 10SM BKN060 32/16 A3007 RMK AO2 SLP178 T03200163
KFTW 191953Z 09008KT 10SM SCT022 OVC055 28/21 A2988 RMK AO2 SLP108 T02830211
KFTY 191953Z 13008KT 10SM CLR 27/13 A3017 RMK AO2 SLP206 T02720128
KFUL 191953Z 19009KT 10SM BKN032 26/15 A2985 RMK AO2 SLP107 T02560150
KFVE 191953Z AUTO 27006KT 10SM CLR 19/07 A3020 RMK AO2 SLP230 T01940067
KFVX 192035Z AUTO 00000KT 10SM CLR 24/08 A3026 RMK AO2 T02350080
KFWA 191954Z VRB06KT 10SM FEW250 27/14 A3010 RMK AO2 SLP188 T02720144
KFWB 192035Z AUTO 11005KT 10SM CLR 30/19 A3002 RMK AO2 P0002 PWINO PNO
KFWC 192035Z AUTO 00000KT 10SM CLR 31/15 A3003 RMK AO1 T03070152
KFWN 191953Z AUTO VRB04KT 10SM CLR 22/02 A3030 RMK AO2 RAB47E51 SLP260 P0000 T02170017
KFWS 191950Z 03008KT 10SM BKN024 BKN036 29/22 A2990
KFWZ 192035Z AUTO 20009G32KT 10SM CLR 19/M05 A2995 RMK AO2
KFXE 191953Z 06014G19KT 10SM SCT040 29/19 A2992 RMK AO2 SLP134 T02890194
KFXY 192035Z AUTO 19005KT 10SM SCT028 SCT035 27/20 A3000 RMK AO2
KFYE 192035Z AUTO 15007G13KT 10SM FEW043 FEW049 32/21 A2999 RMK A01
KFYG 192035Z AUTO 02003KT 10SM CLR 32/21 A3000 RMK AO2
KFYJ 192035Z AUTO 07006KT 10SM BKN049 22/10 A3030 RMK AO1 T02210099
KFYM 192035Z AUTO 17008G16KT 10SM FEW050 30/17 A3010 RMK A01
KFYV 191953Z 16010KT 10SM FEW050 32/22 A3001 RMK AO2 SLP147 T03170217
KFZG 192035Z AUTO 08008KT 050V110 10SM CLR 30/09 A3013 RMK AO2 T02960090 PWINO
KFZY 191954Z AUTO 03004KT 10SM CLR 23/09 A3027 RMK AO2 SLP249 T02280089
KGAD 191956Z AUTO 10006KT 10SM CLR 31/18 A3011 RMK AO2 SLP196 T03110178
KGAF 192035Z AUTO VRB04KT 9SM CLR 24/14 A3001 RMK AO2
KGAG 191953Z AUTO 16009G16KT 10SM CLR 33/16 A2994 RMK AO2 SLP108 T03280161
KGAI 191956Z AUTO 12005KT 10SM CLR 22/07 A3030 RMK AO2 SLP274 T02220067
KGAO 192035Z AUTO 13003KT 10SM CLR 29/22 A2997 RMK AO2 T02930218
KGBD 191956Z AUTO 15016G23KT 10SM CLR 33/19 A2993 RMK AO2 SLP113 T03280189 $
KGBG 192035Z AUTO 10007KT 10SM SCT070 26/21 A3005 RMK AO2 T02580205
KGBK 192035Z AUTO 00000KT 1SM HZ 28/23 A2994 RMK A01
KGCC 191953Z AUTO 16017G25KT 10SM FEW110 29/06 A2981 RMK AO2 PK WND 17026/1942 SLP045 T02890061
KGCD 192035Z AUTO 31004G14KT 10SM OVC060 14/06 A3002 RMK AO2 T01430057
KGCK 191954Z 16016G31KT 10SM CLR 33/17 A2992 RMK AO2 PK WND 18031/1952 SLP093 T03330167
KGCM 192035Z AUTO 12007KT 10SM CLR 31/20 A2997 RMK AO2
KGCN 191954Z 22023G36KT 10SM CLR 24/M02 A3003 RMK AO2 PK WND 23036/1906 SLP073 T02391017
KGCY 192035Z AUTO 00000KT 10SM OVC040 23/13 A3020 RMK A01
KGDB 192039Z AUTO 10004KT 10SM CLR 29/17 A2998 RMK AO2 T02850174
KGDJ 192035Z AUTO 12003KT 10SM SCT037 SCT048 30/20 A2987 RMK AO2 T03030201
KGDP 191951Z AUTO 22007KT 190V260 10SM FEW095 28/09 A3010 RMK AO2 SLP102 T02830089
KGDV 191956Z AUTO 09007KT 10SM CLR 26/14 A2977 RMK AO2 SLP068 T02560139
KGED 191954Z AUTO 08006KT 10SM CLR 21/10 A3031 RMK AO2 SLP262 T02060100
KGEG 192022Z VRB03KT 10SM SCT012 14/09 A2999
KGEU 191948Z 20006G14KT 10SM FEW090 36/08 A2976
KGEV 192035Z AUTO 00000KT 10SM OVC015 14/11 A3032 RMK AO2 T01360110
KGEZ 191953Z AUTO 22004KT 10SM FEW050 30/17 A3006 RMK AO2 SLP174 T03000167
KGFA 191958Z AUTO 30005KT 10SM FEW033 SCT090 15/06 A2992 RMK AO2 SLP139 T01520058 $
KGFK 191953Z 00000KT 10SM FEW030 23/15 A2999 RMK AO2 SLP155 T02330150
KGFL 191953Z AUTO 13004KT 10SM CLR 20/06 A3028 RMK AO2 SLP259 T02000056
KGGE 192035Z AUTO 05005G08KT 10SM CLR 25/11 A3019 RMK AO2
KGGG 192005Z 11010KT 10SM BR OVC006 23/23 A2989 RMK AO2 T02330228
KGGI 192035Z AUTO 11007KT 10SM BKN029 24/20 A3003 RMK AO2 T02400200
KGGP 192035Z AUTO 20004KT 10SM CLR 28/15 A3008 RMK AO2
KGGW 191953Z AUTO 10007KT 10SM CLR 23/11 A2976 RMK AO2 SLP073 T02330111
KGHB 192030Z AUTO VRB06G12KT 10SM FEW022 FEW027 SCT034 28/23 A2994 RMK A01
KGHG 192035Z AUTO VRB04KT 10SM CLR 17/08 A3029 RMK AO2
KGHW 192037Z AUTO 20004KT 10SM CLR 28/14 A3000 RMK AO2
KGIC 192035Z AUTO 02003KT 10SM SCT075 14/07 A2998 RMK AO1
KGIF 191953Z AUTO 08017KT 10SM FEW055 32/17 A2999 RMK AO2 SLP153 T03170172
KGJT 191953Z 19016G28KT 10SM SCT110 30/02 A2988 RMK AO2 PK WND 19031/1925 SLP043 T03000017
KGKJ 191953Z AUTO 00000KT 10SM CLR 23/11 A3024 RMK AO2 SLP234 T02280111 TSNO
KGKT 192035Z AUTO 07005KT 10SM OVC046 27/16 A3015 RMK A01
KGKY 192026Z 05013G18KT 9SM -RA FEW017 BKN022 OVC050 27/22 A2988 RMK AO2 RAB26 P0000 T02720217
KGLD 191953Z AUTO 15013G22KT 10SM CLR 32/15 A2991 RMK AO2 SLP085 T03220150 $
KGLE 192035Z AUTO 08008G15KT 10SM SCT026 BKN035 OVC045 26/21 A2992 RMK AO2 T02600205
KGLH 191953Z 22010KT 10SM FEW110 32/21 A2995 RMK AO2 SLP148 T03170206 $
KGLR 191953Z AUTO 21010KT 10SM CLR 27/13 A3010 RMK AO2 SLP188 T02670133
KGLS 192038Z 02009KT 3SM +TSRA BR FEW039 BKN085 OVC110 23/23 A2992 RMK AO2 LTG DSNT ALQDS TSE14B38 P0061 T02280228
KGLW 192035Z AUTO 23006KT 10SM OVC049 30/17 A3009 RMK AO2 T03010170
KGLY 192015Z AUTO 12006KT 9SM CLR 33/20 A2999 RMK AO2
KGMJ 192035Z AUTO 13006KT CLR 32/18 A2998 RMK AO2 LTG DSNT SE PWINO
KGMU 191953Z 08012G18KT 10SM BKN045 BKN060 24/12 A3025 RMK AO2 SLP235 T02440122
KGNA 191956Z AUTO 24006KT 16/14 A2996 RMK AO1 SLP146 T01610144
KGNB 192030Z AUTO 27008KT 10SM BKN110 23/00 A3012 RMK AO2 T02270003
KGNC 192035Z AUTO 17011KT 10SM CLR 33/12 A2998 RMK AO2 T03250121
KGNR 191956Z AUTO 00000KT 19/03 A3024 RMK AO1 SLP246 T01940033
KGNT 192035Z AUTO 16006G15KT 10SM SCT110 27/03 A3012 RMK AO2 T02670032
KGNV 191953Z 05018G22KT 10SM FEW050 SCT070 30/17 A3006 RMK AO2 PK WND 04027/1903 SLP177 T03000172
KGOK 191953Z AUTO 13011KT 10SM FEW043 31/20 A2995 RMK AO2 SLP129 T03110200
KGON 191956Z 21008KT 10SM CLR 18/09 A3029 RMK AO2 SLP257 T01830089
KGOO 192035Z AUTO VRB03KT 10SM SCT042 SCT048 17/06 A2999 RMK A01
KGOP 192035Z AUTO 01007KT 10SM FEW055 FEW065 FEW095 34/19 A2984 RMK AO2
KGOV 191958Z AUTO 26006KT 10SM CLR 27/13 A3009 RMK AO2 SLP191 T02720134 $
KGPC 192035Z AUTO 00000KT 7SM CLR 29/16 A3006 RMK AO2
KGPH 192035Z AUTO 00000KT CLR 32/21 A2998 RMK AO2 LTG DSNT W PWINO
KGPI 191955Z 00000KT 10SM BKN060 OVC070 13/09 A2995 RMK AO2 RAB26E45 SLP143 P0007 T01280089
KGPM 191950Z 07009KT 10SM SCT032 SCT047 27/21 A2989
KGPZ 191956Z AUTO 27005KT 10SM CLR 23/17 A3003 RMK AO2 SLP168 T02330167
KGRB 191953Z 19008KT 10SM FEW080 23/19 A3003 RMK AO2 SLP165 T02330194
KGRD 191956Z AUTO 01007KT 10SM FEW055 24/12 A3022 RMK AO2 SLP227 T02440122
KGRF 191958Z 29003KT 10SM FEW200 19/17 A3008 RMK AO2A SLP190 T01890167 $
KGRI 191953Z 14014G22KT 10SM CLR 31/21 A2993 RMK AO2 SLP122 T03060206
KGRK 191958Z AUTO 03005KT 10SM SCT055 34/21 A2983 RMK AO2 SLP089 T03420206
KGRN 192035Z AUTO 13010KT 10SM CLR 29/15 A2989 RMK AO2 T02940148
KGRR 191953Z 21003KT 10SM BKN250 28/13 A3009 RMK AO2 SLP186 T02830128
KGRY 192030Z AUTO 00000KT 10SM FEW030 29/24 A2996 RMK A01
KGSB 191956Z AUTO 04011G16KT 10SM SCT055 23/11 A3022 RMK AO2 SLP236 T02300114 $
KGSH 191953Z AUTO VRB04KT 10SM CLR 28/12 A3009 RMK AO2 SLP185 T02830117
KGSO 191954Z 12006KT 10SM SCT050 SCT250 22/10 A3025 RMK AO2 SLP238 T02220100
KGSP 191953Z 02008KT 10SM FEW043 23/12 A3025 RMK AO2 SLP235 T02330117
KGTB 191956Z AUTO 33005KT 10SM CLR 22/10 A3026 RMK AO2 SLP248 T02180103
KGTF 191953Z VRB04KT 10SM BKN037 BKN090 17/06 A2991 RMK AO2 SLP126 T01670056 $
KGTR 191956Z 12008KT 10SM OVC031 29/22 A3006 RMK AO2 SLP184 T02890222
KGTU 191956Z VRB03KT 10SM SCT047 BKN060 34/22 A2984 RMK AO2 LTG DSNT SW SLP097 T03390222
KGUC 191956Z AUTO 24004KT 10SM CLR 22/00 A3012 RMK AO2 SLP126 T02220000
KGUL 192035Z AUTO 17008KT 10SM FEW024 29/24 A2994 RMK A01
KGUP 191953Z AUTO 26015G21KT 10SM SCT080 BKN100 27/04 A3009 RMK AO2 SLP034 T02670039
KGUR 191958Z AUTO 10013G19KT 10SM FEW090 29/09 A2990 RMK AO2 SLP088 T02930087
KGUS 191956Z AUTO 20004KT 10SM CLR 30/14 A3007 RMK AO2 SLP181 T02990136 $
KGUY 191953Z AUTO 17014G24KT 10SM CLR 33/13 A2992 RMK AO2 PK WND 17026/1919 SLP078 T03330133
KGVE 192035Z AUTO 13004KT 10SM CLR 22/09 A3028 RMK AO1 T02230086
KGVL 191953Z AUTO 06006G15KT 10SM CLR 24/13 A3023 RMK AO2 SLP223 T02440133
KGVQ 191956Z AUTO VRB04KT 10SM CLR 23/09 RMK AO2 SLPNO P0001 T02280089 $
KGVT 192035Z AUTO 10010G16KT 10SM BKN021 OVC029 27/21 A2990 RMK AO2
KGWB 192035Z AUTO 11005KT 10SM CLR 27/15 A3010 RMK AO2
KGWO 191953Z AUTO 16009KT 10SM CLR 35/21 A2997 RMK AO2 SLP146 T03500211
KGWR 192035Z AUTO 13011KT 10SM CLR 27/16 A2996 RMK A01
KGWW 192035Z AUTO 04004KT 10SM OVC050 22/12 A3025 RMK AO2 T02180123
KGXA 191958Z AUTO 30009G17KT 10SM CLR 23/05 A2986 RMK AO2 SLP089 WND DATA ESTMD T02290050
KGXF 191958Z AUTO 28006KT 10SM CLR 36/11 A2972 RMK AO2 SLP050 T03570107
KGXY 191956Z AUTO 11006KT 9SM CLR 28/10 A2994 RMK AO2 SLP100 T02830100
KGYB 192035Z AUTO 00000KT 5SM RA SCT021 SCT035 SCT048 30/25 A2982 RMK AO2 P0003 T02950253
KGYH 191847Z 09008KT 10SM SCT047 24/12 A3026
KGYI 191950Z 10009KT 10SM SCT025 SCT034 OVC042 30/22 A2992
KGYL 192036Z AUTO 07003KT 10SM CLR 28/17 A2997 RMK AO2 T02810167
KGYR 191947Z 19013KT 10SM FEW150 36/09 A2975
KGYY 191945Z 04008KT 10SM BKN200 27/15 A3008
KGZH 191953Z AUTO 12006KT 10SM FEW049 BKN060 32/19 A3004 RMK AO2 SLP169 T03170194
KGZL 192035Z AUTO 12011G16KT 10SM CLR 33/14 A2993 RMK AO2
KGZN 192020Z AUTO 08008G14KT 10SM FEW055 34/18 A2989 RMK AO2
KGZS 192035Z AUTO VRB06G13KT 10SM BKN050 31/19 A3007 RMK A01
KH71 192035Z AUTO 18006G14KT 10SM CLR 33/20 A2994 RMK AO2
KH78 191947Z 15004KT 20SM FEW005 SCT060 32/24 A3000 RMK SEAS CALM
KHAE 192035Z AUTO 10SM SCT110 32/17 A3002 RMK AO2 LTG DSNT W AND NW
KHAF 192040Z AUTO 32011KT 9SM CLR 18/13 A2997 RMK AO2
KHAI 192035Z AUTO 00000KT 10SM CLR 28/10 A3009 RMK AO2 T02770099
KHAO 191953Z AUTO VRB04KT 10SM FEW048 30/19 A3008 RMK AO2 SLP182 T03000189
KHBG 192018Z AUTO 11024G30KT 10SM TS BKN055 BKN070 33/21 A3000 RMK AO2 PK WND 11030/2017 LTG DSNT E AND SE TSB12 T03330206
KHBI 192035Z AUTO 36005KT 10SM CLR 23/07 A3026 RMK AO2 T02310074
KHBR 191953Z AUTO 11013G19KT 090V160 10SM CLR 32/19 A2994 RMK AO2 SLP116 T03220189
KHBV 192030Z AUTO 15004G15KT 10SM SCT060 35/20 A2981 RMK AO2 T03500195
KHCD 192036Z AUTO 00000KT 10SM CLR 28/19 A2999 RMK AO2 T02750190
KHCO 192038Z AUTO 11003KT 10SM CLR 24/13 A2999 RMK AO2
KHCR 192035Z AUTO 24014G22KT 10SM CLR 25/M06 A2979 RMK AO2
KHDC 192035Z AUTO 11009KT 10SM CLR 31/22 A2997 RMK AO2 PWINO
KHDE 192035Z AUTO 16018G24KT 10SM CLR 33/19 A2989 RMK AO2 T03250194
KHDN 191956Z AUTO 27012G17KT 10SM CLR 26/M01 A3000 RMK AO2 SLP075 T02611006
KHDO 191951Z AUTO 16010G14KT 10SM CLR 37/19 A2982 RMK AO2 SLP077 T03720189
KHEF 191956Z VRB04KT 10SM CLR 23/07 A3029 RMK AO2 SLP261 T02280072
KHEG 192035Z AUTO 04013G25KT 6SM HZ FEW030 SCT044 BKN060 26/19 A3010 RMK AO2
KHEI 191953Z AUTO 14017G30KT 10SM CLR 27/13 A2985 RMK AO2 PK WND 16031/1901 SLP096 T02670128
KHEY 191958Z AUTO 08010KT 10SM BKN049 BKN060 31/17 A3007 RMK AO2 SLP182 T03050171
KHEZ 191956Z AUTO 14008KT 10SM CLR 31/22 A2997 RMK AO2 SLP147 T03110217
KHFD 191953Z 00000KT 10SM CLR 21/M01 A3029 RMK AO2 SLP255 T02061006
KHFF 191956Z AUTO 09006KT 10SM FEW060 25/09 A3023 RMK AO2 SLP251 T02480085 $
KHFJ 192035Z AUTO 15007KT 10SM SCT055 BKN110 31/19 A3000 RMK AO2
KHFY 192030Z AUTO 22003KT 10SM BKN060 29/17 A3007 RMK AO2 T02880169
KHGR 191953Z 22004KT 10SM CLR 22/07 A3029 RMK AO2 SLP264 T02220067
KHHF 192035Z AUTO 26019G37KT 2 1/2SM +TSRA OVC055 21/19 A2994 RMK AO2 VIS 1 1/2V5 LTG DSNT ALQS P0012 T02050187
KHHR 191953Z 24008KT 10SM CLR 25/15 A2986 RMK AO2 SLP110 T02500150
KHHV 192035Z AUTO 15015KT 10SM CLR 30/24 A2991 RMK A01
KHIB 191953Z AUTO VRB04KT 10SM CLR 22/16 A3002 RMK AO2 SLP166 T02220156
KHIE 191952Z AUTO 27006KT 10SM CLR 20/03 A3028 RMK AO2 SLP259 T02000028
KHIF 191958Z 00000KT 10SM FEW085 FEW200 21/02 A2982 RMK AO2A SLP053 T02080016
KHII 192010Z AUTO 23007KT 10SM CLR 34/M01 A2971 RMK AO2
KHIO 191953Z 23003KT 10SM SCT023 SCT029 BKN035 18/12 A3009 RMK AO2 SLP188 T01780117
KHJH 192035Z AUTO 15008G15KT 10SM SCT048 33/20 A2993 RMK AO2 T03300201
KHJO 191953Z AUTO 33008KT 10SM CLR 24/10 A2992 RMK AO2 SLP134 T02440100
KHKA 191953Z AUTO 11007KT 7SM CLR 35/19 A3001 RMK AO2 SLP160 T03500189 $
KHKS 191953Z 06004KT 10SM BKN050 BKN060 BKN110 33/25 A2997 RMK AO2 RAB18E38 SLP140 P0010 T03280250
KHKY 191953Z AUTO 04004KT 10SM OVC038 21/12 A3027 RMK AO2 SLP231 T02060117
KHLB 192035Z AUTO 15005KT 3SM HZ SCT060 SCT070 29/16 A3007 RMK A01
KHLC 191953Z AUTO 16014G23KT 10SM CLR 35/18 A2989 RMK AO2 PK WND 17026/1931 SLP096 T03500183 TSNO
KHLG 191953Z 11008KT 060V130 10SM CLR 26/11 A3020 RMK AO2 SLP224 T02560106
KHLN 191953Z VRB03KT 10SM OVC100 16/06 A2993 RMK AO2 SLP137 T01560061
KHLR 191958Z AUTO 04008KT 10SM BKN055 BKN090 35/20 A2984 RMK AO2 LTG DSNT S SLP091 T03460202
KHLX 192035Z AUTO 16006KT 10SM OVC035 18/12 A3029 RMK AO2 T01820117
KHME 191950Z 08008KT CAVOK 27/06 Q1015
KHMN 191958Z AUTO 16007KT 10SM SCT100 32/10 A2999 RMK AO2 SLP082 T03230097 $
KHMZ 192035Z AUTO 13007KT 10SM CLR 21/07 A3026 RMK AO2 T02100071
KHNB 191956Z AUTO VRB03KT 10SM CLR 32/18 A3005 RMK AO2 SLP172 T03170178
KHND 191956Z 22017G25KT 10SM CLR 29/M01 A2978 RMK AO2 PK WND 21028/1937 SLP074 T02891006
KHNR 192035Z AUTO 00000KT 10SM SCT060 27/22 A2997 RMK AO2 PWINO
KHNZ 192035Z AUTO 00000KT 10SM CLR 22/07 A3026 RMK AO2 T02150070
KHOB 191950Z 17010G16KT 10SM SCT080 33/11 A2996
KHOE 192035Z AUTO 05006KT 10SM CLR 29/12 A3009 RMK AO2
KHON 191955Z AUTO 12010KT 10SM CLR 27/19 A2992 RMK AO2 SLP126 T02720189
KHOP 191956Z AUTO 17006KT 10SM FEW050 32/17 A3005 RMK AO2 SLP173 T03240174
KHOT 191953Z AUTO 09009KT 10SM SCT055 33/20 A2996 RMK AO2 LTG DSNT S SLP138 T03330200
KHOU 192018Z 11007KT 7SM -RA FEW015 SCT090 OVC120 23/22 A2991 RMK AO2 LTG DSNT SE-W P0006 T02330222
KHPN 191956Z 00000KT 10SM CLR 19/06 A3030 RMK AO2 SLP261 T01890056
KHPT 192035Z AUTO 19010G15KT 10SM SCT022 26/21 A3001 RMK AO2
KHQG 192035Z AUTO 16023G28KT 10SM CLR 33/18 A2991 RMK AO2 T03330177
KHQI 192035Z AUTO 15009KT 10SM CLR 30/24 A2993 RMK A01
KHQM 192023Z AUTO 23008KT 8SM FEW021 16/14 A3010 RMK AO2 T01610144
KHQU 192035Z AUTO 11009KT 10SM CLR 27/10 A3018 RMK AO2 T02700104
KHQZ 191950Z 08006KT 10SM BKN023 OVC042 26/22 A2989
KHRI 191953Z AUTO 31006KT 10SM CLR 21/10 A3000 RMK AO2 SLP156 T02110100
KHRJ 192035Z AUTO 06008KT 10SM CLR 25/10 A3025 RMK AO2 T02470103
KHRL 191952Z 18019G24KT 10SM BKN045 BKN050 34/24 A2980 RMK AO2 SLP090 T03390239
KHRO 192021Z AUTO 05008KT 10SM FEW046 27/17 A3003 RMK AO2 WSHFT 2001 LTG DSNT SE T02670167
KHRT 191956Z 15012G15KT 10SM SCT040 30/21 A3002 RMK AO2A SLP167 T03040214 $
KHRX 192035Z AUTO 18014G19KT 10SM CLR 33/12 A2995 RMK AO2 T03330123
KHSA 191950Z 14010G15KT 10SM SCT037 33/23 A2999
KHSB 192035Z AUTO 00000KT 10SM CLR 33/09 A3003 RMK AO2 T03260092
KHSD 192035Z AUTO 15011G18KT 10SM BKN049 31/19 A2993 RMK A01
KHSE 191951Z AUTO 02011G20KT 10SM OVC041 A3021 RMK AO2 SLP231 $
KHSG 192035Z AUTO 19012G18KT 10SM CLR 28/00 A2978 RMK AO2 T02760001
KHSI 191953Z AUTO 16012G26KT 10SM CLR 32/19 A2993 RMK AO2 PK WND 15026/1946 SLP114 T03170194
KHSP 192038Z AUTO 12005KT 10SM CLR 15/11 A3033 RMK AO2
KHST 192039Z AUTO 07012G24KT 10SM -RA SCT033 BKN045 28/22 A2990 RMK AO2 RAB39 SLP128 FZRANO TSNO $
KHSV 191953Z 19007KT 10SM FEW055 SCT075 31/17 A3010 RMK AO2 SLP183 T03060172
KHTH 192035Z AUTO 32014KT 10SM 18/M02 A2992 RMK A01
KHTL 191953Z AUTO 18006KT 10SM CLR 26/14 A3011 RMK AO2 SLP194 T02610144
KHTO 192035Z AUTO 00000KT 10SM CLR 18/07 A3028 RMK AO2 T01760065
KHTS 191951Z 19007KT 140V220 10SM FEW085 28/16 A3014 RMK AO2 SLP199 T02830161
KHUA 191958Z AUTO 21004KT 10SM CLR 31/17 A3008 RMK AO2 SLP180 T03070171
KHUF 191953Z 00000KT 10SM CLR 30/16 A3005 RMK AO2 SLP172 T03000156
KHUL 191953Z AUTO 21005KT 10SM CLR 21/06 A3021 RMK AO2 SLP233 T02060056
KHUM 191950Z 11010KT 7SM SCT035 31/22 A2997
KHUT 191952Z 16014G21KT 10SM FEW055 32/18 A2994 RMK AO2 PK WND 17035/1912 SLP116 T03220183
KHVE 192035Z AUTO 18010G31KT 10SM SCT110 30/M01 A2982 RMK AO2
KHVN 191953Z 25006KT 10SM CLR 19/08 A3030 RMK AO2 SLP261 T01940083
KHVR 191953Z AUTO 26014KT 10SM SCT029 17/10 A2987 RMK AO2 SLP110 T01720100
KHVS 192035Z AUTO 07008KT 10SM CLR 27/09 A3022 RMK AO2
KHWD 191954Z 26009KT 10SM FEW020 22/13 A2995 RMK AO2 SLP151 T02170128
KHWO 191953Z 04017G25KT 10SM SCT045 BKN100 29/18 A2993 RMK AO2 SLP135 T02940178
KHWV 191956Z AUTO 16004KT 10SM CLR 19/09 A3030 RMK AO2 SLP261 T01890089
KHWY 192035Z AUTO 12004KT 10SM CLR 23/04 A3028 RMK AO2 T02340038
KHXD 191950Z 04011KT 10SM FEW047 26/15 A3016
KHYA 191956Z 02008KT 10SM CLR 18/07 A3027 RMK AO2 SLP251 T01830072
KHYI 192029Z 22006G15KT 10SM TS SCT070 37/21 A2980 RMK AO2 LTG DSNT N AND NW TSB23
KHYR 191953Z AUTO 21008KT 10SM FEW037 27/17 A3000 RMK AO2 SLP156 T02670172
KHYS 191956Z AUTO 17015G19KT 10SM CLR 34/20 A2991 RMK AO2 SLP106 T03390200
KHYW 192015Z AUTO 04007KT 7SM SCT060 24/11 A3020 RMK AO2
KHYX 192035Z AUTO 19004KT 10SM CLR 27/11 A3010 RMK AO2
KHZD 192035Z AUTO VRB04KT 10SM FEW070 FEW085 FEW120 32/21 A3002 RMK A01
KHZE 192035Z AUTO 11013G19KT 10SM CLR 26/16 A2988 RMK AO2
KHZL 192036Z AUTO 00000KT 10SM CLR 20/03 A3033 RMK AO2
KHZR 192037Z AUTO 15003KT 10SM SCT028 SCT038 BKN050 30/23 A2996 RMK AO2
KHZX 192036Z AUTO 26003KT 10SM CLR 26/15 A3000 RMK AO2
KHZY 191953Z AUTO 19010KT 10SM CLR 24/13 A3021 RMK AO2 SLP225 T02440133 $
KI16 192035Z AUTO 10SM CLR 27/13 A3024 RMK AO2 T02700127
KI19 192016Z AUTO 18006KT 10SM SCT039 SCT047 BKN055 29/17 A3011 RMK AO2 T02900169
KI23 192038Z AUTO 15009KT 10SM SCT055 28/17 A3011 RMK AO1
KI35 192035Z AUTO 09004KT 10SM OVC037 24/16 A3018 RMK AO2 T02400162
KI43 192035Z AUTO 00000KT 10SM CLR 28/16 A3013 RMK AO2
KI63 192035Z AUTO 00000KT 10SM SCT070 31/21 A3001 RMK AO2 T03090214
KI67 192035Z AUTO 07004KT 10SM CLR 30/16 A3005 RMK AO1
KI68 192035Z AUTO 10006KT 10SM SCT040 SCT060 SCT070 29/20 A3009 RMK AO1 T02940195
KI69 192035Z AUTO 15005KT 10SM SCT048 28/19 A3009 RMK AO2 T02840190
KI74 192035Z AUTO 16003KT 10SM SCT055 28/15 A3010 RMK AO2
KI75 192035Z AUTO 12006KT 10SM CLR 28/21 A3000 RMK AO2 T02750213
KIAB 191956Z AUTO 11012KT 10SM FEW140 SCT180 SCT210 31/19 A2997 RMK AO2 SLP137 T03070187 $
KIAD 191952Z 03003KT 10SM FEW250 22/06 A3028 RMK AO2 SLP254 T02220061
KIAG 191953Z 16007KT 120V190 10SM CLR 23/09 A3022 RMK AO2 SLP232 T02280094
KIAH 192026Z 14010KT 4SM -RA FEW008 SCT045 OVC080 23/22 A2990 RMK AO2 LTG DSNT S AND SW CB DSNT S-SW P0015 T02330222
KIBM 192035Z AUTO 12010KT 10SM CLR 27/12 A2995 RMK AO2 T02710118
KICL 192035Z AUTO 16009G15KT 10SM CLR 31/21 A2998 RMK AO2
KICR 191953Z AUTO 14016G25KT 10SM FEW031 28/19 A2991 RMK AO2 SLP113 T02780194
KICT 191953Z 14013KT 10SM FEW045 SCT200 30/19 A2996 RMK AO2 SLP130 T03000189
KIDA 191953Z 21007KT 10SM SCT180 17/04 A2987 RMK AO2 SLP092 T01670039
KIDI 192035Z AUTO 17007G12KT 160V220 10SM CLR 23/09 A3028 RMK A01
KIDP 192035Z AUTO 14012G16KT 10SM SCT050 33/20 A2996 RMK AO2 T03260205
KIEN 191952Z AUTO 13011G16KT 10SM CLR 29/14 A2989 RMK AO2 SLP090 T02890144
KIER 192035Z AUTO 17008KT 7SM -RA SCT046 OVC060 24/22 A2998 RMK AO2 P0001 T02420219
KIFA 192035Z AUTO 17009KT 10SM 27/18 A3002 RMK AO2 T02650181
KIFP 191948Z 13010G17KT 10SM SKC 34/01 A2970
KIGM 191951Z AUTO 21015G30KT 10SM CLR 30/M08 A2986 RMK AO2 PK WND 22030/1947 SLP042 T03001083
KIGQ 192035Z AUTO 00000KT 10SM CLR 28/16 A3006 RMK AO2 T02820163
KIIB 192035Z AUTO 00000KT 10SM SCT020 26/21 A3002 RMK AO2 T02620206
KIIY 192035Z AUTO 06006KT 10SM CLR 26/12 A3020 RMK AO2 TSNO
KIJD 191952Z AUTO 00000KT 10SM CLR 20/04 A3030 RMK AO2 SLP260 T02000039
KIJX 192035Z AUTO 16005KT 10SM CLR 31/20 A3001 RMK AO2 T03070203
KIKG 192035Z AUTO 13010G14KT 10SM SCT050 BKN065 BKN080 36/24 A2979 RMK AO2 T03620240
KIKK 192035Z AUTO 21003KT 10SM CLR 29/15 A3007 RMK AO2 T02910154
KIKT 192035Z AUTO 08013KT 10SM FEW018 SCT025 SCT031 29/24 A3000 RMK A01
KIKV 192035Z AUTO 09004KT 10SM CLR 26/21 A3000 RMK AO2
KIKW 192035Z AUTO 17004KT 10SM CLR 28/09 A3010 RMK AO2 T02840091
KILE 191956Z AUTO 10SM SCT060 35/22 A2984 RMK AO2 SLP091 T03500222 $
KILG 191951Z VRB03KT 10SM CLR 22/08 A3030 RMK AO2 SLP261 T02220078 $
KILM 191953Z AUTO 05009KT 10SM OVC060 25/12 A3020 RMK AO2 SLP225 T02500122
KILN 191954Z AUTO 15007KT 10SM BKN035 BKN060 26/19 A3011 RMK AO2 SLP190 T02610189
KIML 191953Z AUTO 16010G18KT 10SM CLR 32/11 A2989 RMK AO2 SLP090 T03170111
KIMM 192035Z AUTO 06014G20KT 10SM CLR 29/20 A2991 RMK AO2
KIMS 192036Z AUTO 14005KT 10SM SCT060 31/17 A3008 RMK AO1
KIMT 191954Z AUTO 28006KT 10SM CLR 23/19 A3000 RMK AO2 SLP156 T02330189
KIND 191954Z 21005KT 10SM SCT055 SCT250 30/16 A3006 RMK AO2 SLP173 T03000156
KINF 192035Z AUTO 06014G20KT 7SM SCT038 SCT050 BKN080 28/20 A3003 RMK AO2
KINJ 192035Z AUTO 04012G16KT 10SM BKN028 BKN036 OVC049 29/23 A2986 RMK AO2 T02910230
KINK 191953Z AUTO VRB05KT 10SM FEW110 34/11 A2989 RMK AO2 SLP067 T03440111
KINL 191955Z AUTO 00000KT 10SM OVC022 21/14 A3003 RMK AO2 SLP168 T02110139
KINS 191958Z AUTO 30019G26KT 10SM CLR 28/M08 A2973 RMK AO2 PK WND 26032/51 SLP023 T02791079 $
KINT 191954Z 06008KT 10SM SCT050 23/09 A3027 RMK AO2 SLP242 T02330094
KINW 191956Z AUTO 19019G31KT 10SM CLR 31/01 A2996 RMK AO2 PK WND 22032/1931 SLP068 T03110006
KIOB 192035Z AUTO 12004KT 10SM SCT060 SCT070 BKN080 29/17 A3011 RMK AO2 PWINO
KIOW 191952Z AUTO 12009KT 10SM CLR 25/19 A3003 RMK AO2 SLP164 T02500194
KIPJ 192035Z AUTO 08003KT 10SM BKN050 23/09 A3025 RMK AO2 T02330091
KIPL 191953Z AUTO VRB04KT 10SM CLR 34/02 A2970 RMK AO2 SLP059 T03440017
KIPT 191954Z 13005KT 10SM CLR 21/08 A3026 RMK AO2 SLP248 T02110078
KIRK 192017Z AUTO 15012G24KT 10SM VCTS FEW028 BKN035 BKN042 27/20 A3003
KIRS 192036Z AUTO 15006KT 10SM CLR 29/08 A3009 RMK AO2 T02850076
KISM 191956Z 06011KT 10SM FEW055 29/17 A3000 RMK AO2 SLP158 T02940172
KISN 191952Z AUTO 11017G29KT 10SM CLR 26/14 A2982 RMK AO2 PK WND 14035/1929 SLP094 T02610139
KISO 191956Z 04005KT 10SM OVC050 23/13 A3024
KISP 191956Z 00000KT 10SM CLR 19/09 A3030 RMK AO2 SLP259 T01940094
KISQ 192039Z AUTO 20008KT 10SM CLR 19/18 A3004 RMK AO2 T01910177
KISW 192003Z AUTO 07003KT 10SM FEW021 BKN035 23/19 A3003 RMK AO2 T02330189
KITH 191956Z VRB05KT 10SM CLR 22/08 A3029 RMK AO2 SLP256 T02170078
KITR 191953Z AUTO 17010G23KT 10SM CLR 33/04 A2994 RMK AO2 SLP077 T03330044
KIWA 191955Z 21007G16KT 150V240 10SM PO SCT100 36/09 A2978
KIWD 191956Z AUTO 24007KT 10SM CLR 27/17 A3000 RMK AO2 SLP152 T02670172
KIWI 191953Z AUTO VRB04KT 10SM CLR 18/06 A3028 RMK AO2 SLP252 T01830056
KIXA 192035Z AUTO 05008KT 10SM SCT050 21/13 A3026 RMK AO2
KIXD 191953Z 16010KT 10SM CLR 33/21 A2999 RMK AO2 SLP144 T03330206
KIYA 192035Z AUTO 15004KT 10SM SCT019 SCT024 SCT033 29/26 A2995 RMK AO2 LTG DSNT SW T02860258
KIZA 192035Z AUTO 24014G19KT 10SM CLR 25/11 A2987 RMK AO2
KIZG 191954Z AUTO 17004KT 10SM CLR 21/03 A3027 RMK AO2 SLP252 T02110028
KJAC 191956Z 22015G29KT 10SM CLR 21/M06 A2987 RMK AO2 PK WND 23030/1912 SLP070 T02111056
KJAN 191954Z 16006KT 10SM BKN049 35/21 A2996 RMK AO2 SLP139 T03500206
KJAQ 192035Z AUTO 32012KT 290V010 10SM CLR 20/08 A2995 RMK AO1 T02040084
KJAS 192035Z AUTO 16004KT 7SM DZ BKN011 BKN042 OVC075 24/23 A2997 RMK AO2 P0001 T02420233
KJAU 192035Z AUTO 00000KT 10SM BKN049 27/16 A3017 RMK A01
KJAX 191956Z 04020G25KT 10SM SCT035 BKN060 BKN250 27/19 A3008 RMK AO2 SLP186 T02720189
KJBR 191953Z AUTO 04008KT 010V080 10SM FEW075 36/16 A2999 RMK AO2 SLP151 T03610156 TSNO
KJCA 192030Z AUTO 09007KT 050V110 10SM CLR 25/13 A3021 RMK AO2 T02510126
KJCT 191951Z AUTO VRB05KT 10SM CLR 38/15 A2984 RMK AO2 SLP062 T03780150
KJDD 192035Z AUTO 12004KT 3SM DZ BR SCT008 BKN012 OVC024 23/22 A2989 RMK AO2 VIS 2 1/2V3 1/2
KJDN 191948Z AUTO 05004KT 22/08 A2978 RMK AO1 SLP082 T02220083
KJEF 191953Z 00000KT 10SM CLR 33/19 A3000 RMK AO2 SLP143 T03330194
KJER 192035Z AUTO 26009KT 10SM SCT010 SCT020 OVC090 11/08 A2995 RMK AO2 T01110083
KJES 192003Z AUTO 10011KT 7SM SCT049 29/14 A3012 RMK AO2
KJFK 191951Z 21008KT 10SM FEW250 19/11 A3032 RMK AO2 SLP266 T01890106
KJFX 192035Z AUTO 10SM FEW050 SCT055 35/19 A3006 RMK AO2
KJFZ 192030Z AUTO 15006KT 10SM SCT035 22/12 A3026 RMK AO2 T02160119
KJGG 192035Z AUTO 00000KT 10SM SCT050 23/12 A3029 RMK AO1
KJHN 192035Z AUTO 15018G24KT 10SM SCT075 SCT095 34/17 A2989 RMK AO2 LTG DSNT S T03420169
KJHW 191956Z AUTO VRB03KT 10SM CLR 21/09 A3028 RMK AO2 SLP254 T02060089
KJKA 192035Z AUTO 11013G19KT 10SM SCT024 BKN039 OVC070 26/24 A3003 RMK AO2 LTG DSNT S THRU NW P0006 T02610239
KJKJ 192036Z AUTO 15004KT 10SM CLR 27/14 A2997 RMK AO2
KJKL 191953Z AUTO VRB04KT 10SM FEW050 28/18 A3015 RMK AO2 SLP195 T02830178
KJLN 191953Z 16010KT 10SM FEW050 33/21 A3000 RMK AO2 SLP145 T03330206
KJMR 192038Z AUTO 00000KT 10SM CLR 25/15 A3000 RMK AO2
KJMS 191956Z AUTO 12009KT 10SM CLR 27/16 A2995 RMK AO2 SLP139 T02670161
KJNX 192035Z AUTO 06009KT 10SM BKN050 23/11 A3025 RMK AO2
KJOT 192035Z AUTO 00000KT 10SM CLR 29/17 A3007 RMK AO2 T02860170
KJQF 191950Z 35007KT 10SM CLR 25/08 A3027
KJRB 191956Z AUTO 00000KT 10SM CLR 23/04 A3031 RMK AO2 PK WND 30032/1948 SLP264 T02330039
KJSL 192020Z AUTO 14009G14KT FEW025 SCT038 32/23 A2993 RMK A01
KJSO 192035Z AUTO 00000KT 3SM RA SCT007 OVC013 24/23 A2988 RMK AO2 P0011 T02410237
KJST 191954Z AUTO 16009KT 10SM CLR 19/08 A3028 RMK AO2 SLP250 T01890083
KJSV 192035Z AUTO 12006KT 10SM CLR 32/20 A2995 RMK AO2
KJTC 192035Z AUTO 22017KT 10SM FEW048 SCT100 26/03 A3014 RMK AO2
KJVL 191945Z 16005KT 10SM SCT080 BKN090 OVC120 20/20 A3007
KJVW 192035Z AUTO 13009KT 090V150 10SM VCTS 36/23 A2994 RMK AO2 LTG DSNT N AND NE
KJVY 192035Z AUTO 20006KT 10SM CLR 32/15 A3003 RMK AO2 T03230150
KJWG 192035Z AUTO 14015KT 10SM SCT050 32/18 A2995 RMK AO2 T03210184
KJWN 192035Z AUTO 20008KT 130V210 10SM FEW055 SCT065 31/18 A3004 RMK A01
KJWY 192035Z AUTO 05004KT 7SM OVC025 24/24 A2990 RMK AO2 T02400239
KJXI 192035Z AUTO 08010G19KT 10SM OVC023 25/20 A2990 RMK AO2 T02500198
KJXN 191956Z 15007KT 10SM CLR 26/13 A3012 RMK AO2 SLP195 T02610128
KJYL 192035Z AUTO 10005KT CLR 28/10 A3016 RMK AO2 T02830099 PWINO
KJYM 192038Z AUTO 14004KT 10SM CLR 25/11 A3012 RMK AO2 T02510113
KJYO 192035Z AUTO 14004KT 10SM CLR 23/08 A3029 RMK AO2
KJYR 192035Z AUTO 18012KT 10SM CLR 30/22 A2994 RMK AO2
KJZI 192035Z AUTO 06010KT 10SM CLR 26/15 A3016 RMK AO2
KJZP 192035Z AUTO 18009KT 10SM SCT070 25/14 A3023 RMK AO2 T02530135
KK88 192035Z AUTO 13007KT 10SM CLR 31/20 A3000 RMK AO1 T03100200
KKLS 191956Z AUTO 00000KT 10SM SCT023 18/12 A3010 RMK AO2 SLP197 T01780122
KKNB 192035Z AUTO 23016G24KT 10SM CLR 29/M05 A2988 RMK A01
KKY8 192035Z AUTO 21003KT 10SM CLR 33/17 A3003 RMK A01
KL08 192035Z AUTO 26019G28KT 10SM CLR 35/03 A2972 RMK AO2
KL18 192035Z AUTO 23008G14KT 10SM CLR 25/15 A2987 RMK AO2
KL35 192035Z AUTO 21012G16KT 10SM CLR 17/M13 A3002 RMK AO2
KL52 192035Z AUTO 29012G21KT 7SM CLR 20/14 A2989 RMK A01
KLAF 191954Z 12007KT 10SM CLR 30/14 A3006 RMK AO2 SLP174 T03000144
KLAL 191950Z 07010G17KT 10SM FEW085 31/18 A2998
KLAM 192035Z AUTO 16010G18KT 10SM CLR 24/00 A3016 RMK AO2 T02440003
KLAN 191953Z 21004KT 10SM CLR 28/11 A3012 RMK AO2 SLP193 T02780111
KLAR 192003Z AUTO 14012G20KT 10SM BKN100 24/M01 A3003 RMK AO2 WSHFT 1943 T02441011
KLAS 191956Z 23016G25KT 10SM FEW120 29/M04 A2973 RMK AO2 SLP042 OCNL VCBLDU T02941044
KLAW 191953Z 13010KT 10SM BKN039 32/21 A2993 RMK AO2 SLP121 T03170206
KLAX 191953Z 23011KT 10SM SCT019 SCT030 26/15 A2986 RMK AO2 SLP110 T02560150 $
KLBB 191953Z 12008G17KT 10SM FEW070 FEW120 SCT250 33/15 A2996 RMK AO2 SLP084 CB DSNT SE STNRY MDT CU ALQDS T03330150
KLBE 191953Z 10007KT 10SM SKC 22/10 A3024
KLBF 191953Z AUTO 18012G20KT 10SM CLR 31/17 A2990 RMK AO2 SLP100 T03060172
KLBL 191956Z AUTO 17019G23KT 10SM FEW065 SCT075 31/17 A2993 RMK AO2 LTG DSNT SE SLP103 T03110172
KLBO 192035Z AUTO 11007KT 10SM CLR 33/15 A3004 RMK AO2
KLBX 192039Z AUTO 04017G24KT 4SM +TSRA BR BKN029 BKN045 OVC060 23/22 A2989 RMK AO2 PK WND 04029/2019 LTG DSNT ALQDS TSB10 P0029 T02330222
KLCG 192035Z AUTO 13009G16KT 10SM BKN029 BKN035 OVC042 28/21 A2995 RMK AO2 T02750214
KLCH 191953Z 13005KT 10SM -RA BKN120 26/24 A2996 RMK AO2 SLP152 P0001 T02560239
KLCI 191956Z AUTO 24004KT 10SM CLR 20/04 A3028 RMK AO2 SLP255 T02000044
KLCK 192035Z AUTO 15008KT 10SM CLR 28/16 A3010 RMK AO2 T02830156
KLCQ 192035Z AUTO 05008KT 10SM SCT060 28/15 A3005 RMK AO2
KLDJ 192035Z AUTO 00000KT 10SM CLR 22/02 A3030 RMK AO2 T02160022
KLDM 192035Z AUTO 00000KT 10SM CLR 23/16 A3006 RMK AO2 T02340163
KLEB 191953Z 00000KT 10SM CLR 21/02 A3028 RMK AO2 SLP249 T02110022
KLEE 191953Z 01012KT 10SM FEW044 SCT095 30/19 A3002 RMK AO2 SLP164 T03000189
KLEW 191956Z AUTO 25005KT 10SM CLR 20/04 A3027 RMK AO2 SLP257 T02000044
KLEX 191954Z 25007KT 10SM CLR 32/16 A3009 RMK AO2 SLP179 T03170156
KLFI 191956Z 05009KT 10SM BKN050 21/12 A3028 RMK AO2A SLP260 T02120123 $
KLFK 192012Z AUTO 16014G21KT 10SM OVC013 24/22 A2990 RMK AO2 T02440217
KLFT 191953Z 20007KT 10SM SCT016 29/24 A2996 RMK AO2 LTG DSNT NW SLP144 T02890244
KLGA 191951Z 05007KT 10SM FEW250 21/00 A3030 RMK AO2 SLP261 T02060000
KLGB 191953Z 19007KT 10SM SCT024 24/15 A2987 RMK AO2 SLP114 T02390150
KLGC 192035Z AUTO 11007KT 070V150 10SM BKN050 29/13 A3013 RMK AO2 T02920133
KLGD 191956Z AUTO 29013KT 10SM CLR 17/07 A3000 RMK AO2 WSHFT 1908 SLP293 T01670072
KLGF 191958Z AUTO 25011KT 10SM CLR 34/01 A2973 RMK AO2 SLP063
KLGU 191951Z AUTO 35005KT 10SM CLR 18/03 A2982 RMK AO2 SLP063 T01830033
KLHB 192035Z AUTO 32003KT 10SM SCT050 BKN060 34/22 A2981 RMK AO2 T03360224
KLHM 192035Z AUTO 32005KT 10SM CLR 22/09 A2993 RMK AO1
KLHQ 191953Z AUTO VRB05KT 10SM CLR 28/15 A3013 RMK AO2 SLP197 T02830150
KLHW 191956Z 03007KT 10SM SCT050 28/14 A3012 RMK AO2A SLP202 T02820140 $
KLHX 192035Z AUTO 13010G19KT 10SM CLR 33/03 A2989 RMK AO2 WSHFT 2015 T03330028
KLHZ 192020Z AUTO 08006KT 10SM SCT050 22/10 A3029 RMK AO2
KLIC 191955Z AUTO 18013G23KT 10SM CLR 29/M02 A2998 RMK AO2 SLP083 T02941022
KLIT 191953Z 14009KT 10SM FEW060TCU SCT110 SCT250 34/21 A2996 RMK AO2 LTG DSNT N AND NW SLP143 CB DSNT NW MOV NW TCU W-NW AND NE T03390211
KLJF 192036Z AUTO 14004KT 10SM CLR 30/17 A2998 RMK AO2
KLKR 192035Z AUTO 06006KT 10SM CLR 26/08 A3022 RMK AO2
KLKU 192035Z AUTO 12004KT 10SM CLR 22/07 A3032 RMK AO2 T02180074
KLKV 192042Z AUTO 32012G16KT 10SM BKN027 BKN034 OVC048 12/05 A3004 RMK AO2
KLLJ 191955Z AUTO 00000KT 10SM -RA OVC065 12/04 A2993 RMK AO2 RAB50 SLP109 P0000 T01170044
KLLQ 191953Z AUTO VRB04KT 10SM FEW055 FEW075 34/19 A2996 RMK AO2 SLP140 T03440194
KLMO 192035Z AUTO 10004KT 10SM CLR 30/03 A2995 RMK AO2 T03010032
KLMT 191953Z 32011KT 10SM FEW038 BKN049 13/04 A3006 RMK AO2 SLP162 T01280044
KLNA 192035Z AUTO 05013G19KT SCT039 SCT047 BKN060 29/20 A2995 RMK AO2 T02860204 PWINO
KLNC 192035Z AUTO 07006KT 10SM SCT025 BKN048 OVC055 27/21 A2988 RMK AO2 T02720210
KLND 191953Z AUTO 18008G24KT 10SM FEW110 28/00 A2982 RMK AO2 WSHFT 1935 SLP034 T02780000
KLNK 191954Z 16014G21KT 10SM CLR 32/21 A2995 RMK AO2 SLP128 T03170206
KLNL 192035Z AUTO 24004KT 10SM SCT028 24/17 A3004 RMK AO2 T02440174
KLNN 192035Z AUTO 15007KT 10SM CLR 26/11 A3014 RMK AO1 T02600108
KLNP 192035Z AUTO 15006KT 10SM BKN023 OVC030 20/13 A3027 RMK AO2
KLNQ 192035Z AUTO 18005KT 10SM CLR 31/23 A2998 RMK AO2 T03140233
KLNR 191956Z AUTO 26003KT 10SM SCT110 23/19 A3001 RMK AO2 SLP154 T02330189 $
KLNS 191953Z 33003KT 10SM CLR 22/05 A3030 RMK AO2 SLP260 T02220050
KLOL 192026Z AUTO 23012G20KT 10SM -RA OVC041 13/05 A2997 RMK AO2 WSHFT 2006 RAB1959 P0000 T01280050
KLOM 192035Z AUTO 00000KT 10SM CLR 21/06 A3031 RMK AO2 T02070057
KLOT 192035Z AUTO 00000KT 10SM CLR 27/17 A3007 RMK AO2 T02680167
KLOU 191953Z 10SM CLR 33/16 A3005 RMK AO2 SLP170 T03280161
KLOZ 191953Z AUTO 24004KT 10SM FEW060 28/17 A3014 RMK AO2 SLP192 T02830167
KLPC 191956Z AUTO 29019KT 10SM CLR 23/12 A2991 RMK AO2 SLP129 T02330117
KLPR 191953Z AUTO 15007KT 10SM CLR 27/13 A3014 RMK AO2 SLP203 T02670128 $
KLQK 192035Z AUTO 09006KT 10SM BKN048 BKN060 24/13 A3023 RMK AO2 T02440125
KLRD 191956Z VRB04KT 10SM BKN060 37/22 A2977 RMK AO2 SLP077 T03720217
KLRF 191956Z 09006KT 10SM FEW050 BKN150 BKN210 37/26 A2997 RMK AO2A LTG DSNT W-NW SLPNO ALSTG ESTMD $
KLRJ 192035Z AUTO 15009KT 10SM CLR 28/20 A2996 RMK AO2
KLRO 192035Z AUTO VRB03G10KT 8SM FEW050 25/15 A3016 RMK AO2
KLRU 192035Z AUTO 12008KT 10SM BKN075 32/11 A2999 RMK AO2 T03180112
KLRY 192035Z AUTO 17005KT 10SM CLR 33/18 A3001 RMK AO2
KLSE 192004Z 14006KT 10SM SCT023 26/19 A3000 RMK AO2 T02610194
KLSF 191956Z AUTO 00000KT 10SM BKN060 30/16 A3010 RMK AO2 SLP196 T03030155
KLSV 191958Z AUTO 18018G28KT 10SM CLR 30/M04 A2970 RMK AO2 PK WND 19034/02 SLP034 T03011036 $
KLTS 191956Z 13011G15KT 10SM SCT050 SCT140 SCT200 32/18 A2992 RMK AO2A SLP115 T03180184 $
KLUA 192035Z AUTO 00000KT 10SM CLR 23/07 A3026 RMK AO2
KLUD 192035Z AUTO 05011KT 10SM SCT019 BKN027 BKN060 28/21 A2991 RMK AO2 T02790212
KLUF 192037Z AUTO 19014G19KT 10SM CLR 36/08 A2972 RMK AO2 WSHFT 25 SLP050
KLUG 192035Z AUTO 18007G13KT 10SM SCT050 31/18 A3008 RMK A01
KLUK 191953Z 18003KT 10SM FEW055 30/20 A3008 RMK AO2 SLP181 T03000200
KLUL 192035Z AUTO 10011G19KT 10SM SCT036 SCT041 32/24 A2998 RMK A02 T03190237
KLUM 192035Z AUTO 00000KT 10SM SCT070 25/18 A2999 RMK AO2 T02490176
KLUV 192035Z AUTO 10004KT 10SM BKN090 BKN120 33/13 A2992 RMK AO2 LTG DSNT SW
KLUX 192035Z AUTO 02004KT 10SM CLR 23/12 A3022 RMK AO2
KLVJ 192039Z AUTO 16009KT 3SM +RA BR BKN085 OVC110 23/22 A2993 RMK AO2 LTG DSNT SE-W TSB14E33 P0012 T02330217
KLVK 191953Z VRB04KT 10SM BKN050 23/10 A2994 RMK AO2 SLP137 T02330100
KLVL 192035Z AUTO 03003KT 10SM CLR 22/09 A3028 RMK AO1 T02200093
KLVM 191953Z AUTO 28005KT 10SM CLR 19/04 A2987 RMK AO2 SLP086 T01940044
KLVN 191955Z AUTO 00000KT 10SM CLR 28/19 A2999 RMK AO2
KLVS 191953Z AUTO 23015G28KT 10SM FEW100 28/01 A3013 RMK AO2 PK WND 20028/1951 SLP090 T02780011
KLWA 192037Z AUTO 30003KT 10SM CLR 26/12 A3008 RMK AO2 T02630123
KLWB 192035Z AUTO 13005KT 10SM CLR 22/09 A3027 RMK AO2 T02190091
KLWC 191952Z AUTO 16007KT 10SM FEW055 SCT070 34/21 A2996 RMK AO2 SLP136 T03390206
KLWD 191953Z AUTO 14008KT 10SM CLR 28/20 A2999 RMK AO2 RAB1858E08 SLP147 P0000 T02780200
KLWM 191954Z 00000KT 10SM CLR 21/03 A3030 RMK AO2 SLP259 T02060033
KLWS 191956Z VRB04KT 10SM FEW095 19/09 A2996 RMK AO2 SLP144 T01890094
KLWT 191954Z AUTO 34007G15KT 10SM CLR 17/06 A2989 RMK AO2 SLP103 T01720061
KLWV 191953Z AUTO VRB04KT 10SM CLR 32/16 A3004 RMK AO2 SLP169 T03170161
KLXL 192036Z AUTO 27003KT 10SM CLR 27/15 A2999 RMK AO2
KLXN 192035Z AUTO 16017G22KT 7SM CLR 32/20 A2990 RMK AO2 T03220197
KLXT 191953Z AUTO 18010KT 10SM CLR 33/21 A3000 RMK AO2 SLP146 T03280206
KLXV 191953Z AUTO 20012G21KT FEW085 18/M02 A3026 RMK AO2 SLP091 T01831022 $
KLXY 192035Z AUTO 01008KT 10SM SCT030 SCT035 OVC060 30/22 A2984 RMK AO2 LTG DSNT SE T02960221
KLYH 191954Z 01007KT 10SM BKN050 23/09 A3028 RMK AO2 SLP247 T02330089
KLYO 192035Z AUTO 14013G20KT 10SM CLR 33/18 A2993 RMK AO2 T03300185
KLYV 192035Z AUTO 16005KT 10SM CLR 27/15 A2998 RMK AO2
KLZU 191956Z 10010G14KT 10SM CLR 25/15 A3020 RMK AO2 SLP228 T02500150
KLZZ 192035Z AUTO 08008KT 10SM SCT060 35/19 A2982 RMK AO2 T03450188
KM02 192035Z AUTO VRB04G13KT 10SM SCT049 SCT060 SCT075 31/19 A3005 RMK A01
KM04 191915Z AUTO 13003G10KT 10SM BKN055 BKN060 BKN075 34/20 A3002 RMK A01
KM08 192035Z AUTO 13010KT 10SM CLR 31/22 A3002 RMK A01
KM19 191956Z AUTO 08009KT 10SM CLR 34/21 A2998 RMK AO2 SLP150 T03390211
KM21 192035Z AUTO 18007KT 10SM SCT055 32/18 A3003 RMK AO2 T03160179
KM25 192035Z AUTO 24004KT 10SM CLR 33/16 A3003 RMK AO2 PWINO
KM30 192035Z AUTO 00000KT 5SM HZ CLR 33/17 A3002 RMK AO2 T03270168
KM40 192035Z AUTO VRB05G10KT 10SM FEW030 OVC036 28/18 A3006 RMK AO2
KM54 192035Z AUTO 20008KT 10SM SCT055 BKN080 32/18 A3006 RMK A01
KM75 192035Z AUTO 25010KT 10SM CLR 20/11 A2976 RMK A01
KMAE 191953Z AUTO 30014KT 10SM CLR 25/11 A2993 RMK AO2 SLP131 T02500106
KMAF 191953Z 07010KT 10SM FEW085 36/13 A2990 RMK AO2 LTG DSNT W SLP068 T03560133
KMAI 191953Z AUTO 05012G17KT 10SM SCT055 32/17 A3005 RMK AO2 SLP173 T03170172
KMAN 192035Z AUTO 31007G13KT 10SM CLR 17/09 A2991 RMK A01
KMAO 192035Z AUTO 04008KT 10SM SCT050 24/11 A3021 RMK AO2
KMAW 192035Z AUTO 15005KT 10SM CLR 35/13 A3001 RMK AO2
KMBG 191952Z AUTO 15014G22KT 10SM CLR 27/16 A2988 RMK AO2 SLP109 T02670161
KMBL 191956Z AUTO 20005KT 10SM CLR 24/18 A3006 RMK AO2 SLP179 T02440178 PNO $
KMBO 192035Z AUTO 28005KT 5SM SCT055 30/21 A2997 RMK AO2 LTG DSNT W PWINO
KMBS 191953Z AUTO 17007KT 10SM CLR 27/11 A3012 RMK AO2 SLP197 T02670111
KMBT 192035Z AUTO 23006G14KT 10SM SCT055 BKN080 31/17 A3006 RMK A01
KMCB 191953Z AUTO 20008KT 10SM CLR 33/19 A2998 RMK AO2 SLP144 T03280194
KMCC 192040Z AUTO 33009KT 290V360 10SM 24/09 A2995 RMK AO2
KMCD 192035Z AUTO 00000KT 10SM SCT044 SCT085 SCT120 22/15 A3008 RMK AO2 T02150151
KMCE 191953Z AUTO 31012KT 10SM CLR 24/09 A2992 RMK AO2 SLP131 T02390094
KMCF 191956Z AUTO 08014KT 10SM CLR 31/18 A2996 RMK AO2 SLP148 T03080178 FZRANO $
KMCI 192016Z VRB04KT 10SM TS BKN046CB 32/22 A2998 RMK AO2 TSB13 TS NE-E MOV W T03170222 $
KMCJ 192035Z AUTO VRB03KT 2 1/2SM BR SCT002 SCT022 BKN035 23/23 A2990 RMK A01
KMCK 191953Z AUTO 16008G19KT 10SM CLR 33/18 A2988 RMK AO2 SLP094 T03280183
KMCN 191953Z 07011KT 10SM CLR 30/11 A3014 RMK AO2 SLP201 T03000111
KMCO 191953Z 05014G25KT 10SM FEW050 29/17 A3000 RMK AO2 SLP156 T02940167
KMCX 192035Z AUTO 18003KT 10SM CLR 30/14 A3005 RMK AO2 T02960139
KMDD 192035Z AUTO 00000KT 10SM CLR 35/12 A2989 RMK AO2 LTG DSNT W T03450121
KMDH 191958Z 11004KT 10SM CLR 34/16 A3003 RMK AO2 T03390156
KMDJ 192035Z AUTO 15008KT 10SM CLR 29/24 A2998 RMK A01
KMDQ 192035Z AUTO 19007KT 160V220 10SM BKN060 30/17 A3010 RMK A02 T03020171
KMDS 192035Z AUTO 13011KT 10SM CLR 26/19 A2997 RMK AO2
KMDT 191956Z VRB03KT 10SM SCT250 22/05 A3029 RMK AO2 SLP258 T02220050
KMDW 191953Z 25003KT 10SM FEW055 SCT150 BKN200 BKN250 28/16 A3006 RMK AO2 SLP170 T02830156
KMDZ 192035Z AUTO 27005KT 10SM SCT035 BKN044 BKN055 25/18 A3002 RMK AO2 T02500178
KMEB 191952Z AUTO 03010KT 10SM FEW055 25/10 A3023 RMK AO2 SLP234 T02500100
KMEH 192040Z AUTO VRB04KT 10SM FEW016 BKN042 OVC050 11/07 A3003
KMEI 191958Z 13006KT 10SM BKN030 29/22 A3003 RMK AO2 SLP164 T02940222
KMEM 192027Z VRB05KT 10SM SCT055CB BKN095 BKN150 34/19 A2998 RMK AO2 CB SE AND DSNT S T03390189 $
KMER 191945Z 30014KT 10SM SKC 26/10 A2993
KMEV 192035Z AUTO 30013G16KT 10SM FEW070 SCT085 17/00 A2999 RMK AO2 LTG DSNT N AND NE
KMEZ 192035Z AUTO 09009G15KT 10SM SCT055 SCT070 BKN110 30/21 A2998 RMK AO2
KMFD 191952Z 14007KT 090V170 10SM CLR 27/16 A3015 RMK AO2 SLP204 T02720156
KMFE 191953Z 16014G20KT 10SM SCT049 BKN065 36/23 A2979 RMK AO2 SLP087 T03560228
KMFI 191954Z AUTO 19004KT 10SM FEW024 24/18 A3003 RMK AO2 SLP162 T02440183
KMFR 191953Z 30008KT 10SM OVC044 16/09 A3008 RMK AO2 SLP182 T01610089
KMFV 192035Z AUTO 06010G14KT 10SM CLR 21/10 A3029 RMK AO2 T02090103
KMGC 192035Z AUTO 36007KT 10SM CLR 26/20 A3007 RMK AO2
KMGE 191956Z 08007KT 10SM FEW055 26/14 A3018 RMK AO2A SLP212 T02630137 $
KMGG 192036Z AUTO 00000KT 10SM 28/19 A3000 RMK AO2 T02780185
KMGJ 191954Z AUTO 00000KT 10SM CLR 21/02 A3029 RMK AO2 SLP259 T02060017
KMGM 191953Z 10008G17KT 10SM FEW055 32/18 A3007 RMK AO2 SLP180 T03220178
KMGN 192035Z AUTO 23003KT 10SM CLR 25/16 A3007 RMK AO2 T02560159
KMGR 192035Z AUTO 06007KT 027V087 10SM CLR 29/10 A3009 RMK AO2
KMGW 191953Z 13007KT 10SM CLR 26/06 A3022 RMK AO2 SLP224 T02610061
KMGY 191953Z AUTO 17006KT 10SM SCT070 29/18 A3009 RMK AO2 SLP181 T02890183
KMHE 191953Z AUTO 13010KT 10SM CLR 28/19 A2992 RMK AO2 SLP127 T02830189
KMHK 192002Z 17010KT 10SM FEW050 33/21 A2994
KMHL 192035Z AUTO 00000KT 10SM CLR 32/20 A3001 RMK AO2 TSNO PWINO
KMHR 191950Z 32008G14KT 10SM SKC 22/09 A2994
KMHS 191956Z AUTO VRB05KT 10SM SCT028 SCT055 14/08 A3004 RMK AO2 SLP182 T01390078
KMHT 191953Z 00000KT 10SM CLR 21/02 A3026 RMK AO2 SLP261 T02110017
KMHV 192020Z AUTO 31024KT 10SM CLR 22/06 A2989 RMK A01
KMIA 191953Z 07013G20KT 10SM BKN040 BKN080 29/18 A2991 RMK AO2 SLP130 T02940183
KMIB 191956Z AUTO 10015KT 10SM CLR 24/16 A2990 RMK AO2 SLP128 T02420159 $
KMIC 191953Z 04003KT 10SM CLR 29/16 A2996 RMK AO2 SLP143 T02890156
KMIE 191953Z VRB03KT 10SM CLR 30/16 A3008 RMK AO2 SLP176 T03000161
KMIO 192035Z AUTO 14010KT 10SM FEW048 33/20 A2996 RMK AO2
KMIS 192035Z AUTO VRB05KT 6SM HZ CLR 32/23 A2998 RMK A01
KMIV 191954Z AUTO 00000KT 10SM CLR 21/07 A3030 RMK AO2 SLP258 T02110067
KMIW 191953Z AUTO 14008KT 10SM SCT019 SCT026 OVC032 23/21 A3003 RMK AO2 SLP163 T02330206
KMJQ 192035Z AUTO 11005KT 10SM SCT120 27/16 A3000 RMK AO2 PWINO
KMJX 191956Z AUTO 11004KT 10SM CLR 19/09 A3032 RMK AO2 SLP269 T01940094
KMKC 192008Z 18008KT 150V210 10SM VCTS FEW055 SCT095 SCT120 34/19 A2995 RMK AO2 LTG DSNT N T03440194
KMKE 191952Z 12008KT 10SM FEW110 SCT180 BKN230 26/18 A3005 RMK AO2 SLP173 T02610183
KMKG 191955Z 21006KT 10SM BKN250 24/13 A3009 RMK AO2 SLP188 T02390128
KMKJ 192035Z AUTO 14004KT 10SM OVC029 19/14 A3031 RMK AO2 T01920135
KMKL 191953Z 17008KT 10SM SCT044 33/22 A3004 RMK AO2 SLP168 T03280217
KMKN 192035Z AUTO 06006KT 10SM SCT050 34/19 A2987 RMK AO2 T03410188
KMKO 191953Z AUTO 11008G17KT 10SM CLR 32/20 A2997 RMK AO2 SLP139 T03220200
KMKS 192035Z AUTO 06008KT 7SM CLR 26/13 A3018 RMK AO2
KMKT 191956Z AUTO 00000KT 10SM FEW036 27/19 A2999 RMK AO2 SLP152 T02720194
KMKY 191956Z AUTO 03015G18KT 10SM FEW032 BKN080 OVC100 28/21 A2994 RMK AO2 SLP137 T02830211 TSNO
KMLB 191953Z 03013G28KT 8SM -RA FEW040 BKN070 OVC080 26/20 A3000 RMK AO2 PK WND 05028/1945 RAB42 SLP158 P0000 T02610200
KMLC 191953Z AUTO 13007G17KT 10SM BKN070 32/17 A2994 RMK AO2 SLP127 T03220167
KMLE 192035Z AUTO 15009G16KT 10SM CLR 32/22 A2995 RMK AO2 T03160221
KMLF 192035Z AUTO 21022G33KT 10SM CLR 27/M07 A2979
KMLI 191952Z 11008KT 10SM CLR 25/19 A3004 RMK AO2 SLP167 T02500194
KMLJ 192035Z AUTO 10008G15KT 10SM CLR 28/12 A3016 RMK AO2
KMLP 191953Z AUTO VRB04KT 10SM FEW009 BKN043 09/05 A3000 RMK AO2 RAE1859 SLP102 P0000 T00890050
KMLS 191953Z AUTO 25007KT 10SM CLR 24/11 A2976 RMK AO2 SLP064 T02390111
KMLT 191953Z AUTO VRB04KT 10SM CLR 21/06 A3024 RMK AO2 SLP246 T02060056
KMLU 191956Z 24008KT 10SM FEW060 SCT080 SCT110 26/22 A2998
KMMH 192035Z AUTO 27013G19KT 10SM CLR 14/M09 A3000 RMK AO2 T01371089
KMMI 192035Z AUTO VRB05KT 10SM FEW050 29/15 A3015 RMK A01
KMMK 191953Z AUTO VRB03KT 10SM CLR 20/04 A3029 RMK AO2 SLP257 T02000044
KMML 191956Z AUTO VRB05KT 10SM CLR 27/17 A2998 RMK AO2 SLP148 T02720172
KMMT 191956Z 05008KT 10SM BKN250 27/06 A3020 RMK AO2A SLP228 T02660055 $
KMMU 191945Z 00000KT 10SM SKC 21/03 A3031
KMMV 191953Z AUTO 00000KT 10SM SCT023 19/12 A3009 RMK AO2 SLP188 T01890117
KMNE 192035Z AUTO 14013G19KT 10SM SCT040 29/20 A2998 RMK AO2 T02900196 PWINO
KMNH 192030Z AUTO 14011G20KT 10SM SCT100 26/00 A3008 RMK AO2
KMNI 192035Z AUTO 06007KT 10SM CLR 24/08 A3020 RMK AO2
KMNM 191956Z AUTO 23004KT 10SM -RA FEW032 SCT047 BKN110 21/19 A3003 RMK AO2 RAB11E29B49 SLP164 P0000 T02110194 $
KMNN 191953Z AUTO 13008KT 10SM CLR 28/14 A3013 RMK AO2 SLP198 T02780144
KMNV 192035Z AUTO VRB04G11KT 10SM CLR 28/15 A3014 RMK A01
KMOB 192015Z 14010G18KT 2SM TSRA BR SCT012CB BKN050 OVC100 23/23 A3005
KMOD 191953Z 35013KT 10SM CLR 23/09 A2993 RMK AO2 SLP134 T02330094
KMOP 192035Z AUTO 15004KT 10SM CLR 27/13 A3010 RMK AO2 T02710132
KMOR 192035Z AUTO 13007G13KT 10SM OVC041 25/14 A3017 RMK A01
KMOT 191954Z 10012KT 10SM FEW040 25/16 A2990 RMK AO2 SLP124 T02500161
KMOX 192037Z AUTO 17003KT 10SM CLR 28/12 A2993 RMK AO2
KMPO 191953Z AUTO VRB05KT 10SM CLR 18/01 A3031 RMK AO2 SLP269 T01830011
KMPV 191951Z AUTO 00000KT 10SM CLR 19/04 A3032 RMK AO2 SLP274 T01940044
KMQB 192035Z AUTO 05003KT 10SM CLR 28/22 A3004 RMK AO2 T02780221
KMQE 191956Z AUTO VRB03KT 18/03 A3028 RMK AO1 SLP265 T01780033
KMQI 192015Z AUTO 04019G23KT 10SM CLR 21/13 A3024 RMK AO2 T02100132
KMQJ 192035Z AUTO 13004KT 10SM CLR 30/20 A3007 RMK AO1
KMQS 192035Z AUTO 36003KT 10SM CLR 20/04 A3032 RMK AO2
KMQY 191956Z 15005KT 10SM BKN055 BKN080 31/18 A3010 RMK AO2 SLP192 T03060183
KMRB 191953Z 14009KT 10SM CLR 22/07 A3028 RMK AO2 SLP250 T02220072
KMRC 192035Z AUTO 19003G12KT 10SM SCT047 31/18 A3005 RMK A01
KMRF 191956Z AUTO 25005KT 10SM FEW070 SCT110 28/13 A3006 RMK AO2 LTG DSNT E AND SW SLP118 T02830133
KMRH 191958Z AUTO 05010KT 10SM CLR 24/13 A3019 RMK AO2 SLP224 T02440133
KMRJ 192035Z AUTO 17008KT 10SM CLR 25/22 A3002 RMK AO2
KMRN 192035Z AUTO 32003KT 10SM SCT032 BKN045 BKN050 21/11 A3031 RMK AO2 T02080108
KMRT 192037Z AUTO 18009KT 10SM CLR 29/14 A3012 RMK AO2 T02890140
KMRY 191954Z 31008KT 10SM CLR 20/11 A2998 RMK AO2 SLP164 T02000111
KMSL 191953Z AUTO 10SM SCT038 32/19 A3009 RMK AO2 SLP180 T03170194
KMSN 191953Z 16011KT 10SM BKN120 23/19 A3002 RMK AO2 SLP162 T02330194
KMSO 191953Z 01008KT 10SM SCT042 16/05 A2994 RMK AO2 SLP134 T01610050
KMSP 191953Z VRB03KT 10SM FEW250 28/16 A2998 RMK AO2 SLP147 T02780161
KMSS 191953Z AUTO 00000KT 10SM CLR 23/11 A3026 RMK AO2 SLP247 T02280111
KMSV 191956Z AUTO 00000KT 10SM CLR 20/04 A3032 RMK AO2 SLP268 T02000044
KMSY 191953Z 15006KT 10SM FEW045 BKN250 33/22 A2997 RMK AO2 SLP150 CB DSNT NE-E T03280217
KMTC 191956Z 12008KT 10SM SCT250 23/17 A3014 RMK AO2A SLP209 T02310169
KMTH 191953Z AUTO 05016KT 10SM FEW035 SCT080 SCT095 31/20 A2989 RMK AO2 SLP120 T03060200
KMTJ 191953Z AUTO 23014G23KT 10SM FEW120 28/02 A2999 RMK AO2 SLP069 T02780022
KMTK 192035Z AUTO 14009KT 10SM CLR 29/23 A2998 RMK A01
KMTN 191954Z 00000KT 10SM SKC 21/07 A3031
KMTO 191953Z AUTO 19004KT 10SM CLR 30/15 A3005 RMK AO2 SLP169 T03000150
KMTP 191954Z AUTO 00000KT 19/08 A3030 RMK AO1 SLP261 T01940083
KMTV 192040Z AUTO 00000KT 10SM BKN050 23/11 A3029 RMK AO2
KMTW 191956Z AUTO 12007KT 10SM CLR 23/19 A3004 RMK AO2 SLP171 T02280189
KMUI 191956Z 00000KT 10SM FEW250 21/04 A3030 RMK AO2A SLP263 T02120038
KMUO 191958Z AUTO 33005KT 10SM FEW100 OVC120 14/11 A2993 RMK AO2 SLP132 T01370107 $
KMUT 192035Z AUTO 11008KT 10SM CLR 25/20 A3001 RMK AO2
KMVE 192038Z AUTO 24003KT 10SM CLR 27/15 A2998 RMK AO2
KMVH 192040Z AUTO 31013G19KT 10SM CLR 19/06 A2989 RMK AO2
KMVL 191954Z AUTO 00000KT 10SM CLR 21/04 A3029 RMK AO2 SLP261 T02060044
KMVN 191956Z AUTO 01004KT 10SM CLR 32/18 A3004 RMK AO2 SLP174 T03170178
KMVY 191953Z 36010KT 10SM CLR 18/07 A3028 RMK AO2 SLP253 T01830072
KMWA 191945Z 00000KT 20SM SKC 33/18 A3004
KMWC 191945Z 16006KT 10SM SKC 26/16 A3006
KMWH 191952Z 33007KT 10SM FEW049 23/07 A2998 RMK AO2 SLP151 T02280072
KMWK 192035Z AUTO 12005KT 10SM BKN047 23/11 A3029 RMK AO2 T02260107
KMWL 191953Z AUTO VRB05KT 10SM OVC040 30/21 A2988 RMK AO2 SLP104 T03000206
KMWN 191948Z VRB02KT 100SM FEW180 10/01 RMK
KMWO 192035Z AUTO 09008KT 10SM OVC046 31/19 A3007 RMK AO2 T03060194
KMWT 191953Z AUTO 00000KT 10SM FEW095 24/23 A2997 RMK AO2 RAE17 SLP139 P0007 T02440228
KMXF 192033Z AUTO 11011G16KT 10SM -RA FEW055 32/17 A3006 RMK AO2 RAB33 SLP180
KMXO 192035Z AUTO 15006KT 10SM CLR 24/22 A3002 RMK AO2
KMYF 191953Z 25008KT 10SM CLR 23/14 A2989 RMK AO2 SLP116 T02280144
KMYJ 192035Z AUTO 23005KT 5SM HZ CLR 33/20 A3002 RMK AO2
KMYL 191951Z AUTO 36011G18KT 10SM OVC048 12/02 A2994 RMK AO2 RAE1854 SLP126 P0000 T01170022
KMYP 192029Z AUTO 10SM BKN060 BKN070 12/M04 A3052 RMK AO2
KMYR 191956Z 01011KT 10SM BKN055 25/12 A3020 RMK AO2 SLP225 T02500117
KMYV 191953Z AUTO 31009G17KT 10SM CLR 23/10 A2995 RMK AO2 SLP146 T02330100
KMYZ 192035Z AUTO 18010KT 10SM SCT041 SCT048 32/22 A2994 RMK AO2
KMZG 192035Z AUTO 24006G13KT 10SM CLR 31/27 A2986 RMK A01
KMZH 192036Z AUTO 23003KT 10SM SCT046 27/15 A2997 RMK AO2
KN03 192035Z AUTO 16005KT 10SM CLR 21/06 A3029 RMK AO2
KN38 192035Z AUTO RMK AO2 PWINO TSNO
KN60 191952Z AUTO 14015G23KT 26/12 A2989 RMK AO1 SLP117 T02560122
KNAK 191954Z AUTO 00000KT 10SM CLR 23/07 A3030 RMK AO2 SLP261 T02280067
KNBC 191956Z 03012KT 10SM CLR 28/14 A3016 RMK AO2 SLP212 T02780144
KNBG 191955Z AUTO 15006KT 10SM SCT035 BKN250 31/24 A2997 RMK AO2 SLP147 T03110239 $
KNBT 191956Z AUTO 02013G21KT 10SM FEW041 OVC065 23/12 A3021 RMK AO2 SLP233 T02330122
KNCA 191956Z 05009KT 10SM BKN060 24/11 A3020 RMK AO2 SLP228 T02440111
KNDZ 191956Z 15008G16KT 10SM SCT039 SCT050 BKN090 BKN250 30/21 A3003 RMK AO2 SLP153 T03000211 $
KNEL 192000Z AUTO 10008KT 10SM CLR 20/08 A3029 RMK AO2 SLP256 T02000083 $
KNEW 191953Z 12009KT 10SM CLR 33/19 A2997 RMK AO2 SLP143 T03280194
KNFE 191956Z AUTO 04009KT 010V080 10SM BKN050 23/11 A3027 RMK AO2 SLP252 T02280111
KNFG 191955Z 25007KT 10SM FEW030 24/15 A2987 RMK AO2 SLP113 T02390150
KNFL 191956Z 32010KT 10SM FEW040 BKN075 BKN110 16/03 A2996 RMK AO2 SLP117 T01560028
KNFW 191952Z 07007KT 10SM FEW030 SCT039 BKN046 31/21 A2989 RMK AO2 SLP104 T03110211 CHINO N VISNO N $
KNGP 191956Z 16020G25KT 10SM FEW040 BKN250 33/27 A2984 RMK AO2 SLP103 T2 SET T03330267 $
KNGU 191959Z 01010KT 10SM BKN041 21/12 A3029 RMK AO2 SLP257 T02110122
KNHK 191952Z 14008KT 10SM FEW044 FEW280 22/09 A3029 RMK AO2 SLP258 T02170094
KNID 191956Z 27009G17KT 230V300 10SM CLR 28/01 A2977 RMK AO2 SLP061 T02830006 $
KNIP 192042Z 04015G20KT 7SM -RA BKN040 BKN055 BKN250 23/21 A3009 RMK AO2 PK WND 04026/2003 RAE02B21 P0006 T02330206 $
KNJK 191956Z VRB05KT 10SM CLR 36/M02 A2972 RMK AO2 SLP078 T03561017 $
KNJM 191957Z AUTO 04011G18KT 10SM CLR 26/12 A3020 RMK AO2 SLP231 T02560117 TSNO $
KNKT 191954Z 04011KT 10SM SCT050 26/12 A3021 RMK AO2 SLP227 T02610122
KNKX 191955Z 23010KT 10SM CLR 26/14 A2988 RMK AO2 SLP111 T02610144
KNLC 191956Z 28010KT 10SM SCT038 25/08 A2992 RMK AO2 SLP131 RH/34 T02500083
KNMM 191956Z 13005KT 10SM SCT030 BKN110 BKN300 29/22 A3004 RMK AO2 SLP178 T02940217
KNOG 191956Z AUTO 22012KT SCT055 M17/ A2980 RMK AO2 SLPNO T1172 $
KNOW 192030Z AUTO 03003KT 10SM SCT120 14/13 A3008 RMK AO2 T01440127
KNOZ 191959Z AUTO 23007KT 220V280 10SM CLR 35/M04 A2974 RMK AO2 SLP021 T03501044 $
KNPA 191956Z COR 11016G23KT 10SM SCT024 BKN038 BKN100 BKN250 30/24 A3002 RMK AO2 SLP167 T2 SET T03000239
KNQA 191950Z 03005KT 10SM SCT070 35/19 A3000
KNQI 191956Z 15008G17KT 10SM SCT049 BKN060 BKN080 BKN250 37/23 A2979 RMK AO2 SLP085 T2 SET T03720228 $
KNQX 191953Z 08017G20KT 10SM FEW035 SCT050 32/19 A2989 RMK AO2 SLP118 T03170189 $
KNRB 192008Z 04019KT 7SM SCT020 BKN040 BKN250 24/21 A3008 RMK AO2 PK WND 05026/1953 RAE08 P0000 T02440206
KNRS 191956Z 19011KT 10SM FEW024 23/15 A2990 RMK AO2 SLP125 T02280150 $
KNSE 191956Z 13007KT 10SM SCT040 BKN065 BKN100 30/21 A3003 RMK AO2 SLP153 T03000206 $
KNSI 192020Z 30021KT 10SM FEW015 21/14 A2989 RMK AO2 PK WND 31026/2018 T02110139 $
KNTD 191957Z 27012KT 10SM FEW016 23/16 A2988 RMK AO2 SLP119 T02280156 VISNO N $
KNTU 191956Z 03010KT 10SM SCT038 BKN050 22/12 A3026 RMK AO2 SLP250 T02170122
KNUC 191956Z 29012KT 10SM BKN015 20/14 A2991 RMK AO2 SLP126 T02000144 $
KNUI 191953Z AUTO 00000KT 10SM CLR 23/09 A3029 RMK AO2 SLP256 T02330089
KNUQ 191956Z A2996 RMK AO2 SLP149 PWINO $
KNUW 191956Z 00000KT 9SM SCT009 SCT020 BKN100 OVC250 16/11 A3012 RMK AO2 SLP200 T01610111 $
KNXF 191956Z AUTO 23011KT 10SM CLR 24/16 A2988 RMK AO2 SLP202 T02390156
KNXP 191956Z AUTO 33007KT 10SM CLR 29/03 A2986 RMK AO2 SLP078 T02940033
KNY0 192019Z AUTO 00000KT 10SM CLR 19/03 A3030 RMK AO2
KNYC 191951Z AUTO 04004KT 10SM CLR 21/M07 A3033 RMK AO2 SLP262 T02061072 $
KNYG 191956Z 19005KT 10SM FEW050 FEW280 23/07 A3030 RMK AO2 SLP259 T02280072
KNYL 191957Z 31006KT 7SM CLR 34/01 A2973 RMK AO2 SLP064 T03440011
KNZY 191952Z 20009KT 10SM FEW024 22/16 A2988 RMK AO2 SLP119 T02220156
KO22 192035Z AUTO VRB06G12KT 10SM CLR 22/08 A2995 RMK A01
KO32 192035Z AUTO 31008KT 270V330 10SM CLR 25/09 A2991 RMK AO2
KO54 192035Z AUTO 00000KT 10SM FEW047 BKN070 19/05 A3002 RMK AO1
KO69 192035Z AUTO VRB04KT 8SM CLR 24/10 A2994 RMK A01
KO86 192030Z AUTO 03007KT 350V050 10SM 20/05 A3001 RMK AO1
KOAJ 191956Z 02006KT 10SM OVC060 24/12 A3022 RMK AO2 SLP234 T02390117
KOAK 191953Z 27008KT 10SM FEW010 FEW150 22/11 A2996 RMK AO2 SLP145 T02170111
KOBE 192035Z AUTO 04011G18KT SCT085 28/18 A2996 RMK AO2 PWINO
KOCF 191951Z 06010G16KT 10SM BKN070 BKN090 28/19 A3004 RMK AO2 SLP175 T02780189
KOCH 191956Z AUTO RMK AO2 SLPNO PWINO FZRANO RVRNO $
KOCQ 192035Z AUTO 12003KT 10SM SCT040 SCT075 BKN090 20/19 A3002 RMK AO1 T02010192
KOCW 192035Z AUTO 02009G15KT 10SM SCT060 24/11 A3024 RMK AO2 T02390113
KODO 192032Z AUTO 00000KT 10SM FEW100 FEW120 34/11 A2990 RMK AO2 LTG DSNT S-NW T03390106
KODX 191953Z AUTO 15011KT 10SM SCT034 29/21 A2992 RMK AO2 SLP121 T02940211
KOEB 192035Z AUTO 11004KT 10SM CLR 27/04 A3011 RMK AO2 T02670040
KOEL 192035Z AUTO 18015G24KT 10SM CLR 33/16 A2990 RMK AO1 T03320159
KOEO 192035Z AUTO 00000KT 10SM CLR 28/17 A3001 RMK AO2 T02800171
KOFF 191956Z 14009KT 10SM FEW050 30/20 A2999 RMK AO2A SLP137 RVRNO $
KOFK 191956Z AUTO 14011KT 10SM BKN036 28/20 A2995 RMK AO2 SLP127 T02830200
KOFP 191954Z AUTO VRB06KT 10SM FEW055 22/08 A3030 RMK AO2 SLP258 T02220078
KOGA 192035Z AUTO 15011G16KT 10SM CLR 31/15 A2988 RMK AO2 T03050145
KOGB 191953Z AUTO 08011G15KT 8SM CLR 27/07 A3018 RMK AO2 SLP218 T02720067
KOGD 191953Z 00000KT 10SM CLR 21/01 A2980 RMK AO2 SLP051 T02060011
KOGS 192035Z AUTO 23004KT 10SM CLR 23/12 A3022 RMK AO2
KOIN 192035Z AUTO 17014G18KT 10SM SCT065 34/18 A2992 RMK AO1 T03390178
KOJA 192035Z AUTO 13014KT 10SM CLR 31/19 A2994 RMK AO2
KOJC 191953Z 16010KT 10SM FEW045 32/21 A2999 RMK AO2 SLP142 T03170211
KOKB 191952Z AUTO 24011KT 10SM CLR 24/16 A2987 RMK AO2 SLP113 T02440156 $
KOKC 191952Z 11013G17KT 10SM SCT046 SCT250 29/21 A2995 RMK AO2 SLP125 T02940206
KOKK 191956Z AUTO VRB03KT 10SM CLR 29/16 A3009 RMK AO2 SLP186 T02890161
KOKM 192035Z AUTO 10008G17KT 10SM SCT046 SCT055 33/20 A2993 RMK AO2 T03250204
KOKV 192035Z AUTO 13007KT 10SM CLR 22/08 A3026 RMK AO2
KOKZ 192035Z AUTO 07008G14KT 10SM CLR 30/07 A3015 RMK AO2 T02970071
KOLE 192035Z AUTO 17007KT 10SM CLR 19/08 A3028 RMK AO2
KOLF 191953Z AUTO 11010KT 10SM CLR 26/12 A2976 RMK AO2 SLP073 T02610122
KOLG 192035Z AUTO 23005KT 10SM CLR 26/15 A2999 RMK AO1
KOLM 191954Z 22004KT 10SM CLR 18/12 A3008 RMK AO2 SLP187 T01780117
KOLS 191954Z AUTO 25012G18KT 10SM FEW085 32/09 A2997 RMK AO2 SLP076 T03170089
KOLU 191956Z AUTO 14012KT 10SM FEW037 31/21 A2995 RMK AO2 SLP129 T03060211
KOLV 191950Z 09008KT 10SM SCT065 BKN085 33/21 A3000
KOLY 192035Z AUTO 11006KT 10SM CLR 32/17 A3004 RMK AO2 T03200172
KOLZ 192035Z AUTO 20009KT 170V230 10SM CLR 26/22 A3002 RMK A01
KOMA 191952Z 17013KT 10SM FEW030 SCT250 30/21 A2996 RMK AO2 SLP134 T03000206
KOMH 192035Z AUTO 20004KT 10SM CLR 22/08 A3028 RMK AO2
KOMK 191953Z AUTO 01012KT 10SM CLR 22/07 A2997 RMK AO2 SLP149 T02170072
KOMN 191950Z 06011G18KT 7SM SCT085 29/19 A3004
KONA 192036Z AUTO 00000KT 10SM SCT024 OVC031 25/19 A3000 RMK AO2
KONL 192035Z AUTO 14010G14KT 10SM CLR 27/20 A2992 RMK AO2 T02710201
KONM 192035Z AUTO 14008G19KT 120V190 10SM CLR 31/03 A2999 RMK AO2 T03080029
KONO 191953Z AUTO VRB04KT 10SM BKN095 21/08 A2993 RMK AO2 SLP130 T02060083
KONP 192039Z AUTO 29003KT 10SM CLR 18/14 A3014 RMK AO2
KONT 191953Z 26003KT 10SM FEW055 25/12 A2986 RMK AO2 SLP099 T02500122
KONX 192035Z AUTO 03009G12KT 10SM SCT034 21/14 A3026 RMK AO2 T02130136
KONZ 192037Z AUTO 18004KT 10SM CLR 23/16 A3013 RMK AO2 T02270163
KOOA 192035Z AUTO 15008KT 7SM CLR 26/21 A3000 RMK AO2 T02560205
KOPF 191953Z 06018G24KT 10SM SCT045 SCT090 29/19 A2992 RMK AO2 RAB13E27 SLP134 P0001 T02890189
KOPL 192035Z AUTO 00000KT 10SM -RA SCT050 SCT075 BKN090 22/21 A2996 RMK AO2 LTG DSNT SW P0005 T02230209
KOPN 192035Z AUTO 08008KT 10SM CLR 28/08 A3016 RMK AO2
KOQN 192035Z AUTO 13003KT 10SM CLR 21/03 A3031 RMK AO2
KOQT 191953Z AUTO VRB03KT 10SM FEW049 29/16 A3015 RMK AO2 SLP193 T02940156
KOQU 191950Z 08005KT 10SM SKC 20/06 A3027
KORB 192035Z AUTO 00000KT 10SM SCT018 19/13 A3002 RMK AO2
KORD 191951Z 00000KT 10SM FEW075 FEW220 BKN250 27/17 A3007 RMK AO2 SLP177 T02720167
KORE 191952Z AUTO 17004KT 10SM CLR 21/M01 A3029 RMK AO2 SLP261 T02111011
KORF 191951Z 03010KT 10SM FEW037 OVC050 22/12 A3027 RMK AO2 SLP250 T02220122
KORG 192035Z AUTO 08005KT 10SM BKN044 BKN095 25/25 A2996 RMK AO2 LTG DSNT SW T02470247
KORH 191954Z 00000KT 10SM CLR 19/04 A3030 RMK AO2 SLP263 T01890044
KORL 191953Z 05014G21KT 10SM CLR 30/17 A3001 RMK AO2 SLP163 T03000167
KORS 192035Z AUTO 33003KT 10SM BKN014 15/13 A3007 RMK AO2
KOSA 192035Z AUTO 12014G18KT 10SM SCT045 30/17 A2990 RMK AO1 T02970173
KOSC 192035Z AUTO 18007KT 10SM CLR 26/11 A3011 RMK AO2 T02600114
KOSH 191953Z 16008KT 10SM SCT015 23/19 A3004 RMK AO2 SLP161 T02330194
KOSU 191953Z 13004KT 10SM CLR 28/15 A3011 RMK AO2 SLP192 T02830150
KOTG 191956Z AUTO VRB05KT 10SM CLR 27/17 A3000 RMK AO2 SLP155 T02670167
KOTH 191956Z 31006KT 10SM SCT013 18/14 A3013 RMK AO2 SLP203 T01830139
KOTM 191953Z AUTO 12011G19KT 8SM CLR 25/21 A2999 RMK AO2 RAE36 SLP147 P0000 T02500211
KOUN 191945Z 11012G18KT 10SM BKN040 31/20 A2994
KOVE 191953Z AUTO VRB03KT 10SM CLR 22/10 A2996 RMK AO2 SLP147 T02170100
KOVL 192036Z AUTO 14003KT 10SM CLR 26/16 A2998 RMK AO2
KOVS 191953Z AUTO VRB03KT 10SM CLR 27/19 A3001 RMK AO2 SLP158 T02670194
KOWA 192033Z AUTO 16004KT 10SM SCT027 SCT036 27/21 A2999 RMK AO2
KOWB 191956Z 00000KT 10SM SCT060 33/18 A3004 RMK AO2 SLP169 T03280178
KOWD 191953Z 13004KT 10SM CLR 21/04 A3028 RMK AO2 SLP253 T02110039
KOWI 192035Z AUTO 05020G26KT 5SM TS FEW050 FEW055 24/20 A2999 RMK AO2 LTG DSNT ALQDS PWINO
KOWP 192035Z AUTO 10007KT 060V130 10SM BKN046 34/21 A2995 RMK AO2 T03400210 PWINO
KOWX 192035Z AUTO 16005KT 10SM CLR 27/16 A3011 RMK AO1
KOXB 191953Z AUTO 06006KT 10SM BKN040 19/11 A3030 RMK AO2 SLP261 T01890106
KOXC 191951Z 27004KT 10SM CLR 19/03 A3031 RMK AO2 SLP276 T01940033
KOXD 192036Z AUTO 11005KT 10SM CLR 30/19 A3008 RMK AO2 T02980188
KOXI 192035Z AUTO 00000KT 10SM CLR 28/11 A3007 RMK AO1
KOXR 191951Z 25011KT 10SM FEW025 23/16 A2988 RMK AO2 SLP116 T02280156
KOXV 192035Z AUTO 00000KT 10SM CLR 25/23 A3000 RMK AO2
KOYM 191958Z AUTO 14004KT 10SM CLR 19/10 A3031 RMK AO2
KOZA 192035Z AUTO 25004KT 10SM SCT085 36/11 A2988 RMK AO2
KOZR 191956Z AUTO 08007KT 10SM FEW050 31/17 A3007 RMK AO2 SLP182 T03060173
KOZS 192035Z AUTO 11007KT 10SM CLR 33/16 A3001 RMK AO2 LTG DSNT SW AND W
KOZW 192038Z AUTO 14004KT 10SM CLR 26/10 A3012 RMK AO2 T02630104
KP08 192035Z AUTO 20015G20KT 10SM CLR 37/07 A2977 RMK AO2
KP28 191956Z AUTO 14010G17KT 32/18 A2993 RMK AO1 SLP118 T03220183
KP53 191956Z AUTO 17003KT 23/19 A3000 RMK AO1 SLP157 T02280189
KP58 191951Z AUTO 12012KT 20/14 A3012 RMK AO1 SLP197 T02000144
KP59 191951Z AUTO 34007KT 17/14 A2999 RMK AO1 SLP150 T01720144
KP60 191956Z AUTO 17/M05 A2998 RMK AO1 SLP091 T01721050
KP68 191953Z AUTO 36009KT 06/03 A3000 RMK AO1 SLP127 T00560028
KP69 191952Z AUTO 00000KT 16/12 A2998 RMK AO1 SLP146 T01560122
KP92 191953Z AUTO 30/24 A2994 RMK AO1 SLP139 T03000244
KPAE 191953Z 24004KT 10SM CLR 17/11 A3009 RMK AO2 SLP190 T01670111
KPAH 191953Z 29005KT 10SM CLR 34/17 A3002 RMK AO2 SLP161 T03390167
KPAM 191956Z AUTO 08008KT 10SM FEW060 31/18 A3002 RMK AO2 SLP169 T03120182 $
KPAN 192035Z AUTO 19013G24KT 10SM FEW080 28/04 A3002 RMK AO2
KPAO 191947Z 35007KT 10SM SCT030 21/13 A2996
KPBF 191953Z AUTO 16009KT 9SM CLR 35/18 A2995 RMK AO2 SLP140 T03500178
KPBG 191953Z AUTO 13008KT 10SM CLR 20/03 A3028 RMK AO2 SLP253 T02000028
KPBH 192035Z AUTO 23005KT 10SM CLR 25/18 A3002 RMK AO2 T02450183
KPBI 191953Z 04017G23KT 10SM SCT035 SCT043 SCT080 29/18 A2994 RMK AO2 SLP139 T02890178 $
KPBX 192035Z AUTO 09004KT 10SM BKN050 BKN060 25/15 A3018 RMK AO2 T02500149
KPCD 192035Z AUTO 10004KT 10SM CLR 33/17 A3001 RMK AO2 T03300174
KPCM 192035Z AUTO 08013G18KT 10SM SCT055 SCT085 31/19 A2999 RMK AO2
KPCW 192035Z AUTO 05010KT 10SM CLR 25/18 A3011 RMK AO2
KPCZ 192035Z AUTO 21004KT 10SM SCT020 SCT055 OVC100 25/19 A3003 RMK AO2 T02450193
KPDC 192035Z AUTO 20005KT 10SM CLR 24/18 A3001 RMK AO2 T02440184
KPDK 191953Z 09005KT 10SM CLR 26/13 A3019 RMK AO2 SLP207 T02610133
KPDT 192018Z 18004KT 10SM BKN023 BKN041 BKN049 17/11 A3001 RMK AO2 T01670111
KPDX 191953Z 30006KT 10SM SCT024 BKN041 BKN250 18/11 A3009 RMK AO2 SLP190 T01780111
KPEA 192035Z AUTO 00000KT 10SM SCT020 27/21 A3002 RMK AO2 T02650205
KPEO 191953Z AUTO VRB03KT 10SM CLR 22/11 A3027 RMK AO2 SLP249 T02170106
KPEQ 192030Z AUTO 09003KT 10SM CLR 35/12 A2987 RMK AO2 T03500115
KPEX 192035Z AUTO 14003KT 10SM CLR 27/17 A2999 RMK AO2 T02700171
KPEZ 192035Z AUTO 15009KT 10SM SCT065 38/20 A2979 RMK AO2 T03790197
KPGA 191953Z AUTO 18017G28KT 10SM CLR 31/01 A2983 RMK AO2 PK WND 19030/1906 SLP029 T03110006 TSNO
KPGD 191953Z 05015G21KT 10SM FEW060 FEW080 32/17 A2995 RMK AO2 SLP141 T03170172
KPGV 192035Z AUTO 02009KT 7SM CLR 23/12 A3025 RMK AO2
KPHD 191953Z AUTO 12008KT 10SM CLR 28/11 A3017 RMK AO2 SLP213 T02780106
KPHF 191954Z 08010KT 10SM SCT046 22/11 A3028 RMK AO2 SLP254 T02170106
KPHL 191954Z 16005KT 10SM FEW300 22/06 A3031 RMK AO2 SLP262 T02170056
KPHN 192036Z AUTO 16006KT 10SM CLR 26/14 A3014 RMK AO2
KPHP 191955Z AUTO 16012G21KT 10SM CLR 31/17 A2984 RMK AO2 SLP087 T03110167
KPHT 192035Z AUTO 17007KT 10SM SCT060 34/19 A3002 RMK A01
KPHX 191951Z 16010KT 10SM FEW110 37/09 A2973 RMK AO2 SLP045 T03720089
KPIA 191954Z 05007KT 10SM CLR 28/19 A3005 RMK AO2 SLP172 T02830189
KPIB 192024Z AUTO 11005KT 4SM VCTS HZ FEW048 SCT060 28/25 A2999 RMK AO2 LTG DSNT SE TSB14E22B24
KPIE 191953Z 04011KT 10SM SCT090 31/19 A2997 RMK AO2 SLP147 T03060194
KPIH 191953Z 00000KT 10SM SCT045 17/03 A2987 RMK AO2 SLP087 T01720028
KPIL 191953Z AUTO 16019G26KT 10SM FEW038 34/23 A2980 RMK AO2 PK WND 16027/1943 SLP091 T03390233
KPIM 192035Z AUTO 14007KT 110V170 10SM BKN050 29/13 A3014 RMK AO2 T02900134
KPIR 191953Z AUTO 12012G21KT 10SM CLR 27/19 A2987 RMK AO2 SLP104 T02720189
KPIT 191951Z 11007KT 10SM FEW060 FEW250 24/08 A3021 RMK AO2 SLP235 T02390083
KPJC 192036Z AUTO 07006KT 10SM CLR 25/08 A3021 RMK AO2
KPKB 191953Z 09007KT 10SM CLR 28/11 A3020 RMK AO2 SLP220 T02780106
KPKD 191953Z AUTO VRB03KT 10SM FEW040 26/14 A3000 RMK AO2 SLP155 T02560144
KPKV 192040Z AUTO 20016G19KT 10SM SCT033 33/26 A2983 RMK AO2 T03310256
KPLD 192035Z AUTO 09004KT 10SM SCT047 28/13 A3008 RMK AO2
KPLN 191954Z AUTO VRB03KT 10SM CLR 24/15 A3009 RMK AO2 SLP185 T02440150
KPLR 192015Z AUTO 10005G13KT 10SM FEW050 31/20 A3010 RMK A01
KPLU 192035Z AUTO 00000KT 10SM FEW044 20/12 A3008 RMK AO2
KPMD 191953Z 27010G15KT 10SM CLR 24/07 A2988 RMK AO2 SLP096 T02440072
KPMH 192035Z AUTO 17004KT 10SM CLR 29/17 A3013 RMK AO2 T02850165
KPMP 191953Z 06017G24KT 10SM FEW039 30/18 A2993 RMK AO2 SLP134 T03000183 $
KPMU 192035Z AUTO 12009G15KT 090V150 CLR 34/22 A2998 RMK AO2
KPMV 192035Z AUTO 16009KT 10SM CLR 30/22 A2996 RMK AO2 T02990215
KPNA 192035Z AUTO 16012G17KT 10SM CLR 21/M06 A2993 RMK AO2
KPNC 191953Z AUTO 15014KT 10SM CLR 32/21 A2995 RMK AO2 SLP128 T03170211
KPNE 191954Z 09004KT 10SM CLR 22/06 A3032 RMK AO2 SLP266 T02220056
KPNM 192035Z AUTO 19004KT 10SM CLR 29/17 A2998 RMK AO2
KPNS 191953Z 12015KT 10SM SCT026 SCT046 30/23 A3003 RMK AO2 SLP170 T03000233
KPNT 192035Z AUTO 00000KT 10SM CLR 30/18 A3005 RMK AO2 T02970177
KPOB 191956Z AUTO 05011KT 10SM FEW055 24/10 A3024 RMK AO2 SLP242 T02420097 $
KPOC 191947Z 25008KT 10SM FEW040 23/13 A2988
KPOE 192039Z AUTO 17006KT 9SM OVC110 24/22 A2996 RMK AO2 LTG DSNT SW RAE39 SLP145
KPOF 191953Z AUTO 16005KT 10SM CLR 33/17 A3001 RMK AO2 SLP156 T03330172
KPOU 191953Z 00000KT 10SM CLR 22/00 A3029 RMK AO2 SLP253 T02170000
KPOV 192038Z AUTO 11008KT 10SM CLR 25/10 A3018 RMK AO2 T02530104 PWINO
KPOY 192035Z AUTO 35012G18KT 10SM CLR 19/01 A2984 RMK AO2
KPPA 192035Z AUTO 05008KT 7SM RA OVC075 23/19 A2999 RMK AO2 LTG DSNT NW THRU E T02280188
KPPF 191952Z AUTO VRB06KT 10SM FEW050 FEW060 33/22 A2999 RMK AO2 SLP143 T03280222
KPPO 192035Z AUTO 00000KT 10SM CLR 29/13 A3008 RMK AO2 T02890132
KPPQ 192035Z AUTO 17005KT 10SM CLR 32/22 A3002 RMK AO2 T03240218
KPQI 191956Z AUTO 21006KT 10SM CLR 21/07 A3021 RMK AO2 SLP257 T02060072
KPQN 192036Z AUTO 19006KT 10SM CLR 27/18 A2999 RMK AO2
KPRB 191953Z AUTO VRB03KT 10SM CLR 24/08 A2992 RMK AO2 SLP125 T02440078 $
KPRC 191953Z 21018G26KT 10SM CLR 27/02 A2999 RMK AO2 PK WND 22026/1951 SLP068 T02670022
KPRG 192035Z AUTO 19003KT 10SM SCT055 31/17 A3005 RMK AO2 T03100173
KPRN 191956Z AUTO 13010KT 080V170 10SM CLR 32/16 A3006 RMK AO2 SLP171 T03220161
KPRO 192035Z AUTO 13005KT 10SM SCT070 27/19 A2999 RMK AO2 T02690188
KPRS 192035Z AUTO 22004KT 10SM CLR 32/14 A2992 RMK AO2 T03230141
KPRX 191956Z AUTO 13014KT 10SM BKN037 OVC046 28/21 A2993 RMK AO2 SLP141 T02830211
KPSC 191953Z VRB03KT 10SM CLR 21/08 A3000 RMK AO2 SLP156 T02110078
KPSF 191954Z AUTO VRB04KT 10SM CLR 21/06 A3029 RMK AO2 SLP246 T02060056
KPSK 192035Z AUTO 15004KT 10SM SCT042 21/11 A3029 RMK AO2 T02140113
KPSM 191956Z 15008KT 10SM CLR 18/04 A3026 RMK AO2A SLP250 T01840042
KPSN 192035Z AUTO 08004KT 10SM SCT036 OVC049 26/24 A2987 RMK AO2 T02690244
KPSO 192035Z AUTO 23007KT 10SM BKN110 22/02 A3019 RMK AO2 LTG DSNT E T02180021
KPSP 191953Z 36012G19KT 10SM CLR 34/04 A2973 RMK AO2 SLP065 T03440044
KPSX 191853Z AUTO 17016G26KT 10SM CLR 33/26 A2986 RMK AO2 PK WND 17026/1844 LTG DSNT N SLP109 T03280261
KPTB 192035Z AUTO 07003KT 10SM CLR 23/07 A3028 RMK AO2 T02260069
KPTD 192035Z AUTO 22005KT 10SM CLR 22/11 A3026 RMK AO2
KPTK 191953Z 14007KT 10SM FEW130 SCT230 25/13 A3013 RMK AO2 SLP197 T02500133
KPTN 191956Z AUTO 16006KT 10SM CLR 31/24 A2996 RMK AO2 SLP147 T03110239
KPTS 192035Z AUTO 21006KT 10SM BKN050 BKN065 BKN085 32/22 A2997 RMK AO2 T03200217
KPTT 192035Z AUTO 14015G21KT 10SM CLR 33/17 A2995 RMK AO2 T03260165
KPTV 191956Z AUTO RMK AO2 SLPNO PWINO FZRANO $
KPTW 191954Z AUTO 00000KT 10SM CLR 21/04 A3032 RMK AO2 SLP265 T02060044
KPUB 191953Z 16009KT 10SM CLR 32/04 A2992 RMK AO2 SLP066 T03220039
KPUC 191953Z AUTO 19017G29KT 10SM CLR 26/M04 A2989 RMK AO2 PK WND 15031/1926 SLP050 T02561039
KPUJ 192035Z AUTO 10008KT 10SM CLR 27/12 A3017 RMK AO2
KPUW 191953Z AUTO 30009KT 270V330 10SM SCT037 SCT048 BKN055 18/07 A3000 RMK AO2 SLP155 T01780072
KPVB 192035Z AUTO 15007KT 10SM SCT110 24/22 A3002 RMK AO1 T02350216
KPVC 191956Z AUTO 36008KT 10SM CLR 17/08 A3030 RMK AO2 SLP260 T01670078 PNO $
KPVD 191951Z 08007KT 10SM FEW055 21/06 A3028 RMK AO2 SLP255 T02060056
KPVE 192035Z AUTO VRB06KT 10SM FEW041 FEW047 31/21 A3004 RMK A01
KPVF 192035Z AUTO 34006KT 10SM CLR 18/06 A2999 RMK AO1
KPVG 191956Z AUTO VRB06KT 10SM BKN049 20/12 A3028 RMK AO2 SLP255 T02000122
KPVJ 192035Z AUTO 13011G14KT 10SM SCT043 BKN060 30/19 A2992 RMK AO2 T03030189
KPVU 192022Z 25009KT 10SM FEW090 26/06 A2976 RMK AO2
KPVW 192035Z AUTO 14010G18KT 10SM SCT065 BKN080 31/15 A2995 RMK AO2 T03120145
KPWA 191953Z 13009G20KT 10SM FEW046 31/20 A2995 RMK AO2 SLP123 T03110200
KPWC 192036Z AUTO 01003KT 10SM SCT044 24/16 A3003 RMK AO2
KPWG 191956Z AUTO VRB04KT 10SM BKN050 33/21 A2985 RMK AO2 SLP100 T03330206 $
KPWK 191952Z VRB03KT 10SM CLR 28/17 A3008 RMK AO2 SLP181 T02830172
KPWM 191951Z 17009KT 10SM CLR 18/05 A3028 RMK AO2 SLP252 T01780050
KPWT 191956Z AUTO VRB04KT 10SM CLR 18/12 A3009 RMK AO2 SLP206 T01780122
KPXE 192035Z AUTO 09010KT 10SM CLR 29/12 A3013 RMK AO2 T02920122
KPYM 191952Z AUTO 06005KT 10SM CLR 17/09 A3030 RMK AO2 SLP259 T01720089
KPYX 192035Z AUTO 17009G15KT 10SM CLR 30/18 A2995 RMK AO2 T03000175
KPZQ 192035Z AUTO 08004KT 10SM CLR 23/16 A3010 RMK AO2 T02290157
KPZZ 192035Z AUTO 11015KT 10SM FEW026 29/23 A2995 RMK A01
KQAZ 191956Z AUTO 00000KT 9999 CLR 33/04 A2990 RMK AO2 SLP135 WND DATA ESTMD T03290036
KQBN 191955Z AUTO 03005KT 10SM BKN047 18/04 A3003 RMK AO2 SLP165 WND DATA ESTMD T01830044
KQBQ 191955Z VRB01KT 10SM CLR 33/16 A3005 RMK A20A SLP170 WND DATA ESTMD
KQD3 191956Z AUTO 08004KT 9999 CLR 31/26 A2972 RMK AO2 SLP048 WND DATA ESTMD T03140260
KQDG 191956Z AUTO 18005KT 9999 CLR M M RMK AO2 SLPNO $
KQEI 192040Z AUTO 11001KT 9999 BKN008 BKN1100 13/12 A3008 RMK A02 TSNO
KQEJ 192040Z AUTO 14001KT 9999 OVC200 15/14 / RMK A02 TSNO
KQEL 192040Z AUTO 02001KT / // OVC200 12/12 A3014 RMK A02 TSNO
KQEN 192040Z AUTO 25001KT 9999 BKN1100 14/15 / RMK A02 TSNO
KQEP 192040Z AUTO 02001KT 4800 OVC200 14/13 A3005 RMK A02 TSNO
KQEQ 192040Z AUTO 04003KT 9999 BKN200 13/10 A3007 RMK A02 TSNO
KQER 192040Z AUTO 11001KT 9999 BKN200 12/11 A3003 RMK A02 TSNO
KQES 192040Z AUTO 03001KT 9999 CLR 19/11 A3006 RMK A02 TSNO
KQEV 192040Z AUTO 35001KT 9999 FEW1100 BKN230 15/14 A2999 RMK A02 TSNO
KQEW 192040Z AUTO 26001KT 9999 BKN1100 BKN250 15/15 A3003 RMK A02 TSNO
KQEX 192040Z AUTO 36003KT 9999 BKN1100 BKN250 17/18 A2996 RMK A02 TSNO
KQEY 192040Z AUTO 21001KT 9999 BKN190 BKN240 15/14 A2974 RMK A02 TSNO
KQFB 192040Z AUTO 30002KT 6000 FEW004 SCT210 BKN240 13/13 A3009 RMK A02 TSNO
KQFT 192040Z AUTO 02003KT 9999 OVC1100 15/13 A3003 RMK A02 TSNO
KQFU 192040Z AUTO 14001KT 9999 OVC200 14/12 A3008 RMK A02 TSNO
KQFV 192040Z AUTO 09001KT 9999 // OVC1100 11/12 / RMK A02 TSNO
KQFW 192040Z AUTO 20001KT 9999 OVC200 13/14 A3007 RMK A02 TSNO
KQFX 192040Z AUTO 30001KT 9999 BKN1100 14/15 A3002 RMK A02 TSNO
KQN3 191956Z 17009G15KT 030V210 9999 SCT040 SCT100 30/22 A2992 RMK AO2A LTG DSNT SE-S PRESRR SLPNO WND DATA ESTMD T02970220
KQRH 191956Z AUTO VRB03KT M /// /// CLR 31/27 A2975 RMK AO2 SLP061 WND DATA ESTMD T03110274 $
KQVF 191956Z AUTO 17008G12KT 9999 FEW019 SCT049 26/22 A2999 RMK AO2 SLP158 WND DATA ESTMD T02580220
KQWX 191955Z AUTO 02002G12KT 12SM CLR 30/21 A3001 RMK AO2 SLP141 WND DATA ESTMD T03030209
KRAC 191953Z AUTO 17007KT 10SM CLR 26/18 A3008 RMK AO2 SLP182 T02610178
KRAL 191953Z VRB04KT 10SM CLR 26/12 A2986 RMK AO2 SLP095 T02560122
KRAP 191952Z 16013G21KT 10SM CLR 28/13 A2986 RMK AO2 SLP089 T02780133
KRAS 192035Z AUTO 15013KT 10SM CLR 31/26 A2985 RMK AO2 T03130264
KRAW 192015Z AUTO 16005KT 10SM CLR A3001 RMK AO2 LTG DSNT S
KRBD 192034Z 08005KT 10SM SCT027 BKN045 OVC060 26/22 A2987 RMK AO2 RAB01E15 P0000 T02560217
KRBG 191953Z AUTO 35007KT 10SM FEW030 SCT049 19/10 A3010 RMK AO2 SLP191 T01940100
KRBL 191954Z AUTO 03014G18KT 10SM CLR 24/07 A2995 RMK AO2 SLP139 T02440072
KRBO 192035Z AUTO 14016KT 10SM SCT041 SCT055 SCT095 35/24 A2980 RMK AO2 T03540241
KRBW 192035Z AUTO 02007KT 10SM SCT055 26/12 A3017 RMK AO2
KRCA 191956Z 16016G21KT 10SM CLR 29/12 A2985 RMK AO2A SLP087 T02880123 $
KRCE 192035Z AUTO 14011G17KT 10SM CLR 30/20 A2993 RMK AO2
KRCM 192035Z AUTO 17006KT 10SM CLR 32/20 A3000 RMK AO2
KRCR 192035Z AUTO 15004KT 10SM CLR 29/11 A3008 RMK AO2
KRCV 192035Z AUTO 24015G22KT 10SM CLR 24/00 A3017 RMK AO2 T02381001
KRCX 192035Z AUTO 30004KT 10SM CLR 27/18 A3003 RMK AO2 T02670182
KRCZ 192035Z AUTO 06005KT 10SM CLR 25/02 A3022 RMK AO2 T02480024
KRDD 191953Z VRB03KT 10SM FEW065 23/06 A2994 RMK AO2 SLP134 T02330061
KRDG 191954Z 24004KT 10SM CLR 22/07 A3029 RMK AO2 SLP262 T02170067
KRDK 192035Z AUTO 17010KT 10SM CLR 31/21 A2996 RMK AO2
KRDM 192003Z 35008KT 10SM BKN032 17/07 A3005 RMK AO2 T01720072
KRDR 191956Z 14003KT 10SM CLR 23/16 A3000 RMK AO2A SLP163 T02250160 $
KRDU 191951Z 08007KT 10SM SCT055 SCT250 23/08 A3026 RMK AO2 SLP243 T02330083
KREG 192035Z AUTO 14007KT 10SM SCT060 33/23 A2994 RMK AO2 T03300230
KREO 192019Z AUTO 33013KT 13/03 A2995
KRFD 191954Z 12005KT 7SM -RA FEW047 SCT070 OVC095 21/19 A3009 RMK AO2 LTG DSNT S TSB25E44 SLP186 P0007 T02060194
KRFI 192035Z AUTO 09006KT 2 1/2SM OVC008 23/22 A2989 RMK AO2 P0007 T02270220
KRGA 192035Z AUTO 21007KT 10SM BKN055 BKN065 BKN090 32/17 A3009 RMK AO2
KRGK 192041Z AUTO 14005KT 10SM SCT032 SCT042 26/16 A2997 RMK AO2
KRHI 191953Z AUTO 20006KT 10SM CLR 23/17 A3004 RMK AO2 SLP166 T02330172
KRHP 192035Z AUTO 09004KT 10SM BKN043 OVC070 26/16 A3020 RMK AO2 T02550155
KRHV 191947Z 25005KT 10SM FEW020 23/11 A2995
KRIC 191954Z VRB05KT 10SM SCT050 SCT300 24/08 A3028 RMK AO2 SLP257 T02390083
KRID 192035Z AUTO 16004KT 10SM SCT048 28/18 A3010 RMK AO2
KRIL 191953Z AUTO 10SM BKN110 28/00 A2994 RMK AO2 SLP066 T02780000 $
KRIV 191958Z AUTO 12004KT 10SM CLR 25/09 A2986 RMK AO2 SLP102 T02520091
KRIW 191953Z AUTO 20011G20KT 10SM CLR 27/00 A2982 RMK AO2 SLP038 T02670000 TSNO
KRKD 191956Z AUTO 17010KT 10SM CLR 16/06 A3027 RMK AO2 SLP250 T01560061
KRKP 191953Z AUTO 16011G20KT 9SM CLR 34/25 A2984 RMK AO2 SLP106 T03390250
KRKR 192035Z AUTO 35008KT 10SM BKN065 BKN080 BKN100 31/21 A2992 RMK AO2
KRKS 191954Z AUTO 19022G31KT 10SM FEW100 24/M01 A2992 RMK AO2 PK WND 19038/1917 SLP047 T02391011
KRKW 192035Z AUTO 22008KT 10SM BKN046 26/15 A3016 RMK A01
KRLD 192035Z AUTO 00000KT 10SM BKN050 OVC090 22/08 A2998 RMK AO2 T02230083
KRME 191953Z 03004KT 10SM CLR 22/09 A3028 RMK AO2 SLP253 T02220089
KRMG 191953Z AUTO 12010KT 10SM CLR 30/14 A3014 RMK AO2 SLP196 T03000139
KRMN 192035Z AUTO 09005KT 10SM CLR 23/06 A3033 RMK AO2 T02260060
KRMY 192035Z AUTO 00000KT 10SM CLR 28/09 A3010 RMK AO2 T02770088
KRNC 192035Z AUTO VRB05KT 10SM SCT060 BKN070 BKN080 30/16 A3011 RMK A01
KRND 191956Z AUTO 17008KT 10SM CLR 36/20 A2982 RMK AO2 SLP088 T03630197 $
KRNH 192035Z AUTO 00000KT 10SM CLR 28/15 A2999 RMK AO2 T02800151
KRNM 191953Z 25011KT 10SM CLR 26/11 A2988 RMK AO2 SLP107 T02610111
KRNO 191955Z 35012KT 10SM SCT040 BKN060 BKN130 BKN200 12/02 A3001 RMK AO2 SLP140 ACSL DSNT NW SH VC NE AND SW T01220022
KRNP 192039Z AUTO 16005KT 10SM CLR 27/14 A3011 RMK AO2 T02720142
KRNT 191953Z VRB05KT 10SM OVC039 18/11 A3008 RMK AO2 SLP191 T01830111 $
KRNV 192035Z AUTO 13009G15KT 10SM SCT065 SCT090 34/20 A2993 RMK AO2 T03410198
KROA 191954Z VRB05KT 10SM BKN049 22/10 A3029 RMK AO2 SLP250 T02220100
KROC 191954Z 24005KT 10SM SCT250 24/08 A3025 RMK AO2 SLP246 T02440078
KROG 191958Z 09008KT 10SM FEW043 30/21 A3003 RMK AO2 LTG DSNT NE SLP151 T03000206
KROS 192036Z AUTO 26003KT 10SM CLR 27/15 A2998 RMK AO2 T02720153
KROW 191951Z 16013G18KT 10SM SCT110 35/11 A2994 RMK AO2 LTG DSNT NW SLP060 T03500106
KRPD 192035Z AUTO 35003KT 10SM CLR 28/17 A3000 RMK AO2 T02800166
KRPH 192035Z AUTO 04007KT 360V070 10SM SCT037 30/20 A2987 RMK AO2 T03030203
KRPJ 192035Z AUTO 10005KT 7SM SCT039 SCT070 BKN110 21/21 A3006 RMK AO2 P0001 T02100208
KRQB 192036Z AUTO 19006KT 10SM CLR 25/15 A3009 RMK AO2 T02530153
KRQE 191953Z AUTO 21015G22KT 10SM BKN080 BKN100 A3011 RMK AO2 SLPNO
KRQO 192035Z AUTO 14014G20KT 10SM SCT041 32/19 A2995 RMK AO2 T03160195
KRRL 192035Z AUTO 19004KT 10SM SCT024 BKN034 24/19 A3004 RMK AO2 T02430190 TSNO
KRRT 192036Z AUTO 10007KT 10SM CLR 17/14 A3004 RMK AO2
KRSL 191953Z AUTO 16014G24KT 10SM CLR 33/18 A2991 RMK AO2 SLP108 T03330183
KRSN 192035Z AUTO 00000KT 7SM -RA SCT010 SCT026 BKN050 23/21 A3004 RMK AO2 P0017 T02250207
KRST 191954Z 19006KT 10SM BKN016 OVC022 24/20 A3002 RMK AO2 SLP161 T02440200
KRSV 192035Z AUTO 20006KT 10SM CLR 30/18 A3005 RMK AO2 T03040184
KRSW 191953Z 09007KT 10SM FEW049 SCT065 OVC080 26/21 A2994 RMK AO2 RAB33E48 SLP136 P0000 T02610206
KRTN 191953Z AUTO 16018G23KT 10SM FEW100 29/02 A3006 RMK AO2 PK WND 17027/1923 SLP088 T02940017
KRTS 192035Z AUTO 31011G17KT 10SM BKN029 OVC034 10/03 A3004 RMK AO2
KRUE 191953Z AUTO 11007KT 10SM CLR 32/21 A2996 RMK AO2 SLP136 T03220206
KRUG 192035Z AUTO 10011G17KT 10SM CLR 22/17 A2995 RMK AO2
KRUQ 192035Z AUTO 00000KT 10SM CLR 23/09 A3024 RMK AO2 T02330089
KRUT 191956Z AUTO 31005KT 10SM CLR 20/07 A3029 RMK AO2 SLP255 T02000067 $
KRVL 192035Z AUTO 18005KT 10SM CLR 23/09 A3027 RMK AO2
KRVS 191953Z 12009KT 10SM FEW046 32/21 A2995 RMK AO2 SLP145 T03220211
KRWF 191953Z AUTO 14005KT 10SM CLR 27/17 A2998 RMK AO2 SLP149 T02720172
KRWI 191953Z AUTO 04006KT 10SM SCT050 23/12 A3025 RMK AO2 SLP244 T02330117
KRWL 191953Z AUTO 21023G29KT 10SM CLR 26/M04 A2998 RMK AO2 PK WND 21033/1921 SLP056 T02611039 $
KRWV 192035Z AUTO 05003KT 10SM SCT034 SCT044 32/24 A2982 RMK AO2 LTG DSNT SE AND S T03170235
KRXE 191953Z AUTO 00000KT 10SM CLR 16/03 A2987 RMK AO2 SLP092 T01610033
KRYM 191956Z AUTO 00000KT 10SM FEW046 27/16 A3000 RMK AO2 SLP159 T02680155 $
KRYN 191945Z 25010G18KT 10SM CLR 36/07 A2986
KRYV 192035Z AUTO 24003KT 10SM OVC110 22/21 A3003 RMK AO2 T02200206
KRYW 192035Z AUTO 24006KT 10SM SCT120 29/21 A2986 RMK AO2 LTG DSNT SE AND S T02870205
KRYY 191950Z VRB03KT 10SM CLR 26/14 A3019 RMK AO2 SLP942 T02610139 $
KRZL 192035Z AUTO 00000KT 10SM CLR 28/13 A3006 RMK AO2
KRZN 192035Z AUTO 16005KT 10SM SCT043 28/16 A3000 RMK AO2 T02750156
KRZR 192035Z AUTO 22011KT 10SM OVC060 30/14 A3013 RMK A01
KRZT 192036Z AUTO 11007KT 10SM CLR 28/15 A3011 RMK AO2
KS25 192035Z AUTO 13019G26KT 10SM CLR 27/14 A2980 RMK AO2
KS32 192035Z AUTO VRB06G13KT 10SM CLR 24/18 A2999 RMK AO2
KS33 192035Z AUTO 04005KT 10SM SCT040 SCT050 BKN070 17/07 A3006 RMK AO2
KS39 192035Z AUTO 30010KT 10SM FEW034 SCT044 16/07 A3004 RMK AO2
KS52 192035Z AUTO 34005KT 10SM CLR 22/05 A2995 RMK AO2 T02180050
KSAA 192035Z AUTO 19012G23KT 10SM CLR 25/M04 A3000 RMK AO2
KSAC 191953Z 32010KT 10SM CLR 24/10 A2995 RMK AO2 SLP141 T02390100
KSAD 191951Z AUTO 33008KT 10SM CLR 34/06 A2988 RMK AO2 SLP058 T03440061
KSAF 191953Z 23009G17KT 10SM CLR 28/02 A3011 RMK AO2 SLP096 T02830022
KSAN 191951Z 21009G19KT 10SM FEW025 23/16 A2990 RMK AO2 SLP124 T02280156
KSAR 192035Z AUTO 00000KT 10SM CLR 32/18 A3003 RMK AO2 T03240183
KSAT 191951Z 15011KT 10SM FEW065 FEW250 36/20 A2982 RMK AO2 SLP078 CB DSNT NW-NE MOVG SE T03610200
KSAV 191953Z 05012G16KT 10SM SCT050 SCT200 28/15 A3014 RMK AO2 SLP206 T02780150
KSAW 192000Z 28005KT 10SM SCT011 22/18 A3001
KSAZ 192038Z AUTO 00000KT 10SM SCT050 26/13 A2999 RMK AO2
KSBA 191953Z 22010KT 10SM SCT040 24/15 A2988 RMK AO2 SLP117 T02390150
KSBD 191947Z 28005KT 6SM FEW010 27/09 A2987
KSBM 191953Z AUTO 15007KT 10SM CLR 24/19 A3005 RMK AO2 SLP172 T02440189
KSBN 191954Z VRB03KT 10SM CLR 29/11 A3008 RMK AO2 SLP182 T02940111
KSBO 192035Z AUTO 07011G16KT 040V120 10SM CLR 30/07 A3015 RMK AO2
KSBP 191956Z 31017KT 10SM CLR 22/12 A2992 RMK AO2 SLP129 T02220117
KSBS 192035Z AUTO 14012G17KT 10SM SCT110 25/00 A3000 RMK AO1 T02540004
KSBY 191954Z 07010KT 10SM BKN046 22/09 A3029 RMK AO2 SLP259 T02170089
KSCD 192035Z AUTO 16007KT 10SM SCT050 BKN110 30/15 A3010 RMK AO2 T03020149
KSCF 192035Z AUTO 11010KT 5SM HZ SCT020 BKN025 BKN030 28/25 A2996 RMK A01
KSCH 191945Z 00000KT 10SM CLR 22/04 A3029
KSCK 191955Z 34011G15KT 10SM CLR 24/10 A2993 RMK AO2 SLP136 T02440100
KSCR 192035Z AUTO 00000KT 10SM CLR 23/09 A3025 RMK AO2 T02330087
KSCX 192035Z AUTO 16006KT 10SM BKN048 BKN055 27/16 A3014 RMK A01
KSDA 192035Z AUTO 16010G17KT 10SM CLR 31/20 A2995 RMK AO2
KSDB 191953Z AUTO 33012G20KT 10SM CLR 17/07 A2999 RMK AO2 SLP114 T01720067 $
KSDC 192035Z AUTO 14004KT 10SM CLR 22/08 A3025 RMK AO2
KSDF 191956Z 11003KT 10SM BKN065 BKN250 32/16 A3005 RMK AO2 SLP169 T03170156
KSDL 191953Z 19008G15KT 10SM CLR 36/08 A2978 RMK AO2 SLP055 T03560078
KSDM 191953Z 27010KT 10SM CLR 23/15 A2988 RMK AO2 SLP116 T02330150
KSDY 191956Z AUTO 15015G20KT 10SM CLR 27/14 A2977 RMK AO2 SLP476 T02670144
KSEA 191953Z 27004KT 10SM SCT035 BKN180 18/11 A3009 RMK AO2 SLP195 T01830106
KSEE 191947Z 23005KT 10SM SKC 26/14 A2987
KSEF 192035Z AUTO 06018KT 10SM SCT048 SCT070 OVC090 29/19 A2998 RMK AO2 T02880188
KSEG 191953Z AUTO VRB04KT 10SM CLR 22/08 A3029 RMK AO2 SLP257 T02170083
KSEM 192035Z AUTO VRB06G16KT 10SM 32/17 A3004 RMK AO2
KSEP 192035Z AUTO 01006KT 10SM SCT039 31/19 A2991 RMK AO2 T03130190
KSEQ 191958Z AUTO 21009G16KT 10SM FEW065 37/20 A2984 RMK AO2 LTG DSNT N SLP099 T03660198 $
KSET 191954Z AUTO A3001 RMK AO2 SLPNO PWINO $
KSEZ 192035Z AUTO 20017G26KT 10SM CLR 28/03 A2996 RMK AO2
KSFB 191953Z 05011G20KT 10SM FEW085 29/17 A3001 RMK AO2 SLP161 T02940172
KSFF 191953Z 00000KT 10SM OVC011 13/09 A3001 RMK AO2 SLP161 T01280089
KSFM 191756Z AUTO VRB03KT 10SM CLR 20/04 A3031 RMK AO2 SLP268 6//// T02000039 10200 20072 56016
KSFO 191956Z 03004KT 10SM FEW035 22/12 A2995 RMK AO2 SLP143 T02170122
KSFQ 192035Z AUTO 04008KT 10SM BKN050 22/13 A3028 RMK AO2 T02190126
KSFY 192035Z AUTO 14008KT 10SM CLR 23/20 A3002 RMK AO2 P0001
KSFZ 191956Z AUTO 35004KT 10SM CLR 19/05 A3029 RMK AO2 SLP205 T01940050
KSGF 192019Z 31004KT 10SM -RA FEW060 SCT100 OVC120 28/21 A3000 RMK AO2 WSHFT 1945 LTG DSNT N AND NW P0011 T02830206
KSGH 191956Z AUTO 16009KT 10SM FEW044 BKN065 29/19 A3011 RMK AO2 SLP190 T02890189
KSGJ 191956Z 01018G25KT 10SM SCT027 BKN070 24/ A3008 RMK AO2 SLPNO T0242 $
KSGR 192040Z 15011G20KT 1SM VCTS +RA BR FEW006 BKN032 OVC090 23/23 A2990 RMK AO2 LTG DSNT SE-SW TSE1955B21E36 P0034 T02330228
KSGS 192036Z AUTO 00000KT 10SM CLR 27/17 A2997 RMK AO2 T02720166
KSGT 191956Z AUTO 16003KT 10SM CLR 33/22 A2998 RMK AO2 SLP149 T03330217
KSGU 191956Z AUTO 21023G31KT 9SM CLR 31/M06 A2976 RMK AO2 PK WND 22034/1941 SLP040 T03061056
KSHD 192035Z AUTO 14005KT 10SM CLR 22/09 A3029 RMK AO2 T02200090
KSHL 192035Z AUTO 14005G10KT 10SM CLR 28/19 A2997 RMK AO2
KSHN 191953Z AUTO 25009KT 10SM CLR 18/13 A3006 RMK AO2 SLP180 T01830133
KSHR 191953Z AUTO 31011KT 10SM CLR 23/07 A2982 RMK AO2 SLP077 T02280072
KSHV 191956Z 14016G25KT 10SM OVC027 27/21 A2994 RMK AO2 PK WND 15030/1926 SLP134 T02670206
KSIF 192035Z AUTO 00000KT 10SM SCT050 23/10 A3026 RMK AO2 T02280096
KSIK 192035Z AUTO 08004KT 10SM CLR 35/16 A3001 RMK AO2
KSIY 191953Z AUTO 01008KT 10SM OVC055 17/07 A3007 RMK AO2 SLP184 T01720067
KSJC 191953Z 31005KT 10SM FEW050 22/10 A2995 RMK AO2 SLP141 T02220100
KSJN 192008Z AUTO 11013G24KT 7SM RA OVC090 23/08 A3003 RMK AO2 WSHFT 1948 RAB02 P0001 T02330078
KSJS 192035Z AUTO 14006KT 10SM BKN043 OVC050 26/16 A3017 RMK AO2 T02630155
KSJT 191951Z VRB04KT 10SM CLR 38/11 A2986 RMK AO2 SLP080 T03830111
KSJX 192038Z AUTO 21006KT 170V230 10SM CLR 22/17 A3006 RMK AO2 T02170166
KSKA 192028Z AUTO 03004KT 10SM BKN018 15/13 A2999 RMK AO2 SLP158 $
KSKF 191956Z 15008KT 10SM FEW060 FEW250 37/20 A2980 RMK AO2A SLP075 T03670204 $
KSKX 191956Z AUTO 22012G18KT 10SM CLR 26/02 A3017 RMK AO2 WSHFT 1939 SLP158 T02560022
KSLB 192035Z AUTO 14007KT 10SM CLR 26/19 A2996 RMK AO2
KSLC 191954Z 35011G16KT 10SM FEW110 FEW150 FEW220 23/04 A2977 RMK AO2 SLP031 ACSL DSNT NW T02280039
KSLE 191956Z 27005KT 10SM BKN028 18/11 A3009 RMK AO2 SLP188 T01830106
KSLG 192027Z AUTO VRB03KT 10SM VCTS CLR 31/21 A3000 RMK AO2 LTG DSNT N AND NE TSB21
KSLH 192037Z AUTO 02005KT 10SM CLR 22/16 A3007 RMK AO2 T02200158
KSLI 191958Z 20009G16KT 10SM SCT026 25/14 A2986 RMK AO2A SLP114 T02480143
KSLK 191951Z AUTO 22005KT 10SM CLR 20/03 A3027 RMK AO2 SLP260 T02000033
KSLN 191953Z 17010G19KT 10SM FEW060 33/19 A2994 RMK AO2 SLP123 T03280189
KSLO 192035Z AUTO 01003KT 10SM CLR 32/16 A3004 RMK AO2 T03200164
KSLR 192035Z AUTO 11006KT 10SM OVC024 27/21 A2992 RMK AO2 T02680208
KSME 192035Z AUTO 15003KT 10SM BKN050 OVC070 27/12 A3013 RMK AO2
KSMF 191953Z 34007KT 10SM FEW250 22/11 A2995 RMK AO2 SLP140 T02220106
KSMN 191856Z AUTO 00000KT 10SM OVC075 13/06 A2994 RMK AO2 SLP135 T01280056 PNO $
KSMO 191951Z 23007KT 10SM CLR 23/16 A2987 RMK AO2 SLP112 T02330161
KSMP 192019Z AUTO VRB04KT 10SM SCT013 BKN027 10/08 A3008
KSMQ 191953Z AUTO 19003KT 10SM CLR 21/04 A3029 RMK AO2 SLP256 T02110044
KSMS 192035Z AUTO 02009G14KT 350V050 10SM CLR 26/08 A3020 RMK AO2
KSMX 191951Z 30019KT 10SM CLR 23/12 A2991 RMK AO2 RAE1852 SLP128 T02330117
KSNA 191953Z 21013KT 10SM SCT025 25/16 A2987 RMK AO2 SLP113 T02500156
KSNC 192035Z AUTO 32004KT 10SM 21/04 A3029 RMK AO2
KSNH 192035Z AUTO 21008KT 10SM BKN032 31/21 A3005 RMK A01
KSNK 192035Z AUTO 06008G15KT 030V090 10SM SCT070 34/16 A2990 RMK AO2 T03430161
KSNL 192035Z AUTO 14010KT 10SM SCT060 32/19 A2993 RMK AO2 T03200187
KSNS 191953Z 29011KT 10SM CLR 22/11 A2995 RMK AO2 SLP151 T02170111
KSNT 191951Z AUTO 07004KT 10/02 A2996 RMK AO1 SLP092 T01000022
KSNY 191953Z AUTO 13009G16KT 10SM CLR 27/14 A2995 RMK AO2 SLP096 T02720144
KSOA 192035Z AUTO 21008KT 10SM CLR 37/13 A2988 RMK AO2
KSOP 191956Z AUTO 05009KT 10SM CLR 24/08 A3024 RMK AO2 SLP243 T02440078
KSOW 192035Z AUTO 20021G26KT 10SM CLR 26/03 A3010 RMK AO2
KSPA 192035Z AUTO 07008KT 030V120 10SM BKN049 23/11 A3023 RMK AO2
KSPB 191953Z AUTO 00000KT 10SM SCT025 BKN035 18/12 A3008 RMK AO2 SLP186 T01830122
KSPD 191956Z AUTO 20013G26KT 33/07 A2994 RMK AO1 PK WND 17026/1949 SLP066 T03280072
KSPF 192035Z AUTO 08011KT 10SM CLR 30/13 A2983 RMK AO2
KSPG 191953Z 06013KT 10SM CLR 30/20 A2995 RMK AO2 SLP142 T03000200
KSPI 191952Z 16004KT 10SM CLR 31/19 A3003 RMK AO2 SLP166 T03060194
KSPS 192017Z 10014KT 10SM BKN032 30/21 A2990
KSPW 191953Z AUTO 15006KT 10SM CLR 28/18 A2999 RMK AO2 SLP148 T02830183
KSQI 191956Z 07008KT 10SM FEW004 22/21 A3006 RMK AO2 LTG DSNT E TSE12RAE39 SLP042 P0000 T02220211
KSQL 191947Z 36005KT 10SM FEW030 20/12 A2997
KSRB 192035Z AUTO 16006KT 10SM BKN050 BKN065 29/17 A3011 RMK A01
KSRC 191956Z AUTO 14011KT 10SM CLR 36/22 A2996 RMK AO2 SLP146 T03610217
KSRE 192035Z AUTO 10013KT 10SM SCT055 SCT065 32/18 A2993 RMK AO2
KSRQ 191953Z 05012G18KT 10SM FEW055 BKN080 31/18 A2994 RMK AO2 SLP136 T03060178
KSRR 192035Z AUTO 12009KT 10SM BKN080 BKN100 24/06 A3018 RMK AO2 LTG DSNT W AND NW
KSSC 191956Z AUTO 03011KT 10SM CLR 26/06 A3020 RMK AO2 SLP227 T02630063 $
KSSF 191955Z 12008KT 10SM FEW060 38/20 A2979 RMK AO2 T03830200
KSSI 191953Z AUTO 03017G24KT 10SM FEW029 FEW040 SCT070 27/18 A3011 RMK AO2 SLP199 T02670178
KSTC 191953Z 18004KT 10SM CLR 27/15 A2998 RMK AO2 SLP156 T02720150
KSTE 192035Z AUTO 15005KT 10SM SCT022 SCT030 SCT035 21/18 A3004 RMK AO2 T02140184
KSTF 192035Z AUTO 13007KT 112V182 OVC030 28/21 A3004 RMK AO2 PWINO
KSTJ 191953Z 10011KT 10SM CLR 31/22 A2998 RMK AO2 SLP143 T03110217 $
KSTK 192030Z AUTO 07005KT 10SM CLR 28/16 A2989 RMK AO2
KSTL 191951Z VRB03KT 10SM SCT050 BKN250 32/18 A3003 RMK AO2 SLP158 T03170183 $
KSTP 191953Z 00000KT 10SM CLR 28/17 A2998 RMK AO2 SLP147 T02830172
KSTS 191953Z COR 00000KT 10SM SCT060 24/09 A2995 RMK AO2 SLP135 T02390089
KSUA 191947Z 08016G23KT 7SM VCSH SCT022 BKN034 28/19 A2997
KSUE 191956Z AUTO 30003KT 10SM FEW006 BKN120 23/19 A3005 RMK AO2 SLP172 P0002 T02280194
KSUN 191955Z 15005KT 10SM -RA SCT030 SCT040 OVC090 10/05 A2996
KSUS 191954Z 00000KT 10SM CLR 33/21 A3001 RMK AO2 SLP153 T03280206
KSUT 192035Z AUTO 06004KT 10SM SCT047 BKN060 23/13 A3020 RMK AO2 T02340128
KSUU 191958Z AUTO 03009KT 10SM CLR 26/09 A2995 RMK AO2 SLP149 T02600085 $
KSUW 192035Z AUTO 00000KT 10SM CLR 27/17 A2996 RMK AO2 T02720170
KSUX 191952Z 14009G15KT 10SM CLR 27/20 A2996 RMK AO2 SLP138 T02720200
KSUZ 192035Z AUTO 11008KT 10SM FEW065 FEW085 34/19 A2995 RMK A01
KSVC 192035Z AUTO 19012G20KT 10SM CLR 29/09 A3005 RMK AO2 LTG DSNT N T02860092
KSVE 192035Z AUTO 20004KT 10SM BKN040 13/04 A3001 RMK AO2
KSVH 192035Z AUTO 06004KT 10SM SCT048 23/11 A3025 RMK AO2 T02320108
KSVN 191956Z AUTO 06010G15KT 10SM CLR 27/15 A3012 RMK AO2 SLP202 T02690146 $
KSWF 191945Z 25005KT 20SM SKC 21/04 A3030
KSWO 191953Z 12012KT 10SM SCT042 31/20 A2995 RMK AO2 SLP127 T03110200
KSWW 192035Z AUTO 00000KT 10SM CLR 34/13 A2992 RMK AO2 T03360132
KSXK 192035Z AUTO 14008KT 10SM CLR 27/19 A2997 RMK AO2
KSXS 191958Z AUTO 13011KT 10SM BKN060 31/17 A3006 RMK AO2 SLP177 T03070168
KSXT 192040Z AUTO VRB04KT 10SM SCT005 SCT012 OVC023 10/09 A3011 RMK AO2 T01000089
KSYF 192035Z AUTO 14012G17KT 10SM CLR 33/09 A2988 RMK AO2 T03320090 PWINO
KSYI 192035Z AUTO 23006G11KT 10SM FEW050 31/17 A3009 RMK A01
KSYM 192040Z AUTO 08007KT 050V130 10SM CLR 28/18 A3013 RMK AO2
KSYN 192036Z AUTO 17004KT 10SM BKN034 27/19 A2997 RMK AO2 T02680190
KSYR 191954Z 04006KT 10SM FEW200 SCT250 23/11 A3026 RMK AO2 SLP245 T02280111
KSZL 191956Z 18007KT 10SM FEW050 SCT150 33/21 A2997 RMK AO2A SLP142 T03270209 $
KSZT 192035Z AUTO 21006KT 10SM SCT039 BKN075 17/08 A2996 RMK AO2
KSZY 192035Z AUTO 13007KT 10SM FEW030 29/21 A3005 RMK A01
KT20 192035Z AUTO 21009G17KT 180V240 10SM CLR 38/22 A2978 RMK AO2 LTG DSNT E T03800215
KT35 192035Z AUTO 04003KT 10SM SCT055 SCT065 BKN080 35/22 A2981 RMK AO2 T03460218
KT70 191958Z AUTO 17005G15KT 10SM FEW070 38/19 A2974 RMK AO2 SLP055 T03780185 $
KT82 192035Z AUTO 00000KT 10SM -RA BKN070 OVC100 27/21 A2987 RMK AO2 P0001 T02660205
KTAD 192032Z AUTO 22006KT 10SM BKN110 30/01 A2999 RMK AO2 PK WND 18032/2020 WSHFT 2012 T03000011
KTAN 191952Z AUTO 00000KT 10SM CLR 21/07 A3027 RMK AO2 SLP252 T02060072
KTAZ 192038Z AUTO 00000KT 10SM CLR 30/18 A3004 RMK AO2
KTBN 191956Z AUTO 13007KT 8SM FEW065 FEW130 SCT190 33/16 A3004 RMK AO2 SLP163 T03260156
KTBR 192035Z AUTO 05003KT 10SM CLR 28/08 A3014 RMK AO2 T02810081
KTBX 191830Z AUTO 10SM CLR 17/M01 A3005 RMK AO2
KTCC 192015Z AUTO 19015G21KT 10SM VCTS CLR 35/11 A2991 RMK AO2 LTG DSNT W T03500106
KTCL 191953Z 16007KT 10SM OVC047 33/20 A3005 RMK AO2 SLP175 T03280200
KTCM 191958Z AUTO 31005KT 10SM FEW210 19/14 A3009 RMK AO2 SLP193 T01870140 $
KTCS 191953Z AUTO 17009G16KT 10SM CLR 31/08 A3000 RMK AO2 SLP068 T03110078 TSNO
KTCY 192035Z AUTO 36009KT 10SM CLR 24/08 A2994 RMK A01
KTDF 192035Z AUTO 06005KT 10SM CLR 23/04 A3027 RMK AO2
KTDR 191956Z AUTO 12007KT 10SM FEW050 SCT060 32/19 A3004 RMK AO2 SLP176 T03200186 $
KTDZ 191953Z AUTO VRB05KT 10SM CLR 28/16 A3012 RMK AO2 SLP197 T02780161
KTEB 191951Z VRB03KT 10SM CLR 22/02 A3029 RMK AO2 SLP257 T02170017
KTEW 192038Z AUTO 17004KT 10SM CLR 27/11 A3011 RMK AO2 T02650109
KTEX 192035Z AUTO 15010G22KT 130V200 10SM BKN100 OVC120 17/00 A3025 RMK AO2
KTFP 192035Z AUTO 17017G22KT 10SM SCT021 33/26 A2982 RMK AO2 T03330264 PNO
KTGI 192042Z AUTO 33004KT 10SM SCT046 21/11 A3029 RMK AO1
KTHA 192035Z AUTO VRB06KT 10SM BKN049 BKN060 OVC070 29/16 A3010 RMK A01
KTHV 191953Z AUTO VRB03KT 10SM CLR 22/04 A3030 RMK AO2 SLP260 T02220039
KTIF 192035Z AUTO 15014G24KT 10SM CLR 30/19 A2991 RMK AO2 T03000191
KTIK 191956Z AUTO 12009KT 10SM FEW043 FEW050 31/20 A2995 RMK AO2 SLP134 T03070197
KTIP 192035Z AUTO 28004KT 10SM CLR 31/11 A3005 RMK AO2 T03090111
KTIW 191953Z 22003KT 10SM SCT008 16/12 A3009 RMK AO2 SLP191 T01610122
KTIX 191948Z 06015G19KT 7SM SCT045 31/18 A3001
KTKC 191959Z AUTO 11005KT 10SM CLR 28/17 A2999 RMK AO2
KTKI 192033Z 07008G17KT 6SM -RA SCT021 BKN026 OVC046 25/21 A2989 RMK AO2 RAE10B29 P0000 T02500206
KTKV 192035Z AUTO 00000KT 10SM BKN031 BKN038 24/18 A3003 RMK AO2 T02400182
KTKX 192035Z AUTO 06006KT 10SM 35/18 A2998 RMK AO2
KTLH 191953Z 04009KT 10SM SCT055 31/17 A3005 RMK AO2 SLPNO T03060172
KTMA 192035Z AUTO 08008KT 10SM CLR A3010 RMK AO2
KTMB 191953Z AUTO 08018G22KT 10SM FEW048 BKN080 31/21 A2990 RMK AO2 SLP122 T03060206 $
KTME 192035Z AUTO 17010KT 10SM OVC100 25/23 A2989 RMK AO2
KTMK 192035Z AUTO 31003KT 10SM SCT001 SCT021 SCT027 19/13 A3012 RMK AO2
KTMT 192035Z AUTO 31012G17KT 10SM TS SCT070 BKN080 BKN095 15/M03 A2996 RMK AO2 LTG DSNT N AND NE T01461031
KTNB 192035Z AUTO 00000KT 10SM OVC014 14/10 A3032 RMK AO2 T01410104
KTNU 192035Z AUTO 00000KT 10SM SCT022 SCT090 25/22 A3000 RMK AO2 PWINO
KTOA 191947Z 11010G18KT 10SM FEW018 SCT025 24/16 A2986
KTOB 192040Z AUTO 00000KT 10SM SCT025 26/19 A3000 RMK AO2
KTOC 192035Z AUTO 06009KT 10SM BKN045 24/12 A3023 RMK AO2 T02440118
KTOI 191953Z AUTO 07008KT 10SM SCT055 30/18 A3009 RMK AO2 SLP183 T03000183
KTOL 191952Z 11005KT 10SM CLR 28/16 A3011 RMK AO2 SLP192 T02830156
KTOP 191953Z 18007G15KT 10SM FEW055 SCT075 34/21 A2996 RMK AO2 SLP134 T03390206
KTOR 191953Z AUTO 12012G20KT 10SM CLR 30/12 A2988 RMK AO2 SLP071 T03000117
KTPA 191953Z 02013G19KT 10SM SCT055 SCT085 31/18 A2998 RMK AO2 SLP150 T03060183 $
KTPF 192035Z AUTO 04011G15KT 10SM SCT060 BKN095 BKN110 32/20 A2997 RMK AO2
KTPH 191956Z AUTO 24009G26KT 210V280 10SM SCT046 BKN060 OVC100 15/M04 A2993 RMK AO2 PK WND 26026/1951 SLP087 T01501039
KTPL 191951Z AUTO 35008KT 9SM BKN055 34/21 A2984 RMK AO2 SLP094 T03440211
KTQE 191954Z AUTO 13007KT 10SM CLR 27/21 A2996 RMK AO2 SLP132 T02720211
KTQH 192035Z AUTO 12005KT 10SM 32/20 A2997 RMK AO2
KTQK 192035Z AUTO 15013G22KT 10SM CLR 34/15 A2988 RMK AO1 T03360148
KTRI 191953Z 13004KT 10SM OVC035 22/13 A3023 RMK AO2 SLP217 T02170128
KTRK 191945Z 01005KT 10SM SCT018 BKN048 BKN060 09/04 A3004
KTRL 191953Z AUTO 07008KT 10SM BKN020 OVC029 27/21 A2989 RMK AO2 SLP113 T02670211
KTRM 191952Z AUTO 27003KT 10SM CLR 34/04 A2968 RMK AO2 SLP054 T03440044
KTSP 192035Z AUTO 31015G21KT 9SM FEW036 15/07 A2998 RMK AO2
KTTA 191655Z AUTO 03008KT 010V070 10SM SCT050 22/09 A3028 RMK AO2 T02210088
KTTD 191953Z VRB03KT 10SM FEW023 OVC045 18/11 A3009 RMK AO2 SLP188 T01830111
KTTF 192040Z AUTO 07005KT 10SM CLR 25/15 A3011 RMK AO2 T02460151
KTTN 191953Z 24004KT 10SM CLR 20/04 A3030 RMK AO2 SLP255 T02000044
KTTS 192000Z 07014G20KT 10SM FEW041 SCT080 SCT170 28/20 RMK SLPNO
KTUL 191953Z 14008KT 10SM SCT045 BKN250 32/22 A2995 RMK AO2 SLP132 T03170217
KTUP 191953Z 14008KT 10SM OVC032 29/21 A3006 RMK AO2 SLP176 T02890206
KTUS 191953Z VRB03KT 10SM CLR 34/08 A2987 RMK AO2 SLP062 T03440078
KTVC 191953Z 26009KT 10SM FEW160 BKN250 28/16 A3005 RMK AO2 SLP171 T02830156
KTVF 191956Z AUTO 00000KT 10SM CLR 23/14 A3002 RMK AO2 SLP164 T02330144
KTVI 192035Z AUTO 07012G18KT 10SM CLR 30/12 A3009 RMK AO2
KTVK 192035Z AUTO 14005KT 10SM CLR 27/24 A3001 RMK AO2
KTVL 191953Z AUTO 05005KT 10SM -RA OVC043 10/01 A3002 RMK AO2 RAB43 SLP136 P0000 T01000006
KTVR 191953Z AUTO 16009KT 10SM CLR 35/21 A2996 RMK AO2 SLP150 T03500206
KTVY 192035Z AUTO 36010G15KT 10SM CLR 21/06 A2979 RMK AO2
KTWM 191555Z AUTO 00000KT 10SM CLR 23/14 A2999 RMK AO2
KTXK 191953Z 16011G18KT 10SM SCT060 32/17 A2993 RMK AO2 PK WND 16026/1900 SLP130 T03170167
KTXW 192035Z AUTO 17016G22KT 10SM SCT045 SCT050 SCT065 33/23 A2979 RMK AO2 T03330233
KTYL 192035Z AUTO 22022G28KT 10SM CLR 27/04 A3006 RMK AO2
KTYQ 192035Z AUTO 00000KT 10SM CLR 28/17 A3007 RMK AO2 T02810174
KTYR 191953Z 10009KT 3SM BR BKN010 OVC016 26/22 A2988 RMK AO2 CIG 007V014 SLP110 T02610222
KTYS 191953Z 23007KT 10SM SCT050 SCT250 28/15 A3014 RMK AO2 SLP196 T02830150
KTZR 191950Z 18010KT 10SM SKC 27/17 A3013
KU42 192035Z AUTO 34019KT 10SM CLR 22/07 A2978 RMK AO1 T02160068
KU68 192035Z AUTO 04004KT 10SM CLR 22/ A2980 RMK AO2
KUAO 192018Z VRB03KT 10SM FEW024 OVC033 18/11 A3011 RMK AO2 T01830111
KUBE 192035Z AUTO 00000KT 10SM CLR 26/15 A3000 RMK AO2
KUCP 191956Z AUTO VRB05KT 10SM CLR 25/11 A3022 RMK AO2 SLP246 T02500111 PNO $
KUCY 192035Z AUTO 00000KT 10SM SCT060 34/19 A2999 RMK A01
KUDG 191956Z AUTO 02008KT 10SM CLR 26/11 A3022 RMK AO2 SLP235 T02560111
KUES 191945Z 15008KT 10SM SKC 23/17 A3007
KUGN 191955Z 10004KT 10SM CLR 25/17 A3007 RMK AO2 SLP173 T02500172
KUIL 191953Z AUTO 11003KT 10SM BKN020 17/12 A3009 RMK AO2 SLP188 T01670122 $
KUIN 192034Z AUTO 30009KT 4SM -TSRA FEW065 BKN090 OVC110 28/22 A3001 RMK AO2 LTG DSNT SW-NW RAB15 TSB28 P0000 T02830222
KUKF 192035Z AUTO 00000KT 10SM OVC042 19/12 A3032 RMK AO2
KUKI 191956Z AUTO 00000KT 10SM CLR 22/08 A2997 RMK AO2 SLP143 T02220083
KUKT 192040Z AUTO 23004KT 10SM CLR 21/04 A3030 RMK A01
KULM 192035Z AUTO 00000KT 10SM CLR 28/16 A2997 RMK AO2
KUNI 192035Z AUTO 13003KT 10SM CLR 29/12 A3012 RMK AO2 T02900116
KUNO 191953Z AUTO 15006KT 10SM CLR 33/17 A3006 RMK AO2 SLP163 T03280167
KUNU 192035Z AUTO 00000KT 10SM SCT020 OVC120 23/19 A3007 RMK AO2 T02250188 TSNO
KUNV 191953Z 18006KT 10SM SKC 20/09 A3029
KUOX 192035Z AUTO 14012KT 110V170 10SM FEW034 31/21 A3003 RMK AO2
KUSE 192035Z AUTO VRB05KT 9SM 27/17 A3011 RMK AO2
KUTA 192035Z AUTO 11007KT 10SM 32/21 A2997 RMK AO2 TSNO
KUTS 192037Z AUTO 15006KT 10SM SCT009 BKN012 OVC041 26/23 A2987 RMK AO2 RAB08E30 P0000 T02560233
KUUU 191953Z AUTO 36004KT 10SM CLR 20/08 A3028 RMK AO2 SLP251 T02000078
KUVA 192035Z AUTO 13006KT 10SM SCT070 SCT100 36/19 A2980 RMK AO2 T03550191
KUXL 192035Z AUTO 36003KT 10SM -RA SCT045 SCT070 OVC100 25/24 A2996 RMK AO2 LTG DSNT SW T02460240
KUYF 192035Z AUTO 12008KT 10SM BKN060 28/15 A3011 RMK AO2
KUZA 191954Z AUTO VRB05KT 10SM CLR 26/08 A3024 RMK AO2 SLP230 T02560078
KVAD 191956Z AUTO 06009KT 10SM CLR 30/14 A3008 RMK AO2 SLP186 T02950141 $
KVAF 192035Z AUTO 17012KT 10SM CLR 30/24 A2991 RMK A01
KVAY 191954Z AUTO 05003KT 10SM CLR 21/08 A3030 RMK AO2 SLP259 T02110083
KVBG 191958Z 35019G23KT 10SM FEW010 FEW020 20/14 A2994 RMK AO2A SLP140 T01980138 $
KVBT 192007Z AUTO 22013G19KT 8SM VCTS RA CLR 24/19 A3004 RMK AO2 WSHFT 1953 LTG DSNT NE TSB06 PNO $
KVBW 192035Z AUTO 17003KT 10SM CLR 21/09 A3027 RMK AO1 T02130090
KVCB 191953Z AUTO 02009G15KT 10SM CLR 26/09 A2996 RMK AO2 SLP144 T02560089
KVCT 191951Z 17015KT 10SM FEW040 SCT047 SCT060 34/24 A2983 RMK AO2 SLP097 T03390244
KVCV 191945Z 27008G15KT 10SM SKC A2989
KVDF 192035Z AUTO 04004KT 10SM SCT065 BKN075 29/20 A2998 RMK AO2
KVDI 192035Z AUTO 07011G15KT 10SM CLR 29/07 A3013 RMK AO2
KVEL 191953Z AUTO 22010G16KT 10SM CLR 27/M01 A2985 RMK AO2 PK WND 22028/1930 SLP047 T02721011
KVES 192035Z AUTO 15005KT 5SM HZ SCT047 BKN060 30/12 A3008 RMK AO2
KVGT 191953Z 22019G26KT 10SM CLR 30/M03 A2970 RMK AO2 PK WND 20026/1859 SLP050 T03001033
KVIH 191953Z AUTO 14005KT 10SM CLR 32/18 A3005 RMK AO2 SLP161 T03220178
KVIS 191956Z AUTO 29009KT 10SM 24/12 A2992 RMK AO2 SLP138 T02440117 $
KVJI 192035Z AUTO 15003KT 10SM OVC041 21/13 A3025 RMK AO2 T02050127
KVKS 192035Z AUTO 18007KT 10SM CLR 34/20 A2994 RMK A01
KVKY 192035Z AUTO 12009KT 10SM CLR 28/21 A3000 RMK A01
KVLD 191953Z VRB06KT 10SM FEW060 30/14 A3008 RMK AO2 SLP191 T03000139
KVLL 192035Z AUTO 12005KT 10SM CLR 27/15 A3014 RMK AO2 T02660152
KVNC 192035Z AUTO 05018G24KT 10SM CLR 32/17 A2994 RMK AO2
KVNW 192035Z AUTO 16005KT CLR 28/17 A3010 RMK AO2 PWINO
KVNY 191951Z 16006KT 10SM BKN041 26/14 A2985 RMK AO2 SLP101 T02560139 $
KVOA 192035Z AUTO 12023KT 8SM 29/24 A3001 RMK A01
KVOK 191956Z 13005KT 10SM BKN024 BKN180 24/20 A3003 RMK AO2A SLP168
KVPC 191953Z AUTO 12008KT 10SM CLR 29/14 A3017 RMK AO2 SLP202 T02890139
KVPS 191956Z AUTO 13011KT 10SM CLR 32/19 A3003 RMK AO2 SLP175 T03170193 $
KVPZ 191956Z AUTO 10SM CLR 31/12 A3008 RMK AO2 SLP179 T03060117
KVQQ 191950Z 03012KT 10SM BKN036 28/19 A3008
KVQT 192035Z AUTO 14011KT 10SM SCT019 SCT028 SCT037 30/25 A2995 RMK A01
KVRB 191953Z 04014G21KT 10SM FEW036 SCT044 BKN080 29/18 A2998 RMK AO2 SLP150 T02940183
KVSF 191954Z AUTO 11003KT 10SM CLR 21/02 A3028 RMK AO2 SLP256 T02060017
KVTA 191954Z AUTO 16006KT 10SM CLR 28/14 A3013 RMK AO2 SLP197 T02830144
KVTI 192035Z AUTO 14008KT 10SM CLR 26/20 A3002 RMK AO2 T02580201
KVTN 191952Z AUTO 14011KT 10SM CLR 27/19 A2991 RMK AO2 SLP112 T02720189
KVTP 192035Z AUTO 23005G16KT 10SM SCT065 BKN095 16/00 A3034 RMK AO2
KVUJ 192035Z AUTO 02006KT 10SM CLR 25/09 A3027 RMK AO2 T02460090
KVUO 191953Z AUTO 30006KT 10SM SCT031 18/11 A3009 RMK AO2 SLP189 T01780111
KVVV 192036Z AUTO 15006KT 10SM CLR 27/15 A2996 RMK AO2
KVWU 192035Z AUTO 28003KT 10SM CLR 21/16 A3002 RMK AO2
KVYS 192035Z AUTO 09004KT 10SM SCT110 26/19 A3005 RMK AO2 T02640194
KW13 192035Z AUTO 12003KT 10SM CLR 21/10 A3029 RMK AO1 T02080102
KW22 192035Z AUTO VRB05KT 10SM CLR 26/08 A3020 RMK AO2
KW29 192020Z AUTO 36005KT 10SM CLR 20/08 A3030 RMK AO2
KW31 192035Z AUTO 00000KT 10SM CLR 22/09 A3027 RMK AO1 T02220088
KW43 192035Z AUTO 16014KT 10SM CLR 30/05 A2985 RMK AO2
KW63 192035Z AUTO 10006KT 10SM CLR 23/08 A3025 RMK AO1
KW75 192035Z AUTO 05003KT 10SM CLR 20/10 A3029 RMK AO1 T02030095
KW78 192035Z AUTO 00000KT 10SM CLR 24/05 A3026 RMK AO1 T02380051
KW81 192035Z AUTO 00000KT 10SM CLR 22/04 A3027 RMK AO1 T02170038
KW96 192035Z AUTO 05005KT 10SM SCT050 22/09 A3028 RMK AO1 T02200093
KW99 192035Z AUTO 00000KT 10SM CLR 24/09 A3023 RMK AO2 T02380090
KWAL 191954Z 06012KT 10SM CLR 20/11 A3030 RMK AO2 SLP256 T02000111
KWBF 192035Z AUTO 12007KT 10SM FEW025 FEW031 30/24 A2995 RMK A01
KWDG 191945Z 12015KT 10SM FEW050 SCT130 BKN200 32/20 A2993
KWDR 192035Z AUTO 10003KT 10SM CLR 26/12 A3023 RMK AO2
KWHP 191950Z 11005KT 10SM SKC 24/12 A2989
KWJF 191956Z 28019G25KT 10SM CLR 25/04 A2988 RMK AO2 SLP103 T02500044
KWLD 191954Z AUTO 16013KT 10SM CLR 32/20 A2997 RMK AO2 SLP135 T03220200
KWMC 191956Z AUTO 31011KT 10SM CLR 12/06 A2995 RMK AO2 SLP123 T01220056
KWRB 191956Z 11007KT 10SM CLR 29/11 A3013 RMK AO2A SLP203 T02920113 $
KWRI 191956Z AUTO 10005KT 10SM CLR 22/06 A3029 RMK AO2 SLP257 T02170056 $
KWRL 191953Z AUTO 03012KT 10SM CLR 23/06 A2977 RMK AO2 SLP054 T02330061
KWST 191953Z AUTO 22005KT 10SM CLR 19/10 A3030 RMK AO2 SLP260 T01940100
KWVL 191956Z AUTO VRB05KT 10SM CLR 19/04 A3024 RMK AO2 SLP267 T01940044
KWWD 191956Z AUTO 05004KT 10SM FEW037 20/11 A3031 RMK AO2 SLP267 T02000106
KWWR 192035Z AUTO 15010G19KT 10SM SCT050 31/17 A2997 RMK AO2
KWYS 192025Z AUTO 22015G22KT 190V250 10SM CLR 17/M02 A2990 RMK AO2
KX07 192035Z AUTO 06014G20KT 10SM CLR 30/19 A3000 RMK A01
KX26 192035Z AUTO 05024G30KT 10SM SCT029 SCT042 OVC065 26/20 A3000 RMK AO2 PWINO TSNO T02600198
KX60 192035Z AUTO 06009KT 10SM SCT043 SCT050 BKN090 29/19 A3003 RMK AO2 T02880191
KXBP 192035Z AUTO 08007KT 10SM OVC060 29/20 A2991 RMK AO2 T02900201
KXER 192035Z AUTO 12011KT 10SM CLR 29/23 A2997 RMK A01
KXIH 192035Z AUTO VRB05G13KT 2SM BR SCT010 BKN018 OVC044 26/24 A2991 RMK A01
KXLL 192035Z AUTO 00000KT 10SM CLR 21/03 A3031 RMK AO2
KXMR 191956Z AUTO 07011G18KT 10SM FEW041 SCT060 BKN080 28/22 A3000 RMK AO2 SLPNO T02760216 $
KXNA 192027Z 00000KT 10SM VCTS -RA FEW047 SCT075 BKN095 28/18 A3001 RMK AO2 WSHFT 1946 LTG DSNT N AND NE TSB06E21 P0000 T02830183
KXNO 191956Z AUTO 01012KT 10SM CLR 28/02 A3019 RMK AO2 SLP224 T02770020 $
KXPY 192035Z AUTO 13008KT 10SM 29/24 A2997 RMK A01
KXSA 192035Z AUTO 06005KT 10SM CLR 21/09 A3030 RMK AO2 T02140089
KXVG 192032Z AUTO 35003KT 10SM SCT034 25/17 A3001 RMK AO2
KY19 192035Z AUTO 13016KT 10SM CLR 26/17 A2990 RMK AO2
KY23 192035Z AUTO 00000KT 10SM CLR 27/19 A2999 RMK AO2 T02710190
KY31 192035Z AUTO 18004KT 10SM CLR 27/14 A3010 RMK AO2 T02730135
KY49 192036Z AUTO 04004KT 10SM CLR 24/18 A3001 RMK AO2 T02350176
KY50 192019Z AUTO 19007KT 10SM SCT020 BKN028 23/19 A3004 RMK AO2 $
KY51 192035Z AUTO 25004KT 10SM SCT020 25/21 A3003 RMK AO1 T02470206
KY63 192035Z AUTO 12005KT 10SM CLR 27/17 A2999 RMK AO2 T02660166
KY70 192037Z AUTO 11003KT 10SM CLR 27/11 A3009 RMK AO2 T02720106
KYIP 191953Z 15007KT 10SM CLR 27/13 A3014 RMK AO2 SLP201 T02670133
KYKM 191953Z 00000KT 10SM CLR 22/08 A3000 RMK AO2 SLP156 T02170078
KYKN 191956Z AUTO 13011KT 10SM CLR 28/19 A2995 RMK AO2 SLP145 T02780194
KYNG 191951Z 13005KT 10SM FEW050 FEW250 24/12 A3020 RMK AO2 SLP224 T02440117
KZPH 192035Z AUTO 02013KT 10SM -RA SCT047 BKN050 BKN070 28/20 A3000 RMK A02 T02750200
KZZV 191953Z AUTO 12008KT 10SM CLR 28/12 A3015 RMK AO2 SLP206 T02780122
LATI 192020Z 00000KT 9999 SCT045 BKN076 OVC100 18/16 Q1016 NOSIG
LBBG 192030Z 36009KT 9999 -RA FEW033 BKN045 18/10 Q1019 NOSIG
LBGO 192030Z AUTO 13003KT 9999 OVC067 13/13 Q1021
LBIA 192000Z 35006KT 9999 BKN050 15/12 Q1020
LBPD 192030Z AUTO 21003KT 170V240 9999 SCT046 OVC057 15/13 Q1019
LBPG 192000Z 24004KT 9999 OV050 16/09 Q1019
LBPL 192000Z 22006KT 9999 OVC058 14/10 Q1021
LBSF 192030Z 28006KT 9999 -RA OVC056 11/08 Q1022 TEMPO RA
LBWN 192030Z 11006KT 9999 SCT012 BKN029 17/14 Q1019 TEMPO RA
LCEN 192020Z 29010KT CAVOK 23/19 Q1012 NOSIG RMK RWY11 29010KT
LCLK 192030Z 32007KT CAVOK 25/20 Q1012 NOSIG
LCPH 192030Z 34005KT CAVOK 22/18 Q1013
LCRA 192019Z 27006KT CAVOK 25/21 Q1012 NOSIG
LDDU 192030Z 03019KT 320V100 8000 -RA FEW005 OVC034 17/09 Q1018 NOSIG
LDOS 192030Z 32005KT CAVOK 09/04 Q1026
LDPL 192030Z 06013KT CAVOK 17/04 Q1022 NOSIG
LDRI 192030Z VRB03KT CAVOK 16/04 Q1023 WS R14
LDSP 192030Z 03013KT 360V060 9999 SCT065 19/03 Q1019 TEMPO 04015G25KT
LDZA 192030Z 04005KT 350V070 CAVOK 11/06 Q1027 NOSIG
LDZD 192030Z 07007KT 350V150 CAVOK 17/04 Q1021 NOSIG
LEAB 192000Z 17006KT 140V200 CAVOK 20/13 Q1019 NOSIG
LEAG 192030Z AUTO 11004KT 070V140 CAVOK 22/16 Q1015
LEAL 192030Z 06005KT 040V100 9999 FEW016 SCT019 24/20 Q1017 NOSIG
LEAM 192030Z 01004KT 340V040 CAVOK 24/20 Q1016
LEAO 192000Z VRB02KT CAVOK 22/12 Q1017
LEAS 192030Z 12005KT 9999 FEW020 17/15 Q1017 NOSIG
LEBA 192030Z AUTO 20003KT 9999 NCD 24/12 Q1014
LEBB 192030Z 00000KT 9999 FEW045 17/15 Q1018 NOSIG
LEBG 192030Z AUTO 04003KT 340V100 9999 R22/P2000 R04/P2000 NCD 17/14 Q1019
LEBL 192030Z 05003KT 360V080 9999 FEW010 22/19 Q1019 NOSIG
LEBR 192030Z AUTO 27003KT 9999 NSC 23/15 Q1017
LEBT 192030Z AUTO VRB02KT 8000 FEW013/// SCT026/// 21/19 Q1018
LEBZ 191900Z 23007KT CAVOK 27/10 Q1013
LECH 192030Z AUTO 00000KT 9000 NSC 20/19 Q1019
LECO 192030Z 05003KT 010V070 9999 FEW030 16/15 Q1016 NOSIG
LECV 191800Z 02003KT 9999 FEW050CB 22/11 Q1018
LEDA 192030Z AUTO 08014KT 9999 NCD 21/15 Q1019
LEGA 191700Z 18011KT CAVOK 27/12 Q1017
LEGE 192030Z 27003KT 250V320 9999 FEW050 19/17 Q1019
LEGR 192030Z 00000KT CAVOK 22/12 Q1018
LEGT 191900Z 19004KT CAVOK 25/13 Q1016
LEHC 192030Z AUTO 02004KT 280V070 9999 VCTS SHRA SCT059/// BKN070/// ///CB 21/16 Q1020 RERA
LEIB 192030Z 07003KT 9999 FEW013 23/21 Q1017 NOSIG
LEJR 192030Z VRB01KT CAVOK 21/15 Q1015
LELC 192030Z AUTO 06006KT 020V090 9999 SCT016 24/22 Q1017
LELL 192030Z AUTO 31004KT CAVOK 20/18 Q1019
LELN 192030Z AUTO 35003KT 320V030 9999 NCD 17/11 Q1018
LELO 192030Z 00000KT CAVOK 20/18 Q1017
LEMD 192030Z 34005KT 9999 FEW060 21/14 Q1017 NOSIG
LEMG 192030Z 15003KT 9999 FEW005 22/21 Q1016 NOSIG
LEMH 192030Z 04004KT 020V080 9999 FEW013 22/20 Q1018
LEMI 192030Z 04003KT 7000 NSC 21/20 Q1018
LEMO 192000Z 25008KT 220V280 CAVOK 23/14 Q1015 NOSIG
LEPA 192030Z 08004KT 9999 FEW018 SCT029 25/21 Q1018 NOSIG
LEPP 192030Z 30003KT CAVOK 20/16 Q1018
LERI 191800Z 12007KT 9999 FEW025 24/19 Q1016 NOSIG
LERL 191600Z 02003KT 9999 FEW049 29/11 Q1016
LERS 192030Z VRB02KT 9999 FEW030 21/18 Q1019
LERT 192000Z 28005KT CAVOK 21/18 Q1015 NOSIG
LESA 192030Z 25003KT 160V280 9999 FEW045TCU 18/14 Q1018
LESB 192030Z AUTO 07005KT 9999 OVC027/// 24/20 Q1019
LESO 192030Z AUTO VRB01KT 9999 NCD 19/17 Q1018
LEST 192030Z 34003KT CAVOK 17/16 Q1016 NOSIG
LESU 191630Z 01003KT 300V070 9999 VCSH FEW040CB SCT070 19/14 Q1020
LETL 192030Z AUTO 14007KT CAVOK 16/13 Q1022
LETO 192000Z 02007KT CAVOK 22/15 Q1017 NOSIG
LETU 192030Z AUTO 25003KT 9999 NSC 21/17 Q1017
LEVC 192030Z 09003KT 030V140 9999 FEW018 24/20 Q1018 NOSIG
LEVD 191930Z 04005KT CAVOK 19/10 Q1018
LEVS 192030Z VRB02KT CAVOK 24/13 Q1017
LEVT 192030Z 33002KT 9999 FEW030 SCT050 18/15 Q1019
LEVX 192030Z VRB02KT 0500 R19/1900N R01/1400N FG VV001 15/15 Q1016 TEMPO 0150 FG
LEXJ 192030Z 09003KT CAVOK 18/15 Q1018
LEZG 192030Z 00000KT CAVOK 25/15 Q1016
LEZL 192030Z 23008KT CAVOK 24/15 Q1015 NOSIG
LFAQ 192030Z AUTO 05008KT CAVOK 11/06 Q1029
LFAT 192030Z AUTO 06007KT CAVOK 13/10 Q1030
LFBA 192030Z AUTO 00000KT CAVOK 18/11 Q1017
LFBC 192030Z AUTO 02005KT CAVOK 20/04 Q1018 NOSIG
LFBD 192030Z AUTO 03008KT CAVOK 21/03 Q1018 NOSIG
LFBE 192030Z AUTO 00000KT CAVOK 17/04 Q1018
LFBG 192030Z AUTO 03010KT CAVOK 20/02 Q1020 NOSIG
LFBH 192030Z AUTO 05012KT CAVOK 18/02 Q1021 BECMG 06015G25KT
LFBI 192030Z AUTO 04009KT CAVOK 16/03 Q1022 BECMG 05015G25KT
LFBL 192030Z AUTO 06013KT CAVOK 17/01 Q1021 NOSIG
LFBM 192030Z AUTO 34002KT CAVOK 19/16 Q1018 NOSIG
LFBO 192030Z AUTO 19003KT CAVOK 23/14 Q1018 NOSIG
LFBP 192030Z AUTO 00000KT 9999 FEW100 19/17 Q1018 NOSIG
LFBT 192030Z AUTO 14006KT 9999 BKN100 20/17 Q1019 NOSIG
LFBU 192030Z AUTO 05013KT CAVOK 19/01 Q1020 TEMPO 05015G25KT
LFBY 192030Z AUTO 00000KT 9000 // ////// 19/17 Q1017
LFBZ 192030Z AUTO 00000KT CAVOK 18/17 Q1018 NOSIG
LFCK 192030Z AUTO 14006KT CAVOK 18/15 Q1020 NOSIG
LFCR 192030Z AUTO 04003KT CAVOK 16/06 Q1021 NOSIG
LFGA 192030Z AUTO 01009KT CAVOK 12/03 Q1027
LFGJ 192030Z AUTO 04013KT CAVOK 15/04 Q1023
LFHP 191900Z AUTO 24003KT CAVOK 10/05 Q1023
LFJL 192030Z AUTO 07009KT CAVOK 11/01 Q1028 NOSIG
LFJR 192030Z AUTO 05007KT CAVOK 16/03 Q1024
LFKB 192030Z AUTO VRB02KT 9999 FEW020 SCT044 BKN050 23/19 Q1018 NOSIG
LFKC 192030Z AUTO 17005KT 9999 FEW023 20/17 Q1018 NOSIG
LFKF 192030Z AUTO 36003KT CAVOK 19/16 Q1018 BECMG 06010KT
LFKJ 192030Z AUTO 05005KT CAVOK 21/18 Q1018 NOSIG
LFKS 192030Z AUTO 27006KT 9999 SCT048/// BKN060/// ///CB 21/19 Q1018
LFLB 192030Z AUTO 36012KT CAVOK 17/06 Q1022
LFLC 192030Z AUTO 15002KT CAVOK 12/00 Q1023 NOSIG
LFLL 192030Z 27003KT 230V340 CAVOK 15/04 Q1022 NOSIG
LFLN 192030Z AUTO 03005KT CAVOK 15/01 Q1023 NOSIG
LFLP 192030Z AUTO VRB02KT CAVOK 15/05 Q1023
LFLS 192030Z AUTO 03008KT CAVOK 15/06 Q1022
LFLU 191800Z AUTO 35010KT CAVOK 20/06 Q1019
LFLW 192030Z AUTO 10003KT 070V130 CAVOK 16/02 Q1021
LFLX 192030Z AUTO 04011KT CAVOK 16/02 Q1023 NOSIG
LFLY 192030Z AUTO 33007KT CAVOK 17/04 Q1022 NOSIG
LFMC 192030Z AUTO 00000KT 9999 ////// 21/19 Q1019
LFMD 192030Z AUTO VRB02KT CAVOK 20/18 Q1019 NOSIG
LFMH 192030Z AUTO VRB02KT CAVOK 13/03 Q1023
LFMI 192030Z AUTO VRB03KT CAVOK 21/14 Q1018 NOSIG
LFMK 192030Z AUTO 17004KT 140V210 CAVOK 19/17 Q1018
LFML 192030Z AUTO 28003KT 9999 OVC052 23/19 Q1019 TEMPO SHRA SCT040CB
LFMN 192030Z 32005KT CAVOK 23/18 Q1019 NOSIG
LFMO 192030Z AUTO 36012KT CAVOK 21/07 Q1019 NOSIG
LFMP 192030Z AUTO 29003KT 9999 NCD 20/17 Q1018 NOSIG
LFMT 192030Z AUTO 03009KT CAVOK 21/10 Q1019 NOSIG
LFMU 192030Z AUTO 06008KT CAVOK 21/19 Q1019 NOSIG
LFMV 192030Z AUTO 34006KT 310V010 CAVOK 20/08 Q1019
LFMY 192030Z AUTO 22001KT CAVOK 20/11 Q1019
LFOA 192030Z AUTO 06013KT CAVOK 16/02 Q1024 NOSIG
LFOB 192030Z AUTO 04010KT 300V090 CAVOK 13/06 Q1028 NOSIG
LFOC 192030Z AUTO 04008KT CAVOK 13/02 Q1026
LFOE 192030Z AUTO 05011KT CAVOK 14/06 Q1027 NOSIG
LFOH 192030Z AUTO 09005KT CAVOK 14/08 Q1028
LFOJ 192030Z AUTO 04007KT CAVOK 11/01 Q1025
LFOK 192030Z AUTO 05009KT CAVOK 11/03 Q1027 NOSIG
LFOP 192030Z AUTO 07005KT CAVOK 12/06 Q1028
LFOT 192030Z AUTO 06010KT CAVOK 16/03 Q1024 NOSIG
LFOV 192030Z AUTO 06011KT CAVOK 16/05 Q1025
LFOZ 192030Z AUTO 05011KT CAVOK 15/01 Q1026
LFPB 192030Z AUTO 02008KT CAVOK 15/05 Q1027 NOSIG
LFPG 192030Z 03011KT CAVOK 13/05 Q1028 NOSIG
LFPM 192030Z AUTO 01005KT CAVOK 12/02 Q1027
LFPN 192030Z AUTO 05009KT 020V090 CAVOK 15/05 Q1027 NOSIG
LFPO 192030Z 05010KT CAVOK 15/04 Q1027 NOSIG
LFPT 192030Z AUTO 06007KT CAVOK 13/04 Q1028
LFPV 192030Z AUTO 05013KT CAVOK 15/04 Q1027 NOSIG
LFQA 192030Z AUTO 03007KT CAVOK 13/03 Q1028
LFQB 192030Z AUTO 04008KT CAVOK 14/02 Q1026
LFQG 191800Z AUTO 04011KT CAVOK 19/01 Q1023
LFQQ 192030Z AUTO 04006KT CAVOK 13/08 Q1030 NOSIG
LFRB 192030Z AUTO 06009KT CAVOK 14/11 Q1025 NOSIG
LFRC 192030Z AUTO 08012KT CAVOK 15/11 Q1028 BECMG 08015G25KT
LFRD 192030Z AUTO 06013KT CAVOK 15/11 Q1025 TEMPO 05015G25KT
LFRG 192030Z AUTO 06007KT 020V100 CAVOK 14/07 Q1028 NOSIG
LFRH 192030Z AUTO 04014KT CAVOK 15/09 Q1023 NOSIG
LFRI 192030Z AUTO 06011KT CAVOK 17/04 Q1022 NOSIG
LFRJ 192030Z AUTO 07009KT CAVOK 14/11 Q1025 NOSIG
LFRK 192030Z AUTO 06008KT CAVOK 15/12 Q1027 NOSIG
LFRL 192030Z AUTO 06008KT 030V090 CAVOK 15/11 Q1024 NOSIG
LFRM 192030Z AUTO 05008KT CAVOK 16/04 Q1025 NOSIG
LFRN 192030Z AUTO 05011KT CAVOK 17/06 Q1025 NOSIG
LFRO 192030Z AUTO 07007KT 040V110 CAVOK 15/11 Q1025
LFRQ 192030Z AUTO 06010KT 030V090 CAVOK 15/11 Q1024 NOSIG
LFRS 192030Z AUTO 06012KT 030V090 CAVOK 18/04 Q1022 NOSIG
LFRT 192030Z AUTO 08011KT CAVOK 15/12 Q1025
LFRU 192000Z AUTO 06007KT CAVOK 14/11 Q1025
LFRV 192030Z AUTO 05014KT CAVOK 16/06 Q1023
LFRZ 192030Z AUTO 06011KT CAVOK 17/06 Q1023 NOSIG
LFSB 192030Z 33005KT CAVOK 08/04 Q1026 NOSIG
LFSD 192030Z AUTO 01009KT CAVOK 15/02 Q1024
LFSG 192030Z AUTO 04010KT CAVOK 12/02 Q1027
LFSI 192030Z AUTO 04009KT CAVOK 11/01 Q1027
LFSL 192030Z AUTO 05003KT CAVOK 19/01 Q1019
LFSN 192030Z AUTO 04009KT CAVOK 11/01 Q1027
LFSO 192030Z AUTO 07009KT CAVOK 12/00 Q1027 NOSIG
LFST 192030Z AUTO 02007KT CAVOK 11/03 Q1028 NOSIG
LFSX 192030Z AUTO VRB02KT CAVOK 10/04 Q1025
LFTH 192030Z AUTO 02003KT 9999 FEW014 22/19 Q1019 NOSIG
LFTW 192030Z AUTO 36006KT CAVOK 20/08 Q1019
LFVP 192000Z 27013KT CAVOK 14/08 Q1021 NOSIG
LFYR 192030Z AUTO 05008KT 010V080 CAVOK 16/02 Q1024
LGAD 192020Z VRB03KT 9999 FEW020 20/17 Q1016
LGAL 191920Z 05007KT 9999 FEW025 22/14 Q1016
LGAV 192020Z 24002KT CAVOK 20/17 Q1016 NOSIG
LGBL 191950Z 28004KT 9999 FEW025TCU SCT030 BKN080 21/21 Q1016 BLU
LGEL 192020Z 00000KT 9999 FEW025 24/18 Q1014
LGHI 191850Z VRB01KT CAVOK 19/13 Q1013
LGIO 192020Z AUTO /////KT //// -RA ////// 18/16 Q1017 RE//
LGIR 192020Z 30009KT 9999 FEW025 24/20 Q1015 NOSIG
LGKF 191950Z 00000KT 9999 FEW018 23/21 Q1016
LGKL 192020Z 34004KT 9999 FEW080 23/17 Q1016
LGKO 192020Z 30004KT CAVOK 21/19 Q1013
LGKP 192020Z 31008KT 9999 SCT018 22/19 Q1014
LGKR 192020Z 01007KT 9999 SCT018 SCT025 BKN070 23/20 Q1014 NOSIG
LGKV 191950Z 06004KT 9999 FEW030 22/15 Q1015
LGKZ 192020Z AUTO VRB03KT //// // ////// 14/14 Q1019 RE//
LGLM 192020Z 07008KT CAVOK 22/17 Q1015
LGLR 191950Z 07004KT 9999 -RA FEW020CB FEW025TCU SCT030 BKN080 19/19 Q1016 RMK CB SE 20KM BLU
LGMK 191950Z 36007KT CAVOK 21/12 Q1014
LGMT 191950Z VRB03KT CAVOK 24/18 Q1014
LGNX 191550Z 02008KT 9999 FEW025 24/18 Q1014
LGPA 192020Z AUTO VRB03KT //// // ////// 21/15 Q1015 RE//
LGPZ 191950Z 28006KT 9999 FEW025 25/20 Q1016 RMK FEW180 BLU
LGRP 192020Z 22008KT CAVOK 23/18 Q1013 NOSIG
LGRX 191950Z 00000KT 9999 SCT020 23/20 Q1016 BLU
LGSA 192020Z 29005KT 9999 FEW012 21/21 Q1015
LGSK 191850Z 00000KT 7000 TSRA FEW020CB SCT030 23/20 Q1015
LGSM 191850Z 00000KT CAVOK 22/16 Q1014
LGSO 192020Z AUTO 28006KT //// // ////// 22/15 Q1015 RE//
LGSR 192020Z 27007KT 9999 FEW020 22/15 Q1015
LGSY 192020Z AUTO VRB02KT //// // ////// 20/17 Q1015 RE//
LGTG 191950Z 00000KT 9999 FEW030 21/15 Q1016 RMK FEW070 SCT180 BLU
LGTS 192020Z VRB02KT 9999 FEW020TCU SCT025 21/16 Q1017 TEMPO 5000 TSRA
LGZA 191850Z 00000KT 9999 FEW018 23/19 Q1016
LHBP 192030Z 32006KT CAVOK 09/02 Q1026 NOSIG
LHDC 192015Z AUTO 03008KT CAVOK 11/03 Q1024 NOSIG
LHKE 192015Z 34008KT CAVOK 10/02 Q1025 NOSIG RMK BLU
LHPA 192015Z 00000KT CAVOK 06/04 Q1027 NOSIG RMK BLU
LHPP 191645Z 34007KT CAVOK 15/01 Q1024
LHPR 192015Z AUTO 31006KT CAVOK 06/03 Q1027
LHSM 192015Z AUTO 31004KT 9000 NCD 09/04 Q1027
LHSN 192015Z 33010KT CAVOK 11/03 Q1024 NOSIG RMK BLU
LIBA 191955Z 28009KT 9999 FEW030 22/20 Q1016 RMK BKN SCT100 VIS MIN 9999 WIND THR11 29008KT WIND THR29 /////KT BLU
LIBC 191750Z 01012KT CAVOK 21/18 Q1015
LIBD 192020Z 36007KT 9999 SCT025 22/18 Q1017
LIBF 191550Z 34009KT 9999 SCT030 23/18 Q1015
LIBG 191850Z 30003KT 270V340 9999 FEW020 18/18 Q1015
LIBH 191755Z 31003KT 9999 FEW035 19/18 Q1015 RMK BKN BKN080 QUK / QUL / VIS MAR 15 KM VIS MIN 9999
LIBN 191955Z 31003KT 9999 SCT025 20/18 Q1016 RMK OVC SCT090 BKN110 VIS MIN 9999 WIND THR14 30004KT WIND THR32 30003KT BLU
LIBP 191950Z 21005KT 180V250 9999 SCT050 18/17 Q1020 RERA
LIBR 192020Z 24005KT 9999 FEW020 20/19 Q1016
LIBV 191955Z 32007KT 8000 FEW012 19/17 Q1017 RMK BKN BKN110 VIS MIN 8000 WIND THR32 34008KT WIND THR14 33007KT BLU
LIBY 191755Z 36006KT 9999 SCT030 BKN050 21/18 Q1014 RMK BKN QUK / QUL / VIS MAR 10 KM VIS MIN 9999
LICA 191950Z 05004KT 360V100 CAVOK 20/16 Q1016
LICB 191950Z VRB01KT CAVOK 23/16 Q1017
LICC 192020Z 26008KT CAVOK 21/20 Q1016
LICD 191950Z 19008KT CAVOK 27/24 Q1016
LICF 191955Z 06005KT 9999 FEW025 26/23 Q1015 RMK BKN SCT080 QUK / QUL / VIS MAR 10 KM MON INVIS NC VIS MIN 9999
LICG 191750Z 17005KT CAVOK 25/23 Q1016
LICJ 192020Z 35003KT 9999 SCT020 25/21 Q1016
LICL 191755Z 23003KT 9999 FEW024 26/22 Q1015 RMK SCT SCT100 QUK / QUL / VIS MAR 10 KM VIS MIN 9999
LICR 191950Z 00000KT CAVOK 25/19 Q1016
LICT 191955Z 35002KT 9999 FEW033 24/21 Q1016
LICZ 191955Z 25007KT 9999 SCT100 20/19 Q1016 RMK SCT VIS MIN 9999 WIND THR28 26004KT WIND THR10 25007KT A3003 BLU
LIEA 192020Z 05005KT CAVOK 22/20 Q1017
LIEB 191955Z 32013KT 9999 SCT030 21/18 Q1016 RMK SCT QUK / QUL / VIS MAR 20 KM MON INVIS VIS MIN 9999
LIEC 191955Z 05014KT 9999 FEW018 24/21 Q1017 RMK FEW QUK / QUL / VIS MAR 10 KM VIS MIN 9999
LIED 191955Z 13003KT 9999 FEW025 25/22 Q1016 RMK SCT VIS MIN 9999 WIND THR35 14003KT WIND THR17 /////KT BLU
LIEE 192020Z 17005KT CAVOK 25/22 Q1017
LIEO 192020Z VRB01KT CAVOK 21/19 Q1018
LIMA 191650Z 00000KT 8000 BKN015 18/15 Q1021
LIMC 192020Z VRB01KT 9999 BKN060 18/14 Q1023 NOSIG
LIME 192020Z 36003KT 320V020 9999 BKN060 18/13 Q1023 NOSIG
LIMF 192020Z 36004KT 9999 BKN040 18/16 Q1023
LIMG 191750Z 01009KT CAVOK 23/14 Q1017
LIMH 191955Z 04003KT 360V070 CAVOK 01/00 Q1031 RMK SKC MON LIB VAL MAR CLD VIS MIN 9999
LIMJ 192020Z 03008KT 340V110 CAVOK 22/14 Q1020
LIMK 191955Z 36004KT 2000 BR BKN010 14/14 Q1022 RMK BKN VAL FOSCHIA VIS MIN 2000
LIMN 191755Z 02004KT CAVOK 18/13 Q1020 RMK FEW FEW200 VIS MIN 9999 BLU
LIMP 191950Z 10001KT 9999 FEW060 15/15 Q1022
LIMS 191755Z 12006KT CAVOK 18/18 Q1019
LIMU 191955Z 01012KT CAVOK 21/14 Q1016 RMK SCT FEW070 SCT200 QUK / QUL / VIS MAR 30 KM VIS MIN 9999
LIMV 191655Z /////KT 8000 FEW012 17/14 Q1019 RMK BKN SCT080 MON LIB VAL FOSCHIA VIS MIN 8000
LIMW 191750Z AUTO 11010KT 9999 NCD 18/13 Q1021
LIMY 191755Z ///03KT 0300 FG VV/// 15/13 Q1021 RMK VAL INVIS VIS MIN 0300
LIMZ 191850Z VRB02KT 8000 BKN030 17/16 Q1022
LIPA 191955Z 35004KT 9999 BKN080 17/10 Q1023 RMK BKN VIS MIN 9999 WIND THR05 /////KT WIND THR23 /////KT A3024 BLU
LIPB 191950Z 17005KT 110V220 9999 FEW070 19/10 Q1022 RMK MON INVIS
LIPC 191955Z 32005KT CAVOK 17/15 Q1022
LIPE 192020Z 24003KT 7000 R12/P1500N R30/1300U MIFG FEW035 16/15 Q1022
LIPF 191755Z /////KT 9999 FEW080 16/15 Q1020
LIPH 192020Z 05007KT 010V070 CAVOK 18/07 Q1024
LIPK 191550Z VRB01KT 9999 FEW020 20/14 Q1019
LIPL 191955Z 01003KT 9999 SCT070 18/14 Q1021 RMK SCT VIS MIN 9999 WIND THR31 36002KT WIND THR13 01002KT BLU
LIPO 191950Z 00000KT 9999 SCT060 19/12 Q1022
LIPQ 192020Z 08007KT CAVOK 17/05 Q1024
LIPR 192020Z 04008KT CAVOK 20/10 Q1022
LIPS 191955Z /////KT 9999 BKN070 18/10 Q1023 RMK BKN VIS MIN 9999 WIND THR26 03008KT WIND THR08 10010KT BLU
LIPX 192020Z 07003KT 9999 FEW070 18/09 Q1023
LIPY 191950Z 34007KT CAVOK 20/11 Q1020
LIPZ 192020Z 05010KT 9999 BKN070 16/08 Q1023 NOSIG
LIQC 191955Z 00000KT 9999 FEW025 23/19 Q1017 RMK FEW QUK / QUL / VIS MAR 20 KM VIS MIN 9999
LIQN 191750Z VRB03KT CAVOK 18/17 Q1016
LIRA 192020Z 04004KT 360V070 CAVOK 19/16 Q1018
LIRE 191955Z 02006KT CAVOK 20/18 Q1016 RMK FEW FEW200 VIS MIN 9999 WIND THR13 03005KT WIND THR31 /////KT BLU
LIRF 192020Z 08004KT CAVOK 20/17 Q1017 NOSIG
LIRG 191755Z 29004KT 9999 FEW030 18/17 Q1016 RETS
LIRH 191755Z 21006KT 4000 -TSRA BR SCT025CB 19/18 Q1016
LIRI 191650Z 27003KT 9999 FEW030 24/19 Q1015
LIRK 191955Z AUTO 11014KT //// 10/09 Q1024
LIRL 191755Z 36003KT 9999 SCT030 17/15 Q1015
LIRM 191955Z 02003KT 9999 -RA FEW020CB SCT030 22/21 Q1016 RERA
LIRN 192020Z VRB02KT 9999 -DZ SCT035 22/17 Q1017 NOSIG
LIRP 192015Z 10012KT 9999 FEW050 20/13 Q1018 NOSIG
LIRQ 192020Z VRB05KT CAVOK 20/08 Q1020
LIRS 191955Z 02009KT CAVOK 19/13 Q1017
LIRU 191750Z 12005KT CAVOK 21/16 Q1015
LIRV 191855Z /////KT CAVOK 19/16 Q1016
LIRX 191755Z 00000KT 9999 FEW005 21/20 Q1016 RMK SCT SCT070 VIS MIN 9999 VIS MAR 15 KM
LIRZ 191950Z AUTO 03010KT 9999 OVC110 19/12 Q1019
LIVC 191955Z 07017KT 0000 FG VV/// 07/02 Q1027 RMK MON INVIS VAL INVIS VIS MIN 0000
LIVD 191755Z 09008KT CAVOK 12/06 Q1025 RMK SKC VIS MIN 9999
LIVE 191955Z 05003KT CAVOK 11/07 Q1023 RMK SKC VIS MIN 9999
LIVM 191955Z AUTO 30003KT 270V340 //// 19/16 Q1021
LIVO 191755Z 00000KT CAVOK 10/07 Q1024 RMK SKC VIS MIN 9999
LIVP 191955Z 18007KT 0000 FG VV/// 06/05 Q1025 RMK MON INVIS VAL INVIS VIS MIN 0000
LIVR 191755Z 13010KT 0300 FG VV/// 07/06 Q1025 RMK MON INVIS VIS MIN 0300
LIVT 191955Z 06014G27KT CAVOK 16/06 Q1022 RMK SKC QUK / QUL / VIS MAR 20 KM VIS MIN 9999
LJCE 192030Z AUTO 09004KT 9999 NSC 10/07 Q1027
LJLJ 192030Z 09006KT 9999 FEW055 11/06 Q1026 NOSIG
LJMB 192030Z AUTO 36004KT 330V060 9999 NSC 11/07 Q1028
LJPZ 192030Z AUTO 12003KT 9999 NCD 11/07 Q1023
LKCV 192000Z 28006KT CAVOK 08/03 Q1028 NOSIG RMK BLU BLU
LKKB 192000Z 30004KT CAVOK 10/02 Q1029 NOSIG
LKKV 192000Z 33003KT CAVOK 04/02 Q1029
LKLN 192000Z AUTO VRB01KT CAVOK 07/03 Q1029
LKMT 192030Z VRB02KT CAVOK 08/05 Q1027 NOSIG
LKNA 192000Z 32006KT CAVOK 07/02 Q1028 NOSIG RMK BLU BLU
LKPD 192000Z 25003KT CAVOK 08/03 Q1028 NOSIG RMK BLU BLU
LKPR 192030Z 27005KT CAVOK 07/00 Q1029 NOSIG
LKTB 192030Z 20002KT 170V230 CAVOK 09/02 Q1028 NOSIG
LLBG 192020Z VRB01KT 9999 FEW018 27/23 Q1012 NOSIG
LLER 191950Z 32012KT CAVOK 33/20 Q1010
LLHA 191850Z 34009KT 9999 FEW015 28/24 Q1011
LLIB 191450Z 36010KT CAVOK 34/17 Q1011
LMML 192015Z 23002KT 9999 FEW016 25/24 Q1017 NOSIG
LOAN 191700Z 35007KT 40KM SCT060CU BKN300CI
LOAV 191700Z 30008KT 30KM FEW060CU BKN300CI 13/00
LOWG 192020Z AUTO 04002KT 9999 FEW050 SCT070 12/04 Q1028 NOSIG
LOWI 192020Z 27002KT CAVOK 09/05 Q1027 NOSIG
LOWK 192020Z 08003KT 050V130 9999 FEW060 11/04 Q1027 NOSIG
LOWL 192020Z AUTO VRB02KT 9999 FEW240 10/02 Q1029 NOSIG
LOWS 192020Z 13003KT 100V160 9999 BKN050 08/05 Q1029 NOSIG
LOWW 192020Z 31008KT CAVOK 10/02 Q1028 NOSIG
LOWZ 192030Z AUTO 10005KT 9999 BKN056 08/04
LOXT 192020Z 19001KT 25KM FEW060SC SCT300CI 08/03 Q1028 NOSIG RMK WIND INFO EST/SCT
LOXZ 191950Z VRB03KT 30KM FEW070SC 07/03 Q1028
LPAR 191800Z 33010KT 9999 FEW035 22/15 Q1015
LPAZ 192030Z 27011KT 9999 FEW010 SCT012 23/21 Q1017
LPBJ 192000Z 29010KT CAVOK 20/14 Q1016
LPCS 192030Z 30005KT 270V330 9999 FEW014 BKN035 19/16 Q1017
LPFL 191800Z VRB07G17KT 9999 FEW015 25/19 Q1013
LPFR 192030Z 30010KT CAVOK 23/15 Q1015
LPHR 192000Z 27017KT 9999 SCT008 SCT011 24/22 Q1015
LPLA 192000Z /////KT 9999 FEW018 SCT032 24/21 Q1015
LPMA 192030Z 24003KT 210V280 9999 FEW016 23/18 Q1018
LPMT 192000Z 31006KT 9999 FEW015 21/16 Q1016
LPOV 192000Z 26003KT 230V290 9999 SCT005 BKN007 17/16 Q1016
LPPD 192030Z 26008KT 9999 SCT006 SCT010 22/22 Q1016
LPPR 192030Z 23003KT 9000 OVC008 17/16 Q1016
LPPS 192030Z 29009KT 9999 SCT014 23/20 Q1018
LPPT 192030Z 31006KT 270V340 9999 FEW012 19/15 Q1017
LPST 191600Z 33009KT 300V360 9999 FEW026 21/15 Q1016
LQBK 192030Z 31002KT CAVOK 10/08 Q1026 NOSIG
LQMO 192030Z 14005KT 080V200 9999 FEW045 17/04 Q1018
LQSA 192030Z VRB02KT 9999 BKN070 10/07 Q1025
LQTZ 192000Z VRB02KT CAVOK 10/08 Q1025
LRAR 192030Z VRB01KT CAVOK 07/04 Q1024
LRBC 192030Z 34005KT 9999 BKN065 12/05 Q1022
LRBM 192030Z 36002KT CAVOK 07/02 Q1024
LRBO 191900Z 03007KT 9999 BKN100 13/06 Q1021 BLU BLU
LRBS 192030Z 04004KT 010V070 CAVOK 15/09 Q1020 NOSIG
LRCK 192030Z 04010KT 9999 -RA SCT015 13/12 Q1020 R36/290095 NOSIG
LRCL 192030Z 25006KT CAVOK 10/00 Q1023
LRCT 191900Z 33006KT 9999 BKN080 12/00 Q1023 BLU BLU
LRCV 192030Z AUTO 25008KT 9999 OVC095/// 16/M00 Q1019
LRIA 192030Z 23004KT 9999 -RA SCT047 12/05 Q1022 R14/29//95
LROD 192030Z AUTO 10004KT 9999 NCD 07/03 Q1024
LROP 192030Z 07009KT CAVOK 15/08 Q1020 NOSIG
LRSB 192030Z 26008KT 9999 SCT066 10/02 Q1023
LRSM 192030Z AUTO 30003KT 9999 FEW085/// BKN110/// 08/02 Q1024
LRSV 192030Z 28008KT CAVOK 09/03 Q1022
LRTC 192030Z AUTO 10007KT 9999 -DZ FEW032/// SCT055/// BKN070/// 13/08 Q1021
LRTM 192030Z AUTO 35006KT 9999 OVC090/// 11/01 Q1023
LRTR 192030Z 01004KT CAVOK 09/01 Q1024
LRTZ 191900Z 21006KT 9999 -RA SCT025 SCT040CB BKN080 18/11 Q1020 BLU BLU
LSGC 192020Z AUTO 04005KT 020V080 CAVOK 08/M01 Q1025
LSGG 192020Z 02009KT CAVOK 15/04 Q1023 NOSIG
LSGS 192020Z AUTO VRB01KT CAVOK 16/10 Q1023
LSMA 192020Z AUTO 03006KT 340V070 9999NDV OVC044 14/07 Q1025 RMK
LSMD 192020Z AUTO 07006KT 9999NDV NCD 12/04 Q1026 RMK
LSME 192020Z AUTO 03005KT 9999NDV NCD 11/05 Q1025 RMK
LSMM 192020Z AUTO 05011KT 030V100 9999NDV SCT040 14/07 Q1024 RMK
LSMP 192020Z AUTO 04011KT 9999NDV NCD 13/04 Q1024 RMK
LSZA 192020Z AUTO VRB01KT 9999 OVC047 SCT060 18/15 Q1024
LSZB 192020Z AUTO VRB01KT CAVOK 09/05 Q1024
LSZC 192020Z AUTO VRB02KT 9999 OVC039 13/06 Q1025
LSZG 192020Z AUTO 08007KT CAVOK 13/03 Q1025
LSZH 192020Z 04011KT CAVOK 12/03 Q1026 NOSIG
LSZL 192020Z AUTO 00000KT 9999NDV OVC036 17/17 Q1023 RMK
LSZR 192020Z AUTO VRB02KT CAVOK 12/07 Q1026
LSZS 192020Z AUTO 18003KT CAVOK 03/02 Q1026
LTAB 191950Z 08006KT CAVOK 22/03 Q1015 NOSIG RMK RWY06 VRB02KT
LTAC 192020Z 01006KT CAVOK 17/02 Q1016 NOSIG RMK RWY21L 36004KT RWY03L 03004KT RWY21R 03002KT
LTAD 191950Z VRB02KT CAVOK 18/05 Q1016 NOSIG RMK RWY29 VRB01KT
LTAE 191950Z 01007KT CAVOK 19/07 Q1016 NOSIG RMK RWY21 36007KT
LTAF 192020Z 11001KT CAVOK 22/19 Q1011 NOSIG RMK RWY23 14001KT
LTAG 192020Z 36005KT CAVOK 20/15 Q1011 NOSIG
LTAI 192020Z 35006KT CAVOK 22/18 Q1013 NOSIG RMK RWY18C 34005KT RWY36R 36006KT RWY18L 33004KT
LTAJ 192020Z VRB02KT CAVOK 19/03 Q1014 NOSIG RMK RWY10 00000KT
LTAN 191950Z 35003KT 330V040 CAVOK 18/02 Q1016 NOSIG RMK RWY19 32003KT
LTAP 192020Z 02014KT 9999 FEW040 17/13 Q1016 NOSIG RMK RWY23 02017KT
LTAR 191950Z 11007KT CAVOK 13/03 Q1021 RMK RWY19 10005KT
LTAT 192020Z 20004KT 160V230 CAVOK 14/05 Q1016 NOSIG RMK RWY03 21004KT
LTAU 192020Z 00000KT CAVOK 13/04 Q1016 NOSIG RMK RWY07 12005KT 090V150
LTAY 191950Z 28007KT CAVOK 20/09 Q1018
LTAZ 192020Z 12006KT CAVOK 16/04 Q1016
LTBA 192020Z 05011KT CAVOK 22/16 Q1017 NOSIG RMK RWY17L 05011KT RWY05 05012KT RWY23 07012KT
LTBD 191450Z 28013KT CAVOK 27/15 Q1012
LTBF 191950Z 33006KT 300V360 9999 FEW020 SCT100 20/16 Q1017 NOSIG RMK RWY18 31006KT 270V340
LTBG 191950Z 02013KT 9999 FEW017 SCT035 21/18 Q1016 NOSIG RMK RWY18 03014KT
LTBH 191950Z 03010KT CAVOK 21/15 Q1016
LTBI 191950Z 25010KT CAVOK 17/11 Q1017 NOSIG RMK RWY08 26010KT
LTBJ 192020Z VRB02KT CAVOK 20/15 Q1014 NOSIG RMK RWY16 13005KT
LTBL 191950Z 33003KT CAVOK 20/16 Q1014 NOSIG RMK RWY17 00000KT
LTBO 191550Z 30008KT CAVOK 25/01 Q1016
LTBQ 191950Z 07006KT 040V140 9999 FEW015 BKN030 21/18 Q1017 NOSIG RMK RWY09 07004KT 030V100
LTBR 192020Z 00000KT CAVOK 18/15 Q1016 NOSIG
LTBS 192020Z 07004KT CAVOK 19/17 Q1013 NOSIG RMK RWY19 36004KT
LTBU 192020Z 36011KT 9999 FEW030 SCT100 17/14 Q1017 RMK RWY22 01009KT
LTBY 191950Z 27010KT CAVOK 16/11 Q1017
LTBZ 191950Z 36006KT 330V030 CAVOK 18/11 Q1018
LTCA 191950Z 26005KT CAVOK 17/03 Q1017 NOSIG RMK RWY07 00000KT
LTCB 191950Z 06008KT 9999 SCT012 BKN025 22/18 Q1017
LTCC 192020Z 26003KT 130V290 CAVOK 19/03 Q1015 NOSIG RMK RWY16 26003KT
LTCD 191950Z 34003KT CAVOK 14/05 Q1019 NOSIG
LTCE 192020Z 24001KT CAVOK 08/02 Q1023 NOSIG RMK RWY08R VRB01KT RWY26R /////KT RWY08L VRB02KT
LTCF 191950Z 07006KT CAVOK 10/04 Q1023 RMK RWY24 09006KT
LTCG 192020Z VRB02KT 9999 SCT015 BKN035 23/19 Q1017 NOSIG RMK RWY29 VRB01KT
LTCI 191950Z 09003KT CAVOK 13/02 Q1023 NOSIG RMK RWY21 VRB01KT
LTCJ 192020Z 04008KT CAVOK 17/06 Q1015 RMK RWY20 04006KT
LTCN 191950Z 08006KT 030V110 CAVOK 23/05 Q1014 NOSIG
LTCO 191450Z 24009KT CAVOK 24/M03 Q1021
LTCR 191550Z 31002KT CAVOK 30/07 Q1014
LTCS 192020Z 00000KT CAVOK 25/06 Q1017 RMK RWY22 18004KT
LTCV 191450Z 33005KT CAVOK 32/00 Q1014
LTDA 191950Z 24014KT CAVOK 26/20 Q1012 NOSIG
LTFC 192020Z 31003KT 280V350 CAVOK 18/05 Q1017
LTFD 191950Z 11014KT 9999 FEW035 22/15 Q1015
LTFE 192020Z 14005KT CAVOK 16/13 Q1014 NOSIG RMK RWY10 12004KT
LTFG 191950Z 13003KT CAVOK 20/18 Q1012
LTFH 191950Z VRB02KT 9999 BKN033 20/15 Q1017 NOSIG
LTFJ 192020Z 03012KT 9999 SCT021 20/16 Q1016 NOSIG
LTFM 192020Z 07013KT 9999 SCT022 21/15 Q1017 NOSIG RMK RWY17L 08012KT RWY34L 06012KT RWY16R 07014KT
LUKK 192030Z 33006KT 9999 FEW049CB 13/03 Q1021 R08/D NOSIG
LWOH 191900Z 32002KT 9999 SCT050 BKN090 12/09 Q1019
LWSK 192030Z VRB02KT 9999 SCT050 BKN080 15/05 Q1022 NOSIG
LXGB 191950Z AUTO 28002KT 9999 // NCD 23/18 Q1015
LYBE 192030Z 30004KT CAVOK 10/03 Q1025 NOSIG
LYBT 192030Z 33003KT CAVOK 08/03 Q1024 NOSIG
LYKV 192030Z VRB01KT CAVOK 12/10 Q1024 NOSIG
LYNI 192030Z 19004KT 160V230 9999 -RA SCT040 12/10 Q1023 NOSIG
LYPG 192030Z 01015KT 350V130 9999 BKN040 OVC080 17/04 Q1019 NOSIG
LYTV 192030Z 02011G26KT 9999 SCT043 OVC076 18/09 Q1017
LYUZ 192030Z AUTO 31004KT CAVOK 08/00 Q1025
LYVR 192030Z 05005KT CAVOK 08/01 Q1024 NOSIG
LZIB 192030Z 32009KT CAVOK 11/01 Q1028
LZKZ 192030Z VRB01KT CAVOK 07/04 Q1025
LZPP 192030Z AUTO 02005KT 9999 BKN061/// 08/03 Q1027
LZSL 192030Z VRB01KT 9999 FEW050 06/03 Q1026
LZTT 192030Z 21003KT 150V280 9999 FEW033 BKN053 06/02 Q1025
LZZI 192030Z 12003KT CAVOK 06/04 Q1027
MBPV 192000Z 04007KT 9999 SCT012 SCT035 30/23 Q1008
MDAB 192000Z 13004KT 9999 FEW018 BKN070 28/25 Q1008
MDBH 192000Z 13012KT 8000 VCSH FEW018CB SCT020 BKN080 30/24 Q1008 CB/SW
MDCY 192000Z 00000KT 9999 FEW016CB BKN016 BKN070 26/24 Q1008 RERA CB/SE/S/SW
MDJB 192000Z 06008KT 6000 RA FEW010CB OVC012 24/22 Q1008 CB/E/S/W/N
MDLR 192000Z 00000KT 8000 -RA FEW018CB BKN018 BKN070 26/25 Q1005 CB/NE/E/SE/S/SW
MDPC 192000Z 07005KT 9999 FEW014CB SCT018 BKN070 26/24 Q1009 CB/S/SW
MDPP 192000Z 09015KT 9999 FEW022CB SCT026 BKN300 32/24 Q1007 CB/SE/S
MDSD 192000Z 05004KT 7000 -RA FEW014CB BKN016 OVC070 24/24 Q1010 CB/E/SE/S/SW/W
MDST 192000Z 12018KT 9999 FEW025CB SCT027 BKN300 28/23 Q1008 CB/E/SE/SW/W
MGCB 192000Z 02008KT 9999 SCT018 27/17 QFE868.8
MGES 192000Z 09004KT 9999 FEW020 SCT200 30/12 QFE907.6
MGGT 192000Z 36008KT 9999 SCT022 FEW025CB BKN200 27/13 Q1022 A3018 CB SSW
MGHT 192000Z 16008KT 9999 FEW028 SCT200 25/11
MGMM 192000Z 30004KT 9999 FEW020TCU 34/23 Q1010 A2983 TCU E/WNW
MGMT 192000Z 18004KT 8000 FEW014 33/25 HZ FEW070 FEW200
MGPB 192000Z 36006KT 9999 SCT018TCU FEW025CB SCT070 32/22 Q1009 A2980 CB/PCPN ENE/SW TCU N/SE
MGQZ 192000Z 02010KT 9999 SCT020TCU FEW025CB 21/11 QFE770/9 CB S TCU E/W
MGRT 192000Z 18006KT 6000 TS VCSH SCT016 FEW025CB SCT080 28/26 Q1012 A2988 CB/TS/PCPN N/NE/E VOL. STA. MARIA Y SANTIAGUITO EN ACTIVIDAD
MGSJ 192000Z 22012KT 9999 TS VCSH SCT016 SCT028CB 31/26 Q1009 A2980 CB/TS/PCPN SMC N
MGTU 192000Z 18008KT 9999 SCT018 FEW020CB 33/23 CB/PCPN N/NE/ENE/NNW
MGZA 192000Z 00000KT 9999 FEW028 36/18 QFE983/5 FEW200 CB DIST ENE
MHAM 191800Z 24004KT 9999 FEW030TCU 33/24 TCU NE W
MHCA 191900Z 06006KT 9999 FEW028 32/23 HZ
MHCH 192000Z 18004KT 9999 SCT030CB 35/27 CB TCU ALL HZ
MHGS 192000Z 36008KT 9999 SCT032TCU 31/20 TCU N HZ
MHLC 192000Z 35008KT 9999 TS SCT024CB SCT070 BKN200 32/25 Q1009 A2980 NOSIG
MHLE 192000Z 01002KT 9999 FEW024 BKN200 25/14
MHLM 192000Z 03013KT 9999 SCT028TCU SCT250 34/22 Q1008 A2977 METAR MHTG 192000Z 33008KT 9999 FEW030CB SCT032TCU BKN250 31/10 Q1016 A3000 NOSIG
MHNO 191800Z 34004KT 9999 FEW040 29/17 HZ
MHPL 192000Z 00000KT 9999 FEW028TCU FEW030CB 30/25 Q1009 CB NE
MHRO 192000Z 29009KT 9999 FEW024CB SCT026 BKN220 31/25 Q1010 A2983 RETS NOSIG
MHSC 192008Z COR AUTO 01013KT 9999 FEW085 32/17 A2984 RMK AO2 WSHFT 1957 SLPNO $ COR 2036
MHSR 192000Z 04005KT 9999 SCT030TCU BKN250 29/17 TCU SE SW W HZ
MHTE 192000Z 06002KT 9999 BKN028TCU SCT32CB BKN250 31/26 Q1009 CB S SE N TCU AL HZ
MHTG 192000Z 33008KT 9999 FEW030CB SCT032TCU BKN250 31/10 Q1016 A3000 NOSIG
MHTR 192000Z 28003KT 9999 SCT025TCU BKN250 33/25 TCU ALL HZ
MHYR 192000Z 02006KT 9999 SCT026TCU 33/20 TCU ALL HZ
MKJP 192000Z 32013KT 9999 FEW020 SCT022CB 30/22 Q1007 RETS
MKJS 192000Z 19009KT 9999 -SHRA VCSH FEW018 BKN020CB 26/22 Q1007
MMAA 191948Z 27013KT 8SM FEW100 BKN300 31/23 A2979 RMK 8/032 HZY DSNT TCU N E NW
MMAS 191549Z 16003KT 9SM BKN030 20/13 A3027 RMK 8/100 HZY
MMBT 191606Z RTD 00000KT 7SM SCT150 BKN200 30/23 A2990 RMK 8/031 HZY
MMCB 191951Z 12005KT 10SM BKN015TCU BKN100 26/19 A3006 RMK 8/270 CB N
MMCE 191951Z 10008KT 7SM FEW025TCU 34/22 A2981 RMK 8/200
MMCL 191945Z 00000KT 10SM SCT015 BKN250 35/25 A2974 RMK 8/104
MMCM 191957Z RTD 00000KT 7SM BKN020 BKN100 31/25 A2981 RMK 8/520 CB E
MMCN 191849Z 28003KT 10SM FEW200 34/21 A2974 RMK 8/008
MMCP 191857Z RTD 09006KT 7SM SCT020 32/24 A2985 RMK 8/100
MMCS 191653Z 19006KT 10SM SCT100 BKN250 28/12 A3005 RMK 8/032
MMCT 191945Z 09010KT 8SM BKN015 34/19 A2980 RMK 8/400
MMCU 191846Z 00000KT 10SM SCT030 BKN100 28/15 A3006 RMK 8/170
MMDO 191745Z 10004KT 12SM SCT025 23/10 A3021 RMK SLP092 57004 969 8/100 ISOL CI
MMEP 191949Z 24005KT 12SM SCT030 SCT100 BKN250 28/20 A2998 RMK 8/578
MMGL 191947Z 18010KT 10SM SCT020TCU OVC090 25/13 A3013 RMK 8/27/ BINOVC
MMGM 191949Z 24015KT 10SM FEW020TCU 34/26 A2970 RMK 8/200 HZY
MMHO 191848Z 21006KT 10SM SKC 36/22 A2981 RMK ISOL CU
MMIA 191911Z 00000KT 1/2SM -RA BCFG VV004 21/20 A3007 RMK 8////
MMIO 191640Z 00000KT 10SM SKC 28/14 A3014 RMK CU
MMLO 191752Z 19006KT 10SM SCT030 BKN090 BKN220 23/15 A3029 RMK SLP121 57003 956 8/538
MMLT 191848Z 08008KT 9SM SCT240 32/25 A2976 RMK 8/002 HZY
MMMA 191550Z 16011KT 8SM BKN018 32/26 A2988 RMK 8/100 ISOL CI
MMMD 191846Z 05006KT 7SM BKN020 33/22 A2986 RMK 8/100 MDT CU
MMML 191856Z 27003KT 10SM SKC 34/M01 A2975
MMMM 191947Z 16008KT 10SM SCT030 BKN090 BKN230 25/14 A3017 RMK 8/532 PCPN W
MMMT 191948Z 02010KT 7SM SCT050 32/26 A2978 RMK 8/100
MMMV 191645Z 00000KT 8SM SKC 30/19 A2988 RMK HZY
MMMX 192010Z 10008KT 5SM BKN015CB BKN080 OVC200 22/12 A3023 NOSIG RMK 8/367 HZY PCPN NNE SW W RAE07
MMMY 191746Z 12007KT 5SM BKN020 28/23 A2987 RMK SLP/// 5//// 9// 8/500 HZY
MMMZ 192004Z 18012G25KT 6SM RA FEW012 SCT025CB BKN090 OVC240 27/26 A2980 RMK 8/963 RAB00 CDNS VRBLS
MMNL 191745Z 16007KT 8SM FEW020 34/23 A2984 RMK SLP085 57007 970 8/100
MMOX 191920Z 04013KT 7SM SHRA BKN025 OVC120 21/15 A3015 RMK 8/72/ VIS 10SM N SHRAB15 VRB CONDS
MMPA 191946Z 09012KT 6SM SCT025TCU 34/24 A2981 RMK 8/200 HZY
MMPB 191646Z 19005KT 8SM BKN020 20/12 A3033 RMK 8/100 HZY
MMPE 191506Z RTD 10009KT 10SM SKC 29/17 A2976 RMK RTS
MMPG 191545Z 12006KT 10SM SKC 32/22 A2989 RMK HZY
MMPN 191647Z 00000KT 2SM BR SCT005 BKN010 OVC015 18/17 A3022 RMK 8/8// VRB CONDS
MMPQ 191948Z 09005KT 7SM FEW030 34/25 A2969 RMK 8/100 HZY
MMPR 191949Z 32003KT 8SM -RA FEW015 OVC080 26/23 A2985 RMK 60165 8/67/ LWR CLDS ALQDS
MMPS 191945Z 28014KT 15SM SCT010 BKN070 BKN250 31/24 A2980 RMK 8/163 MSG TX MMMX
MMQT 191850Z 00000KT 6SM BKN020CB BKN250 24/13 A3025 RMK 8/302 HZY
MMRX 191948Z 15012G22KT 6SM BKN040 35/21 A2979 RMK 8/500 HZY
MMSD 191856Z 00000KT 10SM BKN250 34/16 A2979 RMK 8/008
MMSL 191949Z 12008KT 10SM BKN250 31/23 A2981 RMK 8/008 CU
MMSP 191945Z 17007KT 15SM BKN030TCU 28/08 A3014 RMK 8/200
MMTC 191945Z 07007KT 10SM SCT020TCU 33/16 A2995 RMK 8/200 ISOL CI
MMTG 191848Z 09009KT 8SM FEW022 SCT300 31/20 A2989 RMK 8/502 TCU FRMG
MMTJ 191953Z 27009KT 8SM SKC 24/14 A2991 RMK HZY ST W
MMTM 191950Z E10012KT 7SM SCT020 31/26 A2983 RMK 8/100 HZY
MMTO 191949Z 13007KT 5SM -RA BKN015CB BKN070 BKN200 20/11 A3031 RMK 8/362 -RAB47
MMTP 191452Z 35002KT 10SM FEW200 30/25 A2986 RMK SLP135 52009 918 8/002 HZY
MMUN 191947Z 06007KT 7SM SCT015 31/23 A2985 RMK 8/100 HZY
MMVR 191945Z 10007KT 7SM FEW015 32/26 A2982 RMK 8/100 HZY ISOL CI
MMZC 191713Z RTD 00000KT 10SM SCT030 21/13 A3026 RMK 8/100
MMZO 191750Z 09008KT 4SM -RA SCT010 BKN030 OVC060 23/23 A2995 RMK SLP108 8/7//
MNBL 192000Z 07004KT 9999 TS FEW018CB 31/26 Q1007 CB NW
MNCH 192000Z 18004KT 9999 FEW024CB SCT300 31/25 Q1008 CB N NE TCU E SE
MNJG 192000Z 03004KT 9999 SCT020 30/14 Q1009
MNJU 192000Z 22006KT 9999 SCT020TCU 33/25 Q1009 TCU N S
MNMG 192000Z 13008KT 9999 FEW020CB SCT300 33/22 Q1007 A2975 CB SW W NW TCU N E NOSIG
MNPC 192000Z 09004KT 6000 -TS FEW014CB SCT016 30/27 Q1006 CBRA NE N NW SW
MNRS 192000Z 00000KT 9999 FEW014CB 32/24 Q1007 CB NE E SE S
MPBO 191900Z 03008KT 9999 FEW010TCU SCT020 Q1010 RMK TCU S/SW
MPDA 192000Z 20009KT 8000 TS VCSH SCT015CB SCT090 28/24 Q1009
MPMG 192000Z 15005KT 8000 -TSRA SCT007 SCT013CB 25/24 Q1009 RWY WET TEMPO 6000 TSRA
MPPA 192000Z 18006KT 9000 DZ FEW007 SCT015TCU SCT080 25/24 Q1010 RWY WET
MPSM 192000Z 16007KT(E) 9999 FEW015 SCT030 BKN120 27/25 Q1009 REDZ RWY DAMP
MPTO 192020Z 16005KT 7000 -RA SCT006 SCT016CB BKN080 25/24 Q1009 RWY WET TEMPO BECMG AT 2130 NSW
MRLB 192000Z 32007KT 9999 VCSH SCT040 BKN100 29/25 A2977 NOSIG
MRLM 192000Z 02009KT CAVOK 30/24 A2977
MROC 192000Z 25011KT 210V280 9999 SCT030TCU 27/21 A2991 NOSIG
MRPV 192030Z 28006KT 9999 4000N TSRA FEW020CB BKN040 25/20 A2992 NOSIG
MSAC 191950Z 18007KT 5000 TS SCT027 FEW040CB 33/26 Q1010 A2983/ CB/ CAP/ WITH TS TO N
MSLP 191950Z 24012KT 210V270 9999 FEW017 BKN023 FEW037CB 30/26 Q1008 A2977 NOSIG RMK CB NE
MSLU 191950Z 12004KT 9999 FEW037 34/25 Q1006 A2973
MSSA 191950Z 07004KT 9999 FEW030 33/16 Q1015 A2999 DSTN CB S
MSSM 191950Z 21004KT 9999 FEW033 33/25 Q//// A////
MSSS 191950Z 14006KT 9999 SCT038 30/22 Q1012 A2990
MTCH 191958Z 02011KT 8000 SCT023CB 30/23 Q1007 A2975 RMK
MTPP 191959Z AUTO 29011KT 270V330 8000 ////// 31/25 Q1006 A2972 NOSIG
MUCC 191950Z 04013KT 9000 SCT020 30/22 Q1009
MUCF 191953Z 05011KT 020V090 9999 BKN020 32/21 Q1009
MUCL 191950Z 04010KT 9000 FEW020 32/22 Q1009
MUCM 191950Z 35009KT 9000 BKN018 27/25 Q1009
MUCU 191951Z 20007KT 9000 SCT020CB 30/23 Q1007
MUGM 191956Z 16010KT 9999 FEW030 SCT180 BKN280 31/25 A2977 RMK SLP081 CB DSNT NE AND W-NW SHRA DSNT NE AND W-NW T2 SET T03110250
MUHA 191955Z 05016KT 020V080 9000 SCT030 31/19 Q1011
MUHG 191950Z 07011KT 9000 SCT020TCU BKN100 25/22 Q1008
MUSC 191950Z 06014KT 9000 BKN020 30/19 Q1010
MUVR 191950Z 05017KT 9000 FEW020 30/19 Q1011
MWCB 192000Z 05007KT 030V120 9999 SCT018TCU 31/24 Q1008
MWCR 192000Z 07013KT 9999 SCT020 32/25 Q1008
MYGF 192000Z 09018KT 9999 FEW022 SCT040 29/24 A2993
MYNN 192000Z 05015KT 9999 VCSH SCT018TCU 29/21 A2989
MZBZ 192000Z 08005KT 9999 SCT025 32/25 A2980 Q1009 NOSIG
NCAT 192000Z AUTO 01002KT //// ////// ///// Q1008
NCMG 192000Z AUTO 17007KT //// ////// 22/16 Q1010
NCMH 192000Z AUTO 23001KT //// ////// 25/24 Q1012
NCMK 192000Z AUTO 20006KT //// ////// 25/17 Q1013
NCMR 192000Z AUTO 21005KT //// ////// 25/19 Q1014
NCPY 192000Z AUTO 34003KT //// ////// 29/25 Q1012
NCRG 192030Z AUTO 13003KT 070V240 9999 SCT030/// BKN039/// BKN046/// 23/16 Q1015
NCRK 192000Z AUTO 18002KT //// ////// 27/26 Q1012
NFFN 192000Z 13004KT 9999 FEW030 SCT300 25/20 Q1016 NOSIG
NFNA 192000Z 15007KT 9999 -SHRA BKN018 BKN045 23/21 Q1017
NFTF 192000Z 13008KT 9999 FEW014 22/15 Q1018
NFTL 192000Z 10007KT 9999 SCT018TCU 23/18 Q1017
NFTV 192000Z 14005KT 9999 FEW017 24/18 Q1016
NGFU 192000Z VRB02KT 9999 VCSH SCT018TCU BKN110 27/25 Q1011
NGTA 192000Z 36004KT 9999 FEW020 30/24 Q1010
NIUE 192000Z 16009KT 120V180 9999 SCT018 BKN030 23/18 Q1016
NSTU 191950Z 16009KT 12SM FEW021 SCT040 BKN110 27/20 A2995 RMK SLP142 T02720201
NTAA 192030Z 23009KT 9999 FEW023 SCT040 27/21 Q1013 NOSIG
NVSC 191800Z AUTO 02006KT //// // NCD 26/23 Q1014
NVSG 191800Z AUTO 17006KT //// // NCD 25/21 Q1015
NVSL 191800Z AUTO 13008KT //// // NCD 24/23 Q1014
NVSS 192000Z 12010KT 9999 FEW020 BKN120 25/21 Q1015
NVVA 191800Z 13008KT 9999 FEW025 21/17 Q1018
NVVV 192000Z 09007KT 9999 -SHRA BKN020 23/22 Q1015 INTER 2000/2100 9999 -SHRA BKN018
NVVW 192000Z 09016KT 9999 SCT025 24/18 Q1016
NWWW 192030Z AUTO VRB02KT 9999 SCT049 SCT058 22/16 Q1020 BECMG 13015KT
NZAA 192030Z AUTO 10002KT 9999 BKN042/// 12/09 Q1033 NOSIG
NZCH 192030Z AUTO 24006KT 9999 OVC070/// 11/07 Q1038 NOSIG
NZCM 191755Z 13018G24KT 3200 -SN OVC025 M28/M33 A2918 RMK AO2A PK WND 12027/1651 SLP890 T12831328
NZSP 191750Z 08008KT 4800 BR FEW025 SCT060 M66/ A2816 RMK CLN AIR 08011KT ALL WNDS GRID
NZWN 192030Z AUTO 17010KT 9999 SCT014/// BKN020/// OVC090/// 11/09 Q1036 TEMPO BKN014
OAHR 191955Z VRB02KT CAVOK 22/00 Q1017 RMK A3003 BLU
OAIX 191958Z 34014KT 9999 CLR 24/M08 A3005 RMK AO2A SLP081 T02401083 $
OAJL 191955Z 00000KT 9999 CLR 28/16 A2988 RMK AO2A SLPNO T02770159
OAKB 191950Z 02009KT CAVOK 23/M08 Q1021 NOSIG RMK A3017 BLU BLU
OAKN 191956Z VRB03KT 9999 CLR 23/M09 A2990 RMK AO2A SLP070 WND DATA ESTMD Q1013 PA3315 DA5030 T02321095 403590162
OAMS 191950Z 15007KT 9999 SKC 27/M04 Q1013 BLU+BLU+
OBBI 192030Z 06002KT 7000 SKC 32/27 Q1006 NOSIG
OEAB 192000Z 05008KT CAVOK 23/M03 Q1024 NOSIG
OEAH 192000Z 33004KT CAVOK 32/15 Q1007 NOSIG
OEAO 192000Z 06006KT CAVOK 37/M04 Q1013
OEAR 192000Z 00000KT CAVOK 35/20 Q1007
OEBA 192000Z 00000KT CAVOK 26/05 Q1020 NOSIG
OEBH 192000Z 12005KT CAVOK 26/04 Q1015 NOSIG
OEDF 192000Z VRB03KT CAVOK 30/24 Q1006 NOSIG
OEDM 192000Z 08009KT CAVOK 30/M02 Q1016
OEDR 192000Z VRB03KT CAVOK 31/25 Q1005 NOSIG
OEGN 192000Z 03004KT 7000 NSC 31/28 Q1006 NOSIG
OEGS 192000Z 03005KT CAVOK 31/07 Q1014
OEGT 192000Z 35006KT 9999 SCT040 31/05 Q1012 NOSIG
OEHL 192000Z 10006KT CAVOK 30/00 Q1019
OEJB 192000Z AUTO 28005KT CAVOK 28/24 Q1007 NOSIG
OEJN 192000Z 34006KT CAVOK 32/25 Q1006 NOSIG
OEKJ 191800Z 09004KT 9000 NSC 34/04 Q1013
OEKM 192000Z 07005KT CAVOK 23/00 Q1024 NOSIG
OEMA 192000Z 08014KT CAVOK 37/M01 Q1013 NOSIG
OENG 192000Z 06004KT CAVOK 27/01 Q1015 NOSIG
OEPA 192000Z 36005KT CAVOK 32/12 Q1012 NOSIG
OERF 192000Z 06007KT CAVOK 34/03 Q1013
OERK 192000Z 06003KT 8000 NSC 31/08 Q1013 NOSIG
OERR 192000Z 14007KT CAVOK 30/12 Q1013 NOSIG
OERY 191900Z 05010KT 8000 SKC 36/M04 Q1013
OESH 192000Z 05006KT CAVOK 32/05 Q1010 NOSIG
OESK 192000Z 12009KT CAVOK 31/01 Q1017
OETB 192000Z 12008KT 9999 SCT040 32/01 Q1014 NOSIG
OETF 192000Z 09005KT CAVOK 29/02 Q1020 NOSIG
OETR 192000Z 13003KT CAVOK 28/06 Q1015
OEWD 192000Z 07006KT CAVOK 31/10 Q1010
OEWJ 192000Z 32003KT CAVOK 32/18 Q1005 NOSIG
OEYN 192000Z 28008KT CAVOK 33/20 Q1003 NOSIG
OIAA 191950Z 25006KT CAVOK 29/09 Q1006
OIAG 191700Z 34006KT CAVOK 32/M01 Q1006
OIAH 192000Z 00000KT CAVOK 30/M00 Q1008
OIAI 192000Z 15006KT CAVOK 32/02 Q1007
OIAM 192000Z 27019KT CAVOK 31/08 Q1005
OIAW 192030Z 27006KT CAVOK 31/08 Q1004
OIBA 191500Z 32004KT CAVOK 34/26 Q1005
OIBB 191950Z 00000KT 5000 HZ NSC 30/26 Q1006
OIBJ 191500Z 22008KT CAVOK 32/18 Q1012
OIBK 192000Z 29004KT 3000 BR NSC 32/29 Q1005
OIBL 191800Z 32006KT 6000 NSC 32/27 Q1005
OIBP 191700Z 00000KT 8000 NSC 32/27 Q1006 A2971
OIBQ 191500Z 12004KT 5000 BR NSC 33/30 Q1005
OIBS 191500Z 30006KT CAVOK 34/26 Q1005
OICC 191951Z 11004KT CAVOK 16/M13 Q1019 A3010
OICI 192000Z 05002KT CAVOK 19/M07 Q1020 A3013
OICJ 192000Z AUTO 33004KT //// // ////// 21/M07 Q1022
OICK 191951Z 13004KT CAVOK 21/M06 Q1017
OICM 192000Z AUTO 31006KT //// // ////// 30/02 Q1007
OICS 192000Z 00000KT CAVOK 16/M06 Q1020 A3014
OIFK 192000Z AUTO VRB03KT //// // ////// 27/M01 Q1013
OIFM 192030Z 27002KT CAVOK 18/M06 Q1020 A3013
OIFS 191953Z 07002KT CAVOK 12/M02 Q1025
OIGG 192000Z 00000KT 4000 BR NSC 23/23 Q1017
OIGK 192000Z AUTO VRB02KT //// // ////// 12/05 Q1024
OIHH 192000Z 16004KT CAVOK 15/M07 Q1022 A3019
OIHM 192000Z 11006KT CAVOK 17/M04 Q1023 A3023
OIIE 192030Z 29012KT CAVOK 25/06 Q1015
OIII 192030Z 32008KT CAVOK 29/M05 Q1016 A3002
OIIK 191951Z 27004KT CAVOK 18/09 Q1018
OIIP 191800Z 27014KT CAVOK 25/06 Q1017 A3004
OIIS 192000Z 36002KT CAVOK 28/01 Q1016
OIKB 192030Z 05008KT 5000 BR NSC 30/27 Q1006 A2971
OIKK 191950Z 17004KT CAVOK 20/M12 Q1022 A3018
OIKO 192000Z AUTO 00000KT //// // ////// 28/23 Q1007
OIKQ 192000Z 09008KT 7000 NSC 30/26 Q1005
OIMB 192000Z 10004KT CAVOK 20/M05 Q1020
OIMC 191950Z AUTO 30004KT //// // ////// 25/11 Q1014
OIMD 191953Z AUTO 22010KT //// // ////// 24/01 Q1015
OIMM 192030Z 20006KT 9999 FEW040 23/08 Q1019 A3009
OIMN 192000Z 09010G19KT CAVOK 22/13 Q1020
OIMQ 192000Z AUTO 05010KT //// // ////// 26/03 Q1017
OIMT 192000Z AUTO 07004KT //// // ////// 31/01 Q1011
OINB 192000Z 00000KT CAVOK 24/23 Q1016
OINE 192000Z AUTO 14002KT //// // ////// 24/19 Q1017
OING 192000Z 20004KT 9999 FEW035 SCT090 23/21 Q1018
OINK 192000Z AUTO VRB01KT //// // ////// 26/18 Q1016
OINN 192000Z 00000KT CAVOK 21/20 Q1016
OINR 192000Z 00000KT CAVOK 22/20 Q1015
OINZ 192000Z 16004KT 3000 BR BKN090 22/20 Q1016
OISA 192000Z 31004KT CAVOK 21/M08 Q1024 A3024
OISF 192000Z 00000KT CAVOK 22/01 Q1012 A2989
OISL 192000Z 00000KT CAVOK 29/15 Q1011
OISR 191500Z 27004KT CAVOK 36/07 Q1009 A2980
OISS 192030Z 31004KT CAVOK 27/08 Q1018 A3007
OISY 192000Z 00000KT CAVOK 21/01 Q1024
OITL 191950Z 09008KT CAVOK 13/12 Q1022
OITM 191800Z 09010KT CAVOK 19/M04 Q1019
OITP 192000Z 13016KT CAVOK 21/18 Q1015
OITR 191954Z 26004KT CAVOK 15/05 Q1019
OITT 192030Z 04004KT CAVOK 17/M04 Q1021 A3016
OITU 191950Z 00000KT CAVOK 18/03 Q1019
OITZ 191500Z 34004KT CAVOK 27/05 Q1020
OIYY 191950Z 15006KT CAVOK 31/M01 Q1017
OIZB 192000Z 33018KT CAVOK 31/07 Q1008
OIZH 192000Z 21006KT CAVOK 19/M06 Q1017 A3006
OIZI 192000Z 01004KT CAVOK 31/04 Q1009
OIZJ 191800Z 12004KT 8000 NSC 30/26 Q1006
OJAI 192000Z 31005KT 6000 NSC 26/17 Q1015 NOSIG
OJAM 192000Z 32002KT 5000 HZ NSC 28/14 Q1016 NOSIG
OJAQ 192000Z 35012KT CAVOK 33/18 Q1010 NOSIG
OKAS 191955Z 33009KT 9999 CLR 34/04 A2981 RMK AO2A SLP088 WND DATA ESTMD T03350044
OKBK 192000Z 35009KT CAVOK 36/08 Q1008 NOSIG
OLBA 192000Z 09002KT 9999 FEW027 27/24 Q1013 NOSIG
OMAA 192000Z VRB05KT CAVOK 32/28 Q1005 NOSIG
OMAD 192000Z 05004KT CAVOK 32/29 Q1005 NOSIG
OMAL 192000Z 09006KT CAVOK 34/10 Q1007 NOSIG
OMDB 192000Z VRB04KT CAVOK 34/25 Q1005 NOSIG
OMDW 192000Z 01002KT CAVOK 30/25 Q1006 NOSIG
OMFJ 192000Z 06002KT 6000 NSC 31/23 Q1006 RMK A2972
OMRK 192000Z 07002KT CAVOK 28/21 Q1006 A2972
OMSJ 192000Z VRB02KT CAVOK 30/25 Q1006 NOSIG
OODQ 191950Z AUTO 20012KT 9999 OVC029 24/24 Q1009 NOSIG RMK RH96? 0
OOMS 191950Z VRB02KT CAVOK 28/24 Q1006 NOSIG
OOSA 191950Z 18006KT 9999 BKN018 26/24 Q1009 NOSIG
OOSH 191950Z AUTO 21004KT //// 30/25 Q1006 RMK 1002
OPIS 192025Z 13008KT 2000 BR FEW040 SCT100 23/23 Q1012 RH100
OPKC 192030Z 26010KT 6000 SCT020 27/25 Q1007 NOSIG
OPLA 191955Z 09008KT 4000 FU NSC 25/22 Q1010 NOSIG RMK A29.85
OPMT 192030Z 13006KT 4000 FU NSC 30/24 Q1007 NOSIG
OPNH 192000Z 18004KT 4000 HZ NSC 28/20 Q1006 NOSIG
OPPS 192000Z 23004KT 4000 HZ FEW040 FEW100 26/20 Q1011
OPSK 192000Z 00000KT 4000 HZ NSC 30/26 Q1004 NOSIG
OPST 192000Z 09004KT 4000 FU FEW040 25/23 Q1012 NOSIG RH88
ORBD 191855Z 32006KT 9999 SKC 28/06 A2983 RMK WND DATA ALSTG ESTMD LAST
ORBI 192000Z 33006KT CAVOK 28/07 Q1010 NOSIG
ORER 192000Z VRB01KT 9000 NSC 22/M02 Q1014 NOSIG
ORMM 192000Z 25010KT CAVOK 30/11 Q1007 NOSIG
ORNI 192000Z 30005KT 8000 NSC 32/03 Q1010 NOSIG
ORSU 192000Z 30005KT CAVOK 17/01 Q1017
OSDI 192000Z 24007KT CAVOK 26/11 Q1014
OSKL 191800Z 33008KT CAVOK 26/11 Q1013
OSLK 192000Z 05003KT CAVOK 23/21 Q1012
OTBD 192030Z 13001KT 6000 NSC 32/29 Q1006 NOSIG
OTBH 191956Z 00000KT 6000 BR CLR 32/27 A2973 RMK AO2A SLP069 WND DATA ESTMD ALSTG/SLP ESTMD $
OTHH 192000Z VRB02KT 6000 NSC 31/27 Q1006 NOSIG
PAAD 192035Z AUTO 25006KT 10SM OVC006 01/01 A2966 RMK AO2 T00120005
PAAK 192042Z AUTO 09004KT 10SM -RA OVC010 12/11 A2954 RMK AO2 RAB31 CIG 008V013 PNO $
PAAQ 191953Z AUTO 36007KT 10SM FEW090 SCT120 13/09 A2964 RMK AO2 SLP038 T01280094 TSNO
PABA 191952Z 18003KT 10SM 03/M01 A2967
PABE 191953Z 01004KT 10SM SCT080 06/03 A2958 RMK AO2 SLP019 T00560028
PABI 191953Z 32007KT 7SM BKN008 OVC015 07/06 A2966
PABL 191856Z AUTO 15004KT 10SM CLR 02/M01 A2968 RMK AO2 SLP053 T00171006 FZRANO
PABR 191953Z 21003KT 10SM OVC050 03/03 A2959
PABT 191953Z 00000KT 7SM FEW004 SCT018 BKN026 03/01 A2963 RMK AO2 SLP045 T00280006
PABV 191956Z AUTO 04008KT 10SM FEW050 BKN060 12/08 A2965 RMK AO2 RAE25 SLP047 P0000 T01170083
PACD 191953Z 14008KT 10SM FEW007 BKN050 OVC090 11/09 A2957
PACM 191956Z AUTO 00000KT 10SM CLR 07/03 A2966 RMK AO2 SLP039 T00720028
PACV 192000Z 05006KT 10SM BKN012 OVC017 11/09 A2976 RMK AO2 T01110089
PACZ 191955Z 03006KT 10SM FEW160 07/01 A2961
PADE 191953Z AUTO 21008KT 10SM OVC030 06/02 A2965 RMK AO2 SLP041 T00560022 TSNO $
PADG 191958Z 18006KT 15SM FEW005 SCT013 BKN060 02/01 A2958
PADK 192033Z AUTO 35012KT 1 1/4SM -RA BR OVC003 11/10 A2958
PADL 191956Z 01008KT 10SM OVC005 08/07 A2958
PADM 192002Z AUTO 07004KT 10SM CLR 08/03 A2965 RMK AO2 SLP046 T00780033
PADQ 191953Z 13005KT 10SM CLR 14/08 A2966
PADU 191956Z 00000KT 8SM SCT016 BKN035 BKN080 OVC130 10/08 A2955 RMK AO2 SLP009 T01000078
PAEC 191846Z 18010KT 4SM -DZ BR SCT006 OVC010 09/07 A2958 RMK NOSPECI
PAED 191956Z 01005KT 10SM OVC070 14/08 A2963
PAEG 191953Z AUTO 00000KT 10SM BKN035 BKN049 OVC055 11/08 A2961 RMK AO2 SLP032 T01110083 TSNO
PAEH 192040Z 04006KT 10SM BKN013 BKN110 08/05 A2958
PAEI 191958Z 22003KT 10SM -RA BKN006 BKN022 OVC036 07/05 A2965 RMK AO2A RAB58 SLP047 $
PAEL 191845Z 24012KT 10SM SCT012 BKN030 13/11 A2981 RMK SPB E27012KT SEA 0 SWELL 2 SW NOSPECI
PAEN 191953Z 19013KT 10SM BKN090 14/08 A2963
PAFA 191953Z VRB04KT 8SM SCT013 BKN021 OVC065 07/04 A2965
PAFB 191958Z 28005KT 10SM -RA BKN008 OVC012 06/06 A2966
PAFE 191956Z AUTO 14006KT 10SM FEW065 OVC100 14/12 A2993 RMK AO2 SLP148 T01390117
PAFM 191956Z AUTO 17004KT 10SM CLR 02/M03 A2969 RMK AO2 SLP068 T00171028 FZRANO
PAFR 191958Z AUTO 02007KT 10SM OVC070 13/08 A2961
PAGA 191956Z AUTO 00000KT 10SM CLR 03/01 A2969
PAGH 191956Z AUTO 27003KT 10SM CLR 03/01 A2968 RMK AO2 SLP057 T00330006 PNO $
PAGK 191953Z AUTO 16016G22KT 10SM BKN060 13/04 A2968 RMK AO2 SLP054 T01330039 TSNO
PAGL 191956Z AUTO 29005KT 10SM CLR 05/02 A2968 RMK AO2 SLP048 T00500022
PAGM 191956Z AUTO 04007KT 10SM OVC037 05/01 A2974 RMK AO2 SLP076 T00500011
PAGN 192015Z AUTO VRB04KT 2SM BR FEW007 OVC044 12/11 A2991 RMK AO2 VIS 1/2V5
PAGS 192040Z AUTO VRB04KT 10SM FEW020 BKN029 OVC043 15/11 A2987 RMK AO2
PAGY 191953Z AUTO 21025G30KT 10SM -RA OVC060 13/09 A2977 RMK PK WND 21030/1953 SLP081 P0000 T01330094 TSNO VIA AUTODIAL
PAHN 191954Z AUTO 09007KT 10SM OVC011 13/11 A2980 RMK SLP095 T01330106 TSNO VIA AUTODIAL
PAHO 191953Z 00000KT 10SM SCT065 OVC080 11/09 A2965 RMK AO2 SLP042 T01110094
PAHP 191956Z AUTO 05003KT 10SM CLR 07/03 A2966 RMK AO2 SLP081 T00720033 PNO $
PAHX 192043Z AUTO 02005KT 10SM SCT002 04/03 A2966 RMK AO2 PWINO $
PAIG 192042Z AUTO 14008KT 10SM BKN018 OVC042 12/12 A2961 RMK AO2 $
PAII 192041Z AUTO 17008KT 7SM -RA BKN008 BKN016 OVC060 12/11 A2961 RMK AO2 RAB1957 CIG 006V012 P0000 TSNO
PAIK 191956Z AUTO 11003KT 10SM OVC024 04/01 A2968 RMK AO2 SLP053 T00390006
PAIL 192023Z 20005KT 10SM SCT016 BKN031 OVC090 12/10 A2964 RMK AO2 RAE14 P0000 T01170100
PAIM 192030Z AUTO 17003KT 10SM SCT005 02/01 A2964
PAIN 192027Z AUTO 02005KT 10SM -RA FEW018 SCT036 OVC045 06/04 A2961 RMK AO2 P0000
PAIW 191956Z AUTO 27004KT 10SM OVC021 04/01 A2969 RMK AO2 SLP057 T00440011
PAJC 192030Z AUTO 02004KT 10SM FEW007 OVC016 11/09 A2960 RMK AO2
PAJN 191953Z 08006KT 10SM FEW004 BKN030 OVC043 12/11 A2986
PAKH 191956Z AUTO 20007KT FEW013 OVC034 12/09 A2969 RMK AO2 SLP055 T01220094 PWINO $
PAKI 192041Z AUTO 03004KT 10SM BKN008 07/06 A2958 RMK AO2 CIG 007V011
PAKK 191956Z AUTO 00000KT 10SM CLR 03/01 A2965 RMK AO2 SLP053 T00280011
PAKN 192020Z 19008KT 2SM -RA BR BKN008 BKN016 OVC050 11/10 A2957
PAKP 191956Z AUTO 20008KT 10SM CLR 00/M03 A2955 RMK AO2 SLP053 T00001033 FZRANO
PAKT 191953Z 34005KT 10SM FEW008 BKN023 OVC031 14/12 A2997
PAKU 191945Z 24005KT 7SM R24/P6000FT BKN006 BKN010 BKN018 02/02 A2964
PAKV 191953Z AUTO 08003KT 10SM CLR 06/00 A2970 RMK SLP060 T00560000 TSNO VIA AUTODIAL
PAKW 191951Z AUTO 26004KT 6SM -RA BR SCT013 BKN018 OVC025 13/12 A2994 RMK RAB31 P0003 TSNO VIA AUTODIAL
PALG 191956Z AUTO 09007G15KT 060V130 10SM CLR 05/02 A2959 RMK AO2 SLP025 T00500017
PALH 191953Z VRB04KT 10SM FEW055 OVC070 14/08 A2964 RMK AO2 SLP037 T01390078
PALJ 191855Z 06005KT 20SM SCT010 BKN050 OVC050 11/09 A2960 RMK EST PASS CLSD NOSPECI
PALP 191955Z 21006KT 10SM FEW002 SCT010 BKN018 02/01 A2965
PALU 191955Z AUTO 20015KT 10SM CLR 03/00 A2955
PAMB 192022Z AUTO 04008KT 4SM BR OVC002 08/08 A2958 RMK AO2 RAB01E16 P0000 $
PAMC 191853Z 00000KT 10SM SCT002 02/01 A2967 RMK AO2 SLP053 VIS S 2 T00220011 $
PAMD 191951Z AUTO 18009KT 9SM FEW016 SCT028 14/12 A2975 RMK AO2 SLP065 T01390117
PAMH 191956Z AUTO 00000KT 10SM SCT010 OVC021 03/01 A2967 RMK AO2 SLP048 T00280006
PAMK 191956Z AUTO VRB04KT 10SM CLR 08/01 A2966 RMK AO2 SLP043 T00780011
PAMM 191956Z AUTO 23003KT 10SM OVC039 14/12 A2998 RMK AO2 SLP143 T01390117 $
PAMR 191953Z 01003KT 10SM OVC075 14/07 A2963 RMK AO2 SLP034 T01440067 PNO
PAMY 191956Z AUTO 04008KT 10SM CLR 09/04 A2961 RMK AO2 SLP028 T00890039
PANA 191956Z AUTO 03003KT 10SM CLR 05/03 RMK AO2 SLPNO T00500033 $
PANC 191953Z 15010KT 10SM FEW055 BKN070 BKN120 14/09 A2963
PANI 191956Z AUTO 10006KT 10SM CLR 03/02 A2961 RMK AO2 SLP031 T00330022
PANN 192011Z AUTO 28006KT 10SM BKN015 OVC025 07/03 A2965
PANT 191853Z AUTO VRB04KT 10SM CLR 15/13 A2995 RMK SLP142 T01500133 TSNO VIA AUTODIAL
PANW 192037Z AUTO 00000KT 9SM -RA FEW007 BKN026 OVC038 09/09 A2959 RMK AO2 P0000
PAOH 191756Z AUTO 00000KT 10SM FEW033 OVC045 14/11 A2983 RMK AO2 SLP100 60001 T01390111 10139 20106 51013
PAOM 191953Z 00000KT 10SM BKN055 02/01 A2967
PAOO 191956Z AUTO 33005KT 10SM CLR 07/03 A2960 RMK AO2 SLP035 T00720028
PAOR 191953Z 09004KT 10SM CLR 13/06 A2962
PAOT 191953Z 24011KT 10SM BKN040 07/02 A2963
PAOU 191956Z AUTO 19004KT 10SM BKN060 11/08 A2959 RMK AO2 SLP021 T01060078 PNO $
PAPB 192009Z AUTO 07005KT 10SM -RA SCT007 SCT016 OVC021 09/08 A2957 RMK AO2 P0000 T00940083 TSNO
PAPG 191956Z 08005KT 10SM FEW016 SCT028 OVC037 12/12 A2993 RMK AO2 SLP137 T01220117
PAPH 191956Z AUTO 20005KT 10SM -RA BKN050 OVC060 11/09 A2962 RMK AO2 RAB13 SLP031 P0000 T01110089
PAPM 191956Z AUTO 36006KT 10SM CLR 07/04 A2958 RMK AO2 SLP018 T00720044
PAPO 191956Z AUTO 20012KT 8SM -RA BKN016 OVC026 05/02 A2955 RMK AO2 SLP007 P0000 T00500022
PAPT 191854Z 28004KT 3SM PRFG BKN006 OVC050 07/06 A2958 RMK NO SPECI. PRFG ALL QDNTS
PAQH 191906Z AUTO 34003KT 3SM BR BKN001 OVC090 02/02 A2958 RMK AO2 FZRANO
PAQT 192032Z AUTO 21006KT 10SM BKN013 BKN018 OVC025 02/01 A2966
PARS 191956Z AUTO 02004KT 10SM CLR 04/03 A2961 RMK AO2 SLP031 T00440028 $
PARY 192034Z AUTO 28003KT 5SM BR BKN002 03/02 A2966
PASA 191956Z AUTO 02006KT 10SM FEW022 05/01 A2973 RMK AO2 SLP069 T00500006
PASC 191953Z 23006KT 10SM FEW007 SCT019 OVC033 02/01 A2964
PASD 191956Z 04004KT 10SM FEW018 SCT023 BKN036 11/08 A2960 RMK AO2 SLP025 T01060083 $
PASH 191956Z AUTO 22014KT 10SM -RA BKN015 OVC021 05/03 A2966 RMK AO2 RAB1858E22B44 SLP044 P0005 T00500033
PASI 191953Z 20008KT 7SM -RA SCT029 BKN038 OVC050 13/11 A2991
PASK 191956Z AUTO 24008KT 10SM OVC029 06/03 A2968 RMK AO2 SLP046 T00560028
PASL 191956Z AUTO 00000KT 10SM FEW002 OVC014 03/03 A2969 RMK AO2 SLP050 T00280028
PASM 192002Z AUTO 35005KT 10SM CLR 04/01 A2964 RMK AO2 SLP046 T00390011
PASN 191953Z AUTO 06010KT 10SM -RA FEW015 SCT021 OVC027 09/07 A2957 RMK SLP015 P0001 T00890072 TSNO VIA AUTODIAL
PASO 191953Z AUTO 18005KT 10SM OVC070 13/08 A2964 RMK AO2 SLP038 T01330083 TSNO
PASV 192006Z AUTO 00000KT 10SM BKN008 OVC015 06/06 A2959
PASX 191956Z AUTO 22011G17KT 10SM SCT090 15/07 A2965 RMK AO2 SLP049 T01500067
PASY 191955Z 34011KT 10SM FEW016 SCT040 10/07 A2991 RMK AO2A SLP131 T00980071 RVRNO $
PATA 191959Z 27005KT 9SM OVC010 04/02 A2967 RMK AO2 LIMITED VISIBILITY EAST & NORTH T00440022
PATC 191955Z AUTO 30007KT 10SM BKN018 04/01 A2967
PATG 192012Z AUTO 19003KT 10SM OVC015 09/06 A2957 RMK AO2
PATK 191953Z 20010KT 10SM BKN030 OVC070 13/07 A2964 RMK AO2 SLP039 T01280072
PATL 191955Z AUTO VRB02KT 10SM FEW200 03/02 A2967
PATO 192036Z AUTO VRB06KT 10SM FEW018 OVC034 11/09 A2970 RMK AO2 T01110094 TSNO
PATQ 191914Z AUTO 21006KT 9SM OVC026 02/01 A2960
PAUN 191956Z AUTO 07009KT 10SM CLR 04/M02 A2967 RMK AO2 SLP052 T00391017 PNO $
PAUT 192035Z AUTO 10007KT 10SM SCT004 BKN075 OVC090 11/10 A2955 RMK AO2 T01060101
PAVA 191956Z AUTO 04004KT 10SM CLR 06/04 A2963 RMK AO2 SLP118 T00610039 PNO $
PAVC 192006Z AUTO 00000KT 10SM SCT018 SCT040 OVC070 09/09 A2959 RMK AO2
PAVD 191956Z 00000KT 5SM -RA BR FEW001 BKN040 BKN065 10/09 A2974
PAWD 191953Z AUTO 00000KT 10SM BKN042 OVC049 12/09 A2968 RMK AO2 SLP051 T01170089 TSNO
PAWG 191948Z 11003KT 10SM SCT029 BKN070 OVC085 13/12 A2994
PAWI 191953Z AUTO 16005KT 10SM BKN022 03/M02 A2958 RMK SLP016 T00331022 TSNO VIA AUTODIAL
PAWM 191956Z AUTO 35006KT 10SM OVC060 05/00 A2967 RMK AO2 SLP051 T00500000
PAWN 191956Z AUTO 00000KT 10SM BKN038 03/01 A2965 RMK AO2 SLP051 T00330011
PAWS 191956Z AUTO 07005KT 10SM OVC120 13/09 A2966 RMK AO2 RAE15 SLP048 P0000 T01280089
PAYA 192042Z AUTO 27005KT 10SM SCT015 15/11 A2982 RMK AO2 T01500111 TSNO
PFCL 192022Z AUTO 01004KT 10SM SCT007 BKN013 OVC020 11/11 A2957 RMK AO2 TSNO
PFEL 191956Z AUTO 07007KT 10SM CLR 06/00 A2957 RMK AO2 SLP015 T00560000
PFKT 192030Z AUTO 09004KT 10SM BKN028 05/02 A2971 RMK AO2
PFKW 191756Z AUTO 02003KT 10SM CLR 01/01 A2958 RMK AO2 SLP015 T00110011 10011 21011 56007 FZRANO
PFNO 191956Z AUTO 19004KT 10SM OVC035 05/03 A2966 RMK AO2 SLP045 T00500028
PFWS 192024Z AUTO 21006KT 10SM FEW010 BKN023 OVC050 11/11 A2961 RMK AO2
PFYU 191956Z 00000KT 10SM BKN006 OVC021 04/03 A2963
PGRO 192020Z VRB03KT 7SM SCT012 BKN100 24/22 A2977 RMK FIRST
PGSN 191954Z 01004KT 10SM FEW038 26/24 A2977 RMK AO2 SLP103 T02610244
PGUA 192039Z 34003KT 10SM SCT014 BKN055 25/23 A2981 RMK RAE12DZB12E16 SLP085 $
PGUM 192043Z 06009KT 10SM FEW014 BKN019 OVC065 26/23 A2981 RMK AO2 T02610233
PGWT 191959Z 06004KT 7SM FEW015 FEW035 SCT060 SCT100 SCT150 25/25 A2976
PHBK 192029Z AUTO VRB06KT 10SM BKN031 BKN035 31/23 A2995 RMK AO2 T03060228
PHHI 192016Z AUTO 10007KT 10SM SCT028 29/21 A2999 RMK AO2 SLP142
PHJH 191945Z 10008G15KT 10SM FEW040 30/20 A2997
PHJR 191953Z VRB06KT 10SM BKN060 31/22 A2998 RMK AO2 SLP158 T03060217
PHKO 191953Z 30009KT 10SM SCT045 29/22 A2993
PHLI 191953Z 08013KT 10SM FEW018 OVC050 30/24 A3000
PHMK 191954Z 01006KT 10SM FEW030 31/20 A2998 RMK AO2 SLP152 T03060200
PHNG 192011Z COR 09008KT 10SM SCT026 SCT031 31/22 A2996 RMK T03060222
PHNL 191953Z 08009G15KT 10SM FEW025 SCT045 SCT200 27/21 A2997
PHNY 191956Z AUTO 18005KT 10SM SCT022 27/21 A3004 RMK AO2 SLP148 T02720206
PHOG 191954Z 06014G19KT 10SM FEW030 SCT050 32/20 A2995
PHSF 191958Z AUTO 00000KT 10SM CLR 21/11 A3030 RMK AO2 SLP134 T02070108 $
PHTO 191953Z 25005KT 10SM OVC055 28/21 A2998
PKMR 191954Z 31006KT 15SM FEW015 SCT050 BKN300 29/24 A2983 RMK SLP103 T02890240
PKWA 192040Z AUTO 33008KT 10SM -RA SCT034 SCT044 SCT055 26/23 A2982 RMK AO2 P0001 T02580231
PLCH 192000Z 17005KT 9999 FEW020 31/22 Q1011
PMDY 192041Z AUTO 05010KT 8SM BKN020 BKN025 BKN100 29/24 A2981 RMK AO2
PPIT 191956Z AUTO 03007KT 10SM CLR 06/04 A2959 RMK AO2 SLP019 T00560039 TSNO
PPNU 192035Z AUTO 21007G14KT 10SM BKN023 02/01 A2965 RMK AO1
PTKK 191953Z VRB03KT 15SM FEW014 BKN280 28/26 A2981 RMK SLP098 T02750259
PTRO 191950Z 00000KT 14SM SCT016 BKN120 BKN300 24/23 A2986
PTTP 191950Z 12003KT 15SM SCT018 25/24 A2987 RMK SLP115 T02470240
PTYA 191950Z VRB02KT 12SM FEW016 BKN130 OVC300 25/23 A2987 RMK SLP115 T02450234
PWAK 191958Z AUTO 04009KT 9999 FEW023 29/24 A2977 RMK AO2 SLP087 T02910238 $
RCKH 192000Z 04002KT 9999 FEW015 BKN060 BKN080 25/21 Q1004 NOSIG RMK A2967
RCMQ 192030Z 02018KT 9999 FEW012 SCT020 BKN050 23/20 Q1006 RMK A2973
RCNN 192030Z 02006KT 9999 FEW012 BKN060 22/17 Q1005 RMK A2968
RCSS 192000Z 31004KT 9999 -RA FEW008 BKN030 BKN050 24/22 Q1007 NOSIG RMK A2976 RA AMT 0.2MM
RCTP 192030Z 03019G30KT 9999 -RA FEW015 BKN022 BKN035 25/21 Q1008 WS ALL RWY NOSIG RMK A2977
RJAA 192030Z 01007KT 9999 FEW030 17/15 Q1016 NOSIG RMK 1CU030 A3001
RJAH 192000Z 01004KT 9999 FEW030 SCT050 15/12 Q1016
RJAW 192000Z 32004KT 9999 FEW010 SCT230 27/25 Q1012 RMK 2CU010 A2989
RJBB 192030Z AUTO 07008KT 9999 NCD 19/14 Q1016 NOSIG
RJCC 192030Z 24004KT 180V310 9999 FEW030 BKN060 11/09 Q1011 RMK 1CU030 5CU060 A2986
RJDK 192000Z AUTO 08006KT 350V130 9999 NCD 22/18 Q1012
RJFF 192030Z AUTO VRB02KT 9999 NCD 18/16 Q1013 NOSIG RMK A2992
RJFR 192000Z 03008KT 9999 FEW030 21/16 Q1013
RJGG 192030Z 34013KT 9999 FEW030 SCT040 20/14 Q1015 NOSIG
RJKI 192000Z AUTO 12010KT 080V160 9000 -RA FEW039 SCT080 BKN090 24/23 Q1005
RJNK 192000Z VRB02KT 9999 OVC/// 14/12 Q1017
RJNY 191451Z 02003KT 9999 FEW025 SCT050 23/18 Q1014 RMK 1CU025 3SC050 A2996
RJOH 192000Z VRB02KT 9999 BKN/// 17/13 Q1016
RJOI 191955Z 02013KT 9999 FEW030 20/13 A2997 RMK SLP149 T02000133
RJOO 192000Z 32003KT 9999 FEW030 16/13 Q1016 RMK 1CU030 A3000
RJOS 192000Z 30003KT 250V350 9999 FEW030 SCT150 18/14 Q1015
RJSD 192000Z AUTO VRB02KT 9999 NSC 13/11 Q1017
RJSH 191550Z 19008KT 9999 FEW030 SCT100 14/11 Q1012 RMK 1CU030 3AC100 A2989
RJSM 192000Z 18005KT 160V240 9999 FEW030 SCT230 17/12 Q1012
RJSS 192030Z 20006KT 9999 FEW040 BKN/// 16/10 Q1015 RMK 1SC040 A2999
RJTT 192030Z 03010KT 9999 FEW030 SCT060 20/16 Q1016 NOSIG RMK 1CU030 3SC060 A3001
RJTY 191956Z AUTO 01007KT 10SM OVC036 19/16 A3007 RMK AO2 SLP181 T01900158 FZRANO $
RKJB 192000Z 07004KT 9999 FEW030 16/16 Q1015 NOSIG
RKJK 191956Z AUTO 00000KT 10SM FEW190 FEW230 18/15 A2998 RMK AO2 SLP156 T01760145 $
RKNY 192000Z AUTO 24006KT 9999 NCD 17/10 Q1017
RKPC 192000Z 11009KT 9999 FEW030 20/15 Q1014 NOSIG
RKPK 192000Z 35004KT CAVOK 16/12 Q1016
RKSG 191956Z 00000KT 6SM HZ OVC200 17/17 A3001 RMK AO2A SLP165 T01650165 $
RKSI 192030Z 05007KT CAVOK 16/09 Q1016 NOSIG
RKSM 192000Z 02002KT 9999 BKN200 16/12 A3003
RKSO 191958Z 08004KT 7SM BKN200 15/13 A3001 RMK AO2A SLP165 T01470130 PNO $
RKSS 192000Z 34002KT CAVOK 15/11 Q1017 NOSIG
RKTN 192000Z 11003KT CAVOK 16/13 Q1017
RKTU 192000Z 19001KT CAVOK 15/14 Q1016
ROAH 192030Z 11014G25KT 9999 -SHRA FEW010 SCT020 FEW030CB BKN040 27/25 Q0997 RMK 2CU010 4CU020 2CB030 6SC040 A2946 CB 15KM NE MOV W
RODN 192041Z AUTO 09016G25KT 1 7/8SM +RA BR FEW006 FEW014 OVC021 26/24 A2950 RMK AO2 VIS 1 1/4V1 7/8 VIS 1 1/8 RWY05 RAB14 CIG 016V021 CIG 019 RWY05 SLP995 $
ROMD 192000Z AUTO 14016G26KT 080V160 9000 BKN020 BKN029 OVC160 29/26 Q1003
RORK 192000Z AUTO 13030KT 6000 BKN021 BKN029 BKN031 29/26 Q1003
RORY 192000Z AUTO 10013KT 9999 FEW026 BKN060 BKN070 //////TCU 27/26 Q1000
ROTM 192040Z 09015G24KT 5SM -RA BR BKN008 BKN026 OVC043 26/25 A2950 RMK AO2 PK WND 12033/2015 RAB35 P0000 T02610250 $
ROYN 192000Z AUTO 35035KT 5000 -RA BR OVC032 27/23 Q1002
RPLB 192000Z VRB01KT 9999 FEW018 BKN080 24/23 Q1008 NOSIG RERA RMK A2977
RPLC 192000Z 22004KT 4000 -RA SCT018 OVC090 24/23 Q1008 RMK A2977
RPLI 191800Z 11003KT 8000 FEW018 BKN290 24/24 Q1007 NOSIG RMK A2974
RPLL 192000Z 24006KT 9999 SCT020 BKN090 26/24 Q1007 NOSIG RMK A2974
RPMD 192000Z 00000KT 9999 FEW016 SCT290 25/23 Q1011 RMK A2985
RPMZ 191800Z 05005KT 9000 FEW017 BKN300 25/22 Q1011 RMK A2985
RPVD 191800Z 29004KT 9999 FEW015 OVC220 25/23 Q1010 RMK A2983
RPVM 192000Z 21003KT 9999 FEW020 BKN250 27/23 Q1010 RMK A2983
RPVP 191800Z 27004KT 9999 FEW019 BKN240 25/23 Q1010 RMK A2983
SAAC 191900Z 23006KT 9999 SCT020 23/09 Q1006
SAAG 191900Z 23018KT CAVOK 18/03 Q1008
SAAJ 191900Z 23019G33KT CAVOK 15/M11 Q1011
SAAP 191900Z 16021KT CAVOK 16/M03 Q1012
SAAR 192000Z 18017KT CAVOK 16/M05 Q1012
SAAV 192000Z 20019KT 160V220 CAVOK 17/M04 Q1012
SABE 192000Z 19007KT 130V250 CAVOK 16/M08 Q1011 NOSIG
SACO 192000Z 17015KT CAVOK 15/M12 Q1015 NOSIG
SADF 192000Z 19014KT CAVOK 18/M04 Q1011
SADM 191900Z 18019KT CAVOK 15/M04 Q1010
SADO 192000Z 23015KT CAVOK 15/M05 Q1011
SADP 192000Z 18013KT CAVOK 16/M06 Q1011
SAEZ 192000Z 22013G25KT 160V240 CAVOK 15/M06 Q1011 NOSIG
SAME 191900Z 09003KT CAVOK 16/M12 Q1015
SAMM 192000Z 25019G38KT 9999 FEW035 13/M32 Q1015
SAMR 191900Z 09006KT CAVOK 15/M13 Q1015
SANC 191900Z 18010KT 9999 BLDU FEW045 27/00 Q1007
SANE 192000Z 16015G24KT 4000 DU 24/M04 Q1008
SANL 192000Z 18006KT 9999 DU 25/02 Q1009
SANT 192000Z 16021KT 3000 BLDU NSC 25/04 Q1007
SANU 192000Z 14015KT CAVOK 18/M16 Q1014
SAOC 192000Z 18018KT CAVOK 15/M15 Q1015 RMK ESTIMATED WIND
SAOU 192000Z 11015G25KT CAVOK 15/M12 Q1014
SARC 192000Z 18009KT 8000 NSC 27/13 Q1003
SARE 191900Z 16009KT CAVOK 28/14 Q1003
SARF 192000Z 20011KT 9000 NSC 26/17 Q1003
SARI 192000Z 18006KT 4000 TS BR BKN006 OVC040 FEW050CB 20/19 Q1004
SARL 191900Z 18012KT CAVOK 26/10 Q1004
SARP 192000Z 14004KT 8000 OVC020 22/18 Q1005
SASA 192000Z 07014KT CAVOK 29/00 Q1005
SASJ 191900Z 14007KT 9999 NSC 31/M01 Q1002
SATR 192000Z 18019KT 9999 FEW030 24/12 Q1006
SAVC 191900Z 25020G33KT 210V290 9999 SCT040 SCT100 15/M07 Q1000
SAVE 192000Z 29027G43KT 9999 FEW038 07/M05 Q1009
SAVT 192000Z 25019G29KT 190V290 9999 BKN037 15/M11 Q1003
SAVV 192000Z 25018KT 9999 FEW030 14/M06 Q1006
SAVY 192000Z 23016G33KT 9999 BKN030 15/M02 Q1003
SAWC 192000Z 27015KT 9999 VCSH FEW025 SCT080 10/M05 Q0997
SAWE 192000Z 25021G31KT 9999 FEW020 SCT100 07/M03 Q0985
SAWG 191900Z 25021KT 9999 BKN030 SCT100 07/00 Q0991
SAWH 192000Z 23018KT 9999 VCSH BKN025 BKN100 03/02 Q0985
SAWT 191630Z 25019KT 9999 BKN025 05/M02 Q0994 REDZ
SAZB 192000Z 23015KT CAVOK 15/M09 Q1010
SAZG 191900Z 23016KT CAVOK 18/M09 Q1013
SAZM 192000Z 23013KT 200V270 CAVOK 12/M02 Q1009
SAZN 191900Z 23025G36KT CAVOK 15/M12 Q1014
SAZR 191900Z 23010KT CAVOK 16/M09 Q1013
SAZS 191900Z 29022KT 9999 SCT042 SCT050 06/M02 Q1015
SAZT 192000Z 23015KT CAVOK 13/M12 Q1010
SAZY 192000Z 27018KT 9999 VCSH SCT035 05/M04 Q1015
SBAA 192000Z 09006KT 9999 SCT030 ///// Q1007
SBAF 192000Z 14008KT 6000 FEW020 27/20 Q1008
SBAN 192000Z VRB04KT CAVOK 32/M06 Q1014
SBAQ 192000Z 36006KT CAVOK 36/11 Q1009
SBAR 192000Z 09010KT 9999 SCT020 27/20 Q1014
SBAT 192000Z 36006KT 9999 FEW040 37/19 Q1007
SBAX 191700Z 36012KT CAVOK 34/03 Q1014
SBBE 192000Z 05010KT 9999 SCT040 33/21 Q1008
SBBG 192000Z 20012KT CAVOK 24/10 Q1006
SBBH 192000Z 06008KT CAVOK 32/07 Q1012
SBBI 191900Z 02006KT 9999 -RA FEW008 BKN100 15/14 Q1012
SBBQ 192000Z 01008KT CAVOK 29/10 Q1016
SBBR 192000Z 03006KT 350V070 CAVOK 34/02 Q1014
SBBU 192000Z 29013KT CAVOK 35/16 Q1007
SBBV 192000Z 11003KT 9999 SCT035 FEW040TCU BKN080 33/22 Q1007
SBBW 191900Z 05011KT 9000 NSC 39/12 Q1007
SBCA 192000Z 02022KT 6000 SCT030 26/17 Q1006
SBCB 192000Z 12008KT 9999 SCT015 BKN060 24/21 Q1010
SBCC 192000Z 36009KT 8000 SCT045 32/16 Q1009
SBCF 192000Z 07009KT 9999 FEW045 31/10 Q1013
SBCG 192000Z 32015KT 6000 FEW045 35/18 Q1005
SBCI 192000Z 08005KT CAVOK 38/17 Q1006
SBCJ 192000Z 06005KT 9999 FEW030 32/18 Q1012
SBCO 192000Z 24005KT 210V270 9999 SCT043 BKN070 24/17 Q1003
SBCP 192000Z 07018KT CAVOK 26/21 Q1009
SBCR 192000Z 36009KT 4000 FU NSC 37/20 Q1000
SBCT 192000Z 02011KT 4000 -RA BR SCT007 OVC100 18/17 Q1012
SBCX 192000Z 18004KT 9999 -RA SCT010 BKN100 ///// Q1006
SBCY 192000Z 30015KT CAVOK 39/14 Q1004
SBCZ 191800Z 02004KT 9999 BKN030 34/23 Q1007
SBDN 191900Z 31013G24KT 7000 NSC 37/10 Q1004
SBEG 192000Z 01006KT 9999 SCT025 FEW030TCU 34/20 Q1006
SBEK 192000Z 16006KT CAVOK 36/22 Q1006
SBES 192000Z 10008KT 070V130 7000 BKN020 25/20 Q1010
SBFI 192000Z 19007KT 7000 VCSH BKN010 FEW050TCU OVC070 20/19 Q1004
SBFL 192000Z 33011KT 9999 BKN014 BKN020 20/18 Q1006
SBFN 192000Z 14013KT 9999 FEW020 27/21 Q1013
SBFS 191900Z 05016KT CAVOK 25/// Q1009
SBFZ 192000Z 07012KT 9999 FEW025 28/21 Q1011
SBGL 192000Z 14009KT 9999 FEW020 SCT030 26/19 Q1008
SBGM 191900Z 33008KT CAVOK 35/22 Q1006
SBGO 192000Z 33010KT CAVOK 36/03 Q1010
SBGR 192035Z 20004KT 8000 FEW013 OVC080 21/20 Q1012 RERA
SBGW 192000Z VRB02KT 7000 FEW030 32/13 Q1008
SBHT 192000Z 09006KT 9999 SCT030 35/22 Q1007
SBIC 192000Z 05006KT 9999 FEW020 34/24 Q1007
SBIH 192000Z 10006KT 9999 FEW025 36/22 Q1006
SBIL 192000Z 05010KT 9999 SCT020 FEW025TCU SCT040 27/22 Q1014
SBIP 192000Z 05009KT CAVOK 34/14 Q1009
SBIZ 192000Z 12005KT 9999 SCT020 FEW025TCU 38/19 Q1006
SBJP 192000Z 14012KT 9999 SCT020 26/21 Q1014
SBJR 192000Z 11005KT 9000 NSC 26/21 Q1008
SBJU 192000Z 16009KT 9999 SCT020 36/06 Q1013
SBJV 192000Z 00000KT 4000 BR FEW005 BKN010 BKN050 19/19 Q1008 RETS
SBKG 192000Z 12014KT 9999 FEW030 26/17 Q1015
SBKP 192000Z 01004KT 5000 HZ FEW045 SCT100 33/10 Q1008
SBLB 191600Z AUTO 01033KT 9999 FEW012 24/22 Q1011 W23/S5
SBLE 192000Z 09009KT CAVOK 30/15 Q1014
SBLO 192000Z 13010KT 9000 SCT040 26/18 Q1007
SBLS 192000Z 11008KT 080V140 9999 FEW045 32/09 Q1013
SBMA 192000Z 01005KT 9999 FEW020 FEW025TCU 38/20 Q1007
SBMD 191900Z 10007KT 9999 SCT030 33/24 Q1009
SBME 192000Z 16005KT 7000 NSC 25/20 Q1010
SBMG 192000Z 15008KT 9000 NSC 25/19 Q1004
SBMK 192000Z 02006KT CAVOK 36/02 Q1011
SBML 191900Z 32014KT CAVOK 34/14 Q1007
SBMN 192000Z 07004KT 9999 SCT020 FEW025TCU 34/24 Q1006
SBMO 192000Z 10011KT 9999 FEW020 FEW021TCU 26/21 Q1015
SBMQ 192000Z 06013KT 9999 SCT025 32/24 Q1009
SBMS 191700Z 06013KT 9999 FEW030 38/19 Q1009
SBMT 192000Z 14010KT 6000 SCT049 SCT060 BKN080 25/20 Q1011
SBMY 192000Z 33002KT 9999 FEW023 33/26 Q1006
SBNF 192000Z 26006KT 9999 SCT008 BKN012 FEW030TCU OVC100 20/19 Q1007 RETS
SBNM 192000Z AUTO 29002KT CAVOK 20/18 Q1005
SBNT 192000Z 12014KT 9999 SCT021 28/23 Q1013
SBOI 192000Z 13005KT CAVOK 33/21 Q1009
SBPA 192000Z 23004KT 9999 SCT045 BKN080 24/17 Q1003
SBPB 191945Z 06015KT 9999 FEW020 29/22 Q1008
SBPC 192000Z /////KT 9999 FEW015 29/10 Q1014
SBPF 192000Z 31005KT 3000 -RA SCT005 BKN016 BKN070 17/15 Q1007
SBPJ 192000Z 00000KT CAVOK 37/17 Q1007
SBPK 192000Z 15008KT 9999 FEW025 22/16 Q1005
SBPL 192000Z 15013KT 9999 FEW030 34/12 Q1011
SBPP 192000Z 26008KT 5000 HZ NSC 35/16 Q1004
SBPR 192000Z 10008KT 9999 FEW025 32/10 Q1014
SBPS 192000Z 04013KT 9999 SCT022 26/20 Q1014
SBPV 192000Z 33005KT 9999 TS VCSH SCT040 FEW045CB 31/21 Q1005
SBRB 192000Z 34008KT 9999 SCT040 35/20 Q1006
SBRF 192000Z 12010KT 9999 SCT023 FEW025TCU 26/20 Q1014
SBRJ 192000Z 16008KT 9000 NSC 26/21 Q1008
SBRP 192000Z 32006KT CAVOK 36/07 Q1007
SBSC 192000Z 15004KT 9999 FEW015 SCT050 26/20 Q1008
SBSG 192000Z 17012KT 140V200 9999 FEW025 27/20 Q1013
SBSJ 192000Z 20002KT 8000 SCT030 31/15 Q1009
SBSL 192000Z 04013KT CAVOK 29/23 Q1009
SBSM 192000Z 19005KT 150V240 CAVOK 23/17 Q1004
SBSN 192000Z 09010KT 9999 FEW023 32/25 Q1008
SBSP 192018Z 18014KT 2000 BR BKN005 SCT030 BKN100 20/17 Q1013
SBSR 192000Z 34005KT CAVOK 37/08 Q1007
SBST 192000Z 22006KT 180V250 2500 BR BKN015 23/21 Q1009
SBSV 192000Z 07017KT 9999 FEW020 27/20 Q1014
SBTA 192000Z 07004KT 7000 NSC 31/17 Q1008
SBTC 192000Z 06008KT 9999 SCT025 26/22 Q1014
SBTE 192000Z 09004KT CAVOK 38/14 Q1006
SBTF 192000Z 08008KT 9999 FEW020 35/24 Q1005
SBTT 192000Z 05002KT 9999 SCT020 28/22 Q1006 RETS
SBUA 191900Z 09004KT 9999 FEW020 FEW025TCU SCT080 34/24 Q1005
SBUG 192000Z 20015KT CAVOK 25/07 Q1005
SBUL 192000Z 34008KT CAVOK 34/02 Q1012
SBUR 191800Z 35008KT 5000 FU SCT040 BKN090 34/04 Q1011
SBVH 192000Z 33011KT 300V010 9999 SCT035 FEW040TCU 34/18 Q1009
SBVT 192000Z 05020G30KT CAVOK 26/22 Q1011
SBYS 191800Z 33015KT 9000 NSC 35/12 Q1008
SCAP 192000Z AUTO 20011KT 120V240 9999 -SHRA ////// 07/01 Q1018
SCAR 192000Z 19012KT CAVOK 17/10 Q1016
SCAT 192000Z 26009KT 220V310 9999 FEW030 SCT036 16/05 Q1020
SCBA 192000Z 30027G38KT 9999 FEW030 BKN120 06/M02 Q1008
SCCF 192000Z 27021KT CAVOK 21/M08 Q1024
SCCH 192000Z 22016KT 9999 FEW030 13/02 Q1022
SCCI 192000Z 26025KT 9999 SCT015 BKN130 05/02 Q0990 NOSIG
SCCY 192000Z 26007KT 9999 -SHRA FEW030 BKN040 07/01 Q1010
SCDA 192000Z 24013KT 9999 FEW036 17/08 Q1016
SCEL 192000Z 20015KT 9999 SCT050 BKN210 16/05 Q1019 NOSIG
SCFA 192000Z 20011KT 9999 FEW030 15/06 Q1017 NOSIG
SCFT 192000Z AUTO 27013KT 230V290 CAVOK 08/00 Q1016
SCGE 191900Z VRB11KT 9999 BKN025 13/03 Q1024
SCGZ 191500Z 25016KT 8000 VCSH SCT023 BKN033 04/M01 Q0983
SCIC 192000Z 23010KT CAVOK 15/M02 Q1020
SCIE 192000Z 24016KT 9999 FEW040 13/05 Q1024
SCIP 192000Z 10014KT 9999 FEW020 BKN025 21/14 Q1028 NOSIG
SCIR 192000Z 16018KT 9999 SCT030 BKN040 12/05 Q1028
SCJO 192000Z 21008KT 9999 BKN040 11/04 Q1022
SCMK 192000Z 19010KT 9999 BKN020 10/04 Q1018
SCNT 192000Z 32020G30KT 9999 VCSH FEW030 OVC070 06/02 Q0995
SCON 192000Z AUTO 25007KT 210V310 9999 -SHRA FEW035/// BKN045/// 10/06 Q1021
SCPQ 192000Z 24011KT 9999 VCSH FEW020 BKN040 08/04 Q1021
SCQP 192000Z 24009KT 220V280 9999 SCT025 10/07 Q1024
SCRD 192000Z 33006KT 9999 SCT025 BKN200 14/07 Q1021
SCRG 192000Z 18008KT 9999 SCT060 16/03 Q1020
SCRM 192000Z 02017KT 9999 BKN040 OVC060 M03/M03 Q0978 NOSIG
SCSE 192000Z 27010KT 9999 FEW040 16/07 Q1019
SCSN 192000Z 25014KT 9999 FEW020 SCT250 14/07 Q1021
SCTB 192000Z 21008KT 160V240 8000 BKN060 BKN200 15/05 Q1019
SCTE 192000Z 26012KT 230V290 9999 SCT025 BKN050 10/04 Q1022 NOSIG
SCTN 192000Z VRB02KT 9999 FEW034 09/06 Q1021
SCVD 192000Z 23014KT 9999 SCT040 12/05 Q1023
SCVM 192000Z 33008KT 9999 BKN035 15/09 Q1021
SEAM 192000Z 00000KT 9999 SCT016 BKN100 22/11 Q1023
SECA 192000Z 35016KT 9999 SCT040 OVC200 29/15 Q1012
SECO 192000Z 16004KT 9999 SCT025 SCT100 33/23 Q1006 RMK A2971
SECU 192000Z 16007KT 9999 SCT040 BKN300 22/08 Q1021
SEGS 192000Z 33008KT CAVOK 26/17 Q1011 A2988
SEGU 192000Z 16010KT 9999 FEW023 SCT200 29/21 Q1009 NOSIG RMK A2980
SEJD 192000Z /////KT 9999 VCSH SCT023 BKN300 32/26 Q1007 RMK A2975
SELT 192000Z 36012KT 9999 VCSH BKN040 OVC300 12/08 Q1026 RETS
SEMC 192000Z 02005KT 350V050 9999 VCSH SCT030TCU SCT033 BKN110 24/21 Q1013 RMK A2992
SEMT 192000Z 21010KT 9999 FEW023 29/22 Q1009
SENL 192000Z 05005KT 9999 SCT020 BKN200 32/23 Q1007 RMK A2975
SEQM 192038Z 36008KT 9999 TSRA FEW026CB BKN030 BKN100 18/11 Q1023 BECMG FM2110 RA RMK A3021
SERB 192000Z 09012KT 9999 BKN040 OVC300 21/09 Q1025
SERO 192000Z 31006KT 9999 OVC016 24/21 Q1011
SESA 192000Z /////KT 9999 SCT013 OVC020 23/19 Q1011 RMK A2986
SESG 191700Z 36002KT CAVOK 28/11 Q1014
SESM 192000Z 26004KT 230V320 9999 VCSH SCT030 BKN100 28/18 Q1013 RMK A2991
SEST 192000Z 16016KT 9999 FEW013 BKN040 22/19 Q1010 RMK A2983
SETN 192000Z 28014KT 9999 FEW026 BKN300 28/24 Q1008 A2978
SETU 192020Z 01008KT 9999 TSRA FEW020 BKN023
SFAL 191450Z 19010KT 9999 SCT016 BKN025 04/01 Q0980
SGAS 192000Z 17007KT 8000 BKN015 BKN070 24/16 Q1002
SGEN 192000Z 00000KT 9999 BKN027 BKN060 20/17 Q1004
SGES 192000Z 18008KT 8000 SCT025 OVC070 21/19 Q1003 RETS
SKAR 192000Z 23005KT 170V320 9999 VCSH FEW020TCU BKN025 26/17 A2995 RMK TCU VCSH/E/SE
SKBG 192000Z 33006KT 9999 SCT012 BKN080 23/20 A2993
SKBO 192000Z 29008KT 9999 VCSH SCT020 BKN090 17/11 A3024 NOSIGRMK VCSH/S
SKBQ 192000Z 15004KT 9999 -DZ FEW010 SCT015 OVC100 26/24 A2979 BECMG FM2040 NSW SCT015 BKN100
SKCC 192000Z 02006KT 9999 SCT023 SCT090 32/21 A2976
SKCG 192000Z 21006KT 9999 FEW017 SCT070 27/24 A2977
SKCL 192000Z 02005KT 340V060 9999 FEW030 BKN200 28/19 A2991NOSIG
SKEJ 192000Z VRB02KT 9999 SCT015 SCT090 29/24 A2976
SKIB 192000Z 06006KT 9999 BKN030 BKN100 28/21 A2988
SKIP 192000Z 01009KT 9999 TS FEW012CB SCT018TCU 15/10 A3031 RMK CB/W VCSH/W/N
SKLC 192000Z 20012KT 120V220 9999 FEW017TCU SCT100 30/24 A2979 RMK TCU/SE
SKLT 192000Z VRB02KT 9999 FEW015CB SCT020 29/27 A2970 RETSRA RMK CB/SW
SKMD 192000Z 27004KT 9999 SCT035 SCT080 BKN200 27/15 A3001
SKMR 192000Z 00000KT 9999 BKN017 31/24 A2977
SKMZ 192000Z 29008KT 9999 VCSH SCT020 BKN090 17/11 A3024 NOSIG RMK VCSH/S
SKNV 192000Z VRB03KT 9999 FEW040 BKN230 33/19 A2976
SKPC 192000Z 00000KT 9999 FEW020 SCT080 32/23 A2968
SKPE 192000Z 22008KT 9999 SCT017 27/19 A2998
SKPS 192000Z 34005KT 9999 SCT022 BKN200 23/13 A3007
SKPV 192000Z VRB06KT 9999 SCT017TCU BKN200 30/24 A2977 RMK TCU/S
SKRG 192000Z 20010KT 9999 VCSH SCT015TCU SCT080 21/13 A3019 NOSIG RMK TCU VCSH/NE/E
SKRH 192000Z 29010KT 9999 TS FEW015CB BKN100 29/24 A2973 RMK CB VCSH/SW
SKSM 192000Z 16010KT 9000 -DZ FEW020TCU OVC070 26/23 A2983 RMK TCU/W
SKSP 192000Z 33004KT 290V350 9999 FEW018 SCT200 31/23 A2977
SKUC 192000Z 31004KT 9999 FEW020 SCT200 29/26 A2974
SKUI 192000Z 17005KT 9999 VCSH SCT018TCU SCT200 29/24 A2976 RMK TCU VCSH/W/NW
SKVP 192000Z 22009KT 9999 SCT015TCU BKN200 31/24 A2980 RMK TCU/E/SE
SKVV 192000Z 09004KT 9999 BKN020 32/22 A2977
SLAL 192000Z 30012KT 9999 NSC 24/M08 Q1021
SLCA 192000Z 36004KT 9999 NSC 37/12 Q1001
SLCB 192000Z 28006KT 210V350 9999 FEW040 31/M04 Q1015
SLCO 192000Z 05010KT 9999 FEW027 36/21 Q1005
SLCP 192000Z 33014KT 3000 FU FEW017 35/18 Q1008
SLET 192000Z 31023G39KT 3000 FU FEW020 33/20 Q1002
SLJE 192000Z 35015G25KT 5000 FU FEW020 39/18 Q1005
SLJO 192000Z 32012KT 7000 SCT020 37/22 Q1004
SLLP 192000Z 24009KT 190V330 9999 FEW020 18/M07 Q1033
SLMG 192000Z 32010KT 8000 FEW020 37/22 Q1006
SLOR 191800Z 28006KT 9999 NSC 20/M04 Q1032
SLPS 192000Z 36012KT 4000 FU NSC 38/22 Q1002
SLRB 192000Z 36015G25KT 5000 FU FEW020 39/21 Q1003
SLRI 192000Z 35006KT 5000 FU SCT017 FEW020CB 36/21 Q1005
SLRQ 192000Z 36005KT 8000 FEW020 SCT200 37/25 Q1003
SLRY 192000Z 34016KT 8000 NSC 36/23 Q1005
SLSA 192000Z 33014KT 5000 FU SCT020 BKN200 37/20 Q1003
SLSI 192000Z 36018KT 6000 SCT017 37/18 Q1004
SLTJ 192000Z 09006KT 9999 NSC 34/M04 Q1007
SLTR 192000Z 33012KT 5000 FU FEW025 BKN200 36/22 Q1003
SLVM 192000Z 18005KT 9999 NSC 38/16 Q0996
SLVR 192000Z 33023G34KT 3000 FU SCT017 34/21 Q1003
SLYA 192000Z 00000KT 9999 NSC 34/18 Q1000
SMJP 192000Z 11004KT 070V150 9999 SCT040 34/23 Q1007 NOSIG
SMZO 192000Z 03007KT 9999 SCT030 34/21 Q1007 NOSIG
SOCA 192030Z AUTO 07011KT CAVOK 31/23 Q1009 NOSIG
SPCL 192000Z 05010KT 6000 BKN030 31/23 Q1005 RMK HZ BIRD HAZARD RWY 02/20 PP000
SPEO 192000Z 21016KT CAVOK 23/17 Q1013 RMK BIRD HAZARD RWY 01 PP000
SPGM 192000Z 02003KT 8000 FEW040 BKN120 29/22 Q1009 RMK HZ BIRD HAZARD RWY 19 PP000
SPHI 192000Z 19017KT CAVOK 22/14 Q1012 RMK BIRD HAZARD RWY 19/01 PP000
SPHO 192000Z VRB01KT 9999 FEW045 SCT100 25/04 Q1020 RMK PP000
SPHY 191900Z 05014KT CAVOK 19/02 Q1031 RMK BIRD HAZARD RWY 03/21 PP000
SPJC 192000Z 18011KT 150V220 9999 SCT012 19/14 Q1014 NOSIG RMK PP000
SPJI 192000Z 00000KT CAVOK 35/25 Q1012 RMK PP000
SPJL 192000Z 26006KT CAVOK 21/M11 Q1029 RMK PP000
SPJR 192030Z 32008KT 280V350 9000 VCSH SCT023 OVC043 16/09 Q1024
SPLO 192000Z 15008KT 9999 BKN035 18/14 Q1016 RMK PP000
SPME 192000Z 36008KT 300V030 9999 BKN013 23/18 Q1011 RMK BIRD HAZARD RWY 32/14 PP000
SPMS 192000Z 04004KT FEW010 SCT100 34/23 Q1005 RMK BIRD HAZARD RWY 09/27 PP000
SPNC 192000Z 06016G26KT 020V090 8000 FEW040 OVC100 25/13 Q1016 RMK HZ PP000
SPPY 192000Z 03008KT 9999 SCT028 BKN060 18/11 Q1024 RMK PP000
SPQT 192000Z 05003KT 9999 SCT030 34/25 Q1005 NOSIG RMK BIRD HAZARD PP000
SPQU 192000Z 24009KT 200V270 CAVOK 18/M05 Q1026 NOSIG RMK PP000
SPRU 192000Z 17010KT CAVOK 19/14 Q1013 RMK PP000
SPSO 192000Z 26009KT 9999 FEW025 SCT230 18/14 Q1014 RMK BIRD HAZARD RWY 22/04 PP000
SPST 192000Z 08003KT 9999 SCT020 36/23 Q1005 RMK BIRD HAZARD RWY 17/35 PP000
SPTN 192000Z 23009KT CAVOK 18/10 Q1016 RMK PP000
SPTU 192000Z 31005KT 240V350 9999 FEW025 36/22 Q1003 RMK BIRD HAZARD RWY 01/19 PP000
SPYL 192000Z 18015KT CAVOK 23/15 Q1012 RMK BIRD HAZARD RWY 17/35 PP000
SPZO 192030Z 29017KT 240V330 9999 FEW050 SCT100 21/00 Q1025 NOSIG RMK BIRD HAZARD RWY 28
SUAA 192000Z 18010KT 9999 FEW016 FEW060 BKN200 14/05 Q1009
SUDU 192000Z 18018G28KT 9999 SCT030 SCT080 18/05 Q1008
SULS 192000Z 18016KT 9999 FEW023 SCT200 14/06 Q1009
SUMU 192000Z 20010G23KT CAVOK 15/05 Q1009 NOSIG
SUSO 192000Z 23013KT 9999 SCT030 23/11 Q1007
SVBM 191600Z 09010KT 9999 SCT016 30/20 Q1011
SVMG 192000Z /////KT 9999 SCT010 33/24 Q1007 NOSIG
SVMI 192000Z 07003KT 9999 BNK016 29/23 Q1011
SYCJ 192000Z 01006KT 340V040 9999 FEW016CB 31/25 Q1007 CB ESE-S NOSIG
SYEC 192000Z 03008KT 9999 FEW018CB SCT019 29/25 Q1008 CB W NO SIG
SYKM 191500 01004KT 9000 SCT015 BKN037 OVC080 24/22 Q//// NOSIG
SYLT 191800 08014KT 9999 TS FEW023CB SCT025 35/24 Q//// CB ESE-SW NOSIG
SYMB 191500 11012KT 9999 SCT023 31/25 Q//// NOSIG
TAPA 192000Z 09009KT 050V130 9999 FEW018 30/24 Q1010 NOSIG
TBPB 192000Z 15008KT 9999 VCSH FEW014TCU SCT016 31/24 Q1009 NOSIG
TDCF 192000Z 29002KT 9999 SCT020 32/25 Q1008
TDPD 192000Z 12007KT 9999 SCT017 30/25 Q1010
TFFF 192030Z AUTO 11010KT 9999 FEW028 31/24 Q1009 TEMPO 4000 SHRA FEW015CB BKN020TCU
TFFR 192030Z AUTO 13010KT 9999 SCT027/// SCT035/// BKN072/// ///TCU 30/24 Q1009 BECMG SCT030
TGPY 192000Z 11012KT 9999 FEW020 30/25 Q1008 NOSIG
TIST 191953Z 13011KT 10SM CLR 31/24 A2980
TISX 191953Z 10008KT 10SM SCT040 31/24 A2982
TJBQ 191950Z 07004KT 7SM SCT080 SCT110 26/24 A2982
TJIG 191948Z 10016KT 7SM HZ SCT030 BKN080 31/23 A2979
TJNR 191953Z AUTO 10011KT 10SM CLR 30/25 A2982
TJSJ 191956Z 07013KT 10SM FEW040 SCT150 31/24 A2980
TKPK 192000Z 08011KT 9999 FEW019 30/23 Q1010
TKPN 192000Z 10007KT 9999 SCT022 ////// Q1009
TLPC 192000Z 11010KT 9999 FEW027 31/23 Q1009 NOSIG
TLPL 192000Z 13011KT 9999 FEW029 31/25 Q1009 NOSIG
TNCA 192000Z 27008KT 9999 FEW025 31/24 Q1006 NOSIG
TNCB 191955Z 11010KT 080V170 CAVOK 32/23 Q1005
TNCC 192000Z 08005KT 040V110 9999 FEW025 31/25 Q1006 NOSIG
TNCE 191955Z AUTO 08011KT 060V130 //// // ///////// 31/24 Q1010 RE//
TNCM 192000Z 08011KT 9999 SCT019 31/24 Q1010 NOSIG
TQPF 192000Z 11013KT 9999 FEW020 30/23 Q1010 NOSIG
TRPG 192000Z 11011KT 9999 FEW024 29/25 Q1011
TTCP 192000Z 14011KT 9999 FEW020 30/25 Q1008 NOSIG
TTPP 192000Z 00000KT 9999 -RA FEW008 SCT015 27/25 Q1008 RETS
TUPJ 192000Z 10008KT 10SM SCT018 31/25 A2981 RMK Q1009 VIS35KM
TVSA 192000Z 00000KT 9999 SCT022 29/25 Q1009 NOSIG
TXKF 191955Z 01010KT 9999 SCT028 BKN120 BKN300 25/19 Q1012
UAAA 192030Z 11002MPS 090V150 9999 BKN100 16/07 Q1017 R88/65D NOSIG
UACC 192030Z 25007MPS CAVOK 18/08 Q1009 R22/0///70 TEMPO 24007G12MPS RMK QFE725/0967
UADD 192030Z 21004MPS 9999 NSC 18/02 Q1018 R13/0///65 NOSIG RMK QFE707/0942
UAII 192030Z 13003MPS 5000 FU NSC 18/04 Q1016 R10/0///70 NOSIG RMK QFE727/0969
UAKK 192030Z 26005MPS CAVOK 14/02 Q1012 R23/0///70 NOSIG RMK QFE712/0950
UAOO 192030Z 29002MPS CAVOK 13/08 Q1017 R05/CLRD70 NOSIG RMK QFE751/1001
UARR 192030Z 24004MPS CAVOK 07/05 Q1015 R22/CLRD70 NOSIG RMK QFE757/1010
UASK 192030Z 12004MPS 9999 NSC 14/08 Q1016 R12/090060 NOSIG RMK QFE736/0982
UASP 192030Z 18002MPS CAVOK 13/04 Q1005 R21/0///70 NOSIG RMK QFE743/0991
UASS 191500Z 17002MPS CAVOK 16/04 Q1014 R26/0///60 NOSIG RMK QFE742/0990
UATE 192030Z 35004MPS CAVOK 15/07 Q1019 R30/0///70 NOSIG RMK QFE763/1017
UATG 192030Z 27002MPS CAVOK 09/01 Q1019 R32/CLRD70 NOSIG RMK QFE766/1021
UATT 192030Z 22004MPS CAVOK 06/02 Q1016 R31/70D NOSIG RMK QFE742/0989
UAUU 192030Z 23011MPS CAVOK 08/04 Q1006 NOSIG RMK QFE738/0984
UBBB 192030Z 34019KT 9999 SCT022 21/17 Q1018 R88/D NOSIG
UBBG 192030Z 13010KT 9999 SCT100 20/17 Q1017 R12/CLRD// NOSIG
UBBL 192000Z 10004KT 9999 BKN030 24/20 Q1018 R33/CLRD// NOSIG RMK MT OP
UBBN 192030Z 05006KT 9999 NSC 18/04 Q1016 R14R/CLRD// NOSIG RMK MT OP QFE687
UBBQ 192000Z 00000KT 9999 NSC 18/15 Q1019 R16/////// NOSIG RMK MT OP
UBBY 192000Z 12016KT 9999 SCT100 21/16 Q1021 R33/////// NOSIG RMK MT OP
UBEE 191500Z 16006KT CAVOK 30/13 Q1013 R30/CLRD// NOSIG
UCFL 192000Z 34004MPS 9999 NSC 11/05 Q1027 R07/CLRD95
UCFM 192030Z 12003MPS CAVOK 16/08 Q1016 R08/0///95 NOSIG
UCFO 192030Z 14001MPS CAVOK 15/05 Q1018 R12/0///95 NOSIG
UDSG 192030Z 26005KT 9999 NSC 13/03 Q1021 R02/CLRD70 NOSIG
UDYZ 192030Z 05011KT 9999 NSC 22/02 Q1015 R09/010070 NOSIG
UEEE 192030Z 20004MPS 9999 BKN015 03/02 Q1009 R23L/290150 NOSIG RMK QFE748
UERP 192000Z 18002MPS CAVOK M04/M08 Q1011 R35/090060 NOSIG RMK QFE714
UERR 192000Z 24001MPS CAVOK M04/M04 Q1016 R25/290245 NOSIG RMK QFE731
UGAM 192030Z AUTO 11005KT 090V150 //// ////// 15/12 Q1020
UGKO 192000Z VRB02KT CAVOK 18/17 Q1017 NOSIG
UGSB 192030Z 12007KT CAVOK 18/17 Q1017 NOSIG
UGTB 192030Z 32011KT CAVOK 20/14 Q1020 NOSIG
UHBB 192030Z 25002MPS CAVOK 02/00 Q1012 R36/090060 NOSIG RMK QFE742/0989
UHHH 192030Z 25001MPS 8000 MIFG NSC 05/04 Q1013 R23L/190050 TEMPO 0400 FG RMK QFE753/1005
UHMA 192030Z 01003MPS 9999 FEW003 00/M01 Q1008 R01/////// NOSIG RMK TDZ R01/01003G04MPS END R01/36002G03MPS QFE752/1003
UHMD 192030Z 03001MPS CAVOK 03/M01 Q1007 RMK QFE754/1006
UHMM 192000Z 03001MPS 9999 NSC M04/M04 Q1013 RMK QFE745
UHPP 192030Z 35004MPS 7000 SCT003 OVC014 05/05 Q1010 R34L/CLRD70 NOSIG RMK MT OBSC QFE754/1005
UHSS 192030Z 16001MPS 9999 FEW033CB M00/M00 Q1005 R01/250065 NOSIG RMK MT OBSC QFE753/1004
UHWW 192030Z 00000MPS 9999 NSC 02/01 Q1019 R25L/0///70 NOSIG RMK QFE763
UIAA 192030Z 20002MPS 9999 NSC 07/03 Q1020 R29/70D NOSIG RMK QFE706/0942
UIBB 192030Z AUTO 15002MPS 110V180 9999 // NSC 11/08 Q1017 RMK QFE719/0959
UIII 192030Z 09003MPS CAVOK 05/05 Q1022 R12/60D NOSIG RMK QFE724/0965
UIUU 192030Z 00000MPS 1900 0200NE R26/0650N BCFG SCT001 03/03 Q1023 R26/CLRD60 NOSIG RMK QBB030 MT OBSC QFE723/0964
UKBB 192030Z 26003MPS CAVOK 06/03 Q1018 R88/D NOSIG
UKDD 192030Z 27001MPS CAVOK 08/03 Q1019 R26/090070 NOSIG
UKDE 192000Z 00000MPS CAVOK 10/03 Q1019 R02R/////// NOSIG
UKDR 192030Z 00000MPS CAVOK 08/01 Q1019 R18/09//70 NOSIG
UKHH 192030Z 27002MPS 9999 SCT041 08/04 Q1017 R25/0///81 NOSIG
UKKK 192030Z 27004MPS CAVOK 07/04 Q1019 R26/70D NOSIG
UKKM 192030Z AUTO 26004MPS 9999 // ///048/// 07/05 Q1018
UKLI 192030Z 26004MPS CAVOK 08/05 Q1023 R28/090070 NOSIG
UKLL 192030Z 29002MPS CAVOK 07/04 Q1023 R31/D NOSIG
UKLN 191930Z VRB01MPS CAVOK 09/03 Q1022 R33/09//70 NOSIG
UKLR 191500Z 30005MPS 9999 FEW031CB SCT031 13/03 Q1019 R29/090070 NOSIG
UKLU 191500Z 33006MPS 300V360 9999 SCT043CB BKN043 14/01 Q1023 R10/090070 NOSIG
UKOH 191900Z 22001MPS CAVOK 12/06 Q1020 R03/CLRD// NOSIG
UKOO 192030Z 31003MPS CAVOK 12/05 Q1021 R16/090060 NOSIG
UKWW 191700Z 26002MPS 230V300 9999 NSC 09/04 Q1020 R31/0///65 NOSIG
ULAA 192030Z 20001MPS 9999 FEW020 01/01 Q1007 R08/290060 NOSIG RMK QFE754/1006
ULLI 192030Z 20002MPS CAVOK 04/00 Q1012 R28L/090060 NOSIG
ULMM 192030Z 27004MPS 9999 BKN018CB 02/M01 Q1003 R31/250055 NOSIG RMK QFE745
ULOO 192000Z AUTO 00000MPS 1300 1100NE // NSC 01/00 Q1014 RMK QFE757
ULPB 192000Z AUTO 24002MPS 220V310 9999 // ///050/// 04/01 Q1011 RMK QFE754/1006
ULWC 191930Z 00000MPS CAVOK M00/M01 Q1011 R03/010060 NOSIG RMK QFE749/0998
UMGG 192000Z 25005MPS 9000 FEW056CB BKN069 07/06 Q1017 R28/290050 NOSIG
UMII 191600Z 31001MPS 9999 BKN034CB 08/05 Q1013 R23/290050 NOSIG
UMKK 192030Z 02006G11MPS 330V050 7000 -SHRA BKN024CB 08/06 Q1021 R06/290095 NOSIG RMK QFE765/1020
UMMG 191521Z 29009G12MPS 6000 -SHRA BKN023CB BKN066 11/07 Q1018 NOSIG
UMMS 192030Z 25001MPS 9999 SCT036 03/03 Q1016 R31R/290057 R31L/290050 NOSIG
UNAA 192030Z 34001MPS 1200 0450W R02/P2000D PRFG NSC 09/09 Q1017 R02/090065 NOSIG RMK QFE740
UNBB 192030Z 18003MPS CAVOK 16/05 Q1012 R24/CLRD66 NOSIG RMK QFE736
UNEE 192030Z 17005MPS CAVOK 15/08 Q1011 R23/CLRD60 NOSIG RMK QFE735
UNKL 192030Z 00000MPS 9000 NSC 09/08 Q1014 R29/CLRD65 NOSIG RMK QFE735
UNNT 192030Z 16005MPS CAVOK 16/08 Q1006 R25/090070 R16/090070 NOSIG RMK QFE745/0993
UNOO 192030Z 24008G14MPS 9999 SCT033 15/02 Q0999 R25/CLRD60 NOSIG RMK QFE741
UNTT 192030Z 18005MPS CAVOK 14/09 Q1007 R21/090060 NOSIG RMK QFE741
UOOO 192000Z 07005MPS CAVOK 06/01 Q0995 R19/CLRD60 NOSIG RMK QFE730/0974
URKA 192030Z 11002MPS 9999 SCT/// 12/10 Q1020 R04/010070 NOSIG RMK QFE761/1014
URKK 192030Z 34002MPS 9999 FEW///CB 14/10 Q1020 R23L/19//65 NOSIG RMK QFE761
URMG 192030Z 10004MPS CAVOK 16/10 Q1018 R08/090070 NOSIG RMK QFE749/0999
URML 192030Z 25003MPS 9999 NSC 16/12 Q1019 R14/01//70 NOSIG RMK QFE764/1019
URMM 192030Z 10004MPS 9999 NSC 13/03 Q1019 R12/090070 NOSIG RMK QFE736/0981
URMN 192000Z 00000MPS 9999 OVC/// 16/11 Q1018 R24/////// NOSIG RMK QFE727
URMO 191800Z 10003MPS 9999 SCT049 BKN/// 15/10 Q1020 R09/010070 NOSIG RMK QFE721/0962
URMT 192030Z 00000MPS 9999 SCT040 14/05 Q1019 R25/010070 NOSIG RMK QFE726
URRP 192030Z 27002MPS 9999 FEW/// 11/08 Q1019 R23/CLRD70 NOSIG RMK QFE756/1008
URSS 192030Z 05002MPS 9999 NSC 17/14 Q1016 R02/010070 R06/010070 NOSIG RMK R06/00000MPS QFE761
URWA 192030Z 27004MPS CAVOK 12/04 Q1020 R27/010070 NOSIG RMK QFE766/1022
URWI 192030Z AUTO 29001MPS 9999 // ///100/// 14/M01 Q1020
URWW 192030Z 27002MPS CAVOK 07/04 Q1018 R24/010070 NOSIG
USCC 192030Z 27007MPS 9999 SCT030CB 08/05 Q1001 R27/000060 NOSIG RMK QFE731
USCM 192030Z 26006MPS 6000 OVC030CB 09/03 Q1008 R18/090065 TEMPO 29015MPS RMK QFE718
USHH 192030Z 03003MPS 350V060 4700 -SHRA BKN007CB 09/08 Q0980 R06/290050 TEMPO 1000 SHRA BKN004 OVC010CB
USNN 192030Z 15012G20MPS 130V210 9999 -RA OVC008 12/11 Q0984 R03/290350 NOSIG RMK QFE734
USPP 192030Z 30004MPS 9999 BKN011 08/07 Q1001 R21/090060 TEMPO 1400 SHRA SCT005 BKN011CB RMK QFE740
USRR 192030Z 08007G13MPS 7000 -SHRA BKN005 BKN026CB 10/10 Q0980 R07/250350 NOSIG RMK OBST OBSC QFE730
USSS 192030Z 28007MPS 9999 BKN017 OVC033CB 08/06 Q0998 R26R/290035 NOSIG RMK QFE728/0971
USTR 192030Z 26009MPS 9999 BKN016CB 07/06 Q0989 R21/290060 R30/290060 TEMPO 27015G25MPS 2000 SHRA VV005 RMK QFE733/0977
UTAA 192000Z 22004KT 9999 BKN100 26/14 Q1014 R88/70D NOSIG
UTAK 192000Z 31004KT 7000 SCT006 21/19 Q1016 R16R/CLRD70 BECMG 3000 BR BKN005
UTAM 192000Z 02004KT 6000 SCT066 SCT100 24/12 Q1013 NOSIG
UTAT 192000Z 03004KT CAVOK 20/11 Q1016 NOSIG
UTAV 192000Z 36006KT CAVOK 24/09 Q1013 NOSIG
UTDD 192030Z 00000MPS 9999 NSC 18/07 Q1017 R09/D NOSIG RMK QFE694/0926
UTDK 192030Z 02008MPS 9999 NSC 22/M01 Q1016 R01/09//70 RMK QFE704/0939
UTDL 192030Z 24002MPS 9999 NSC 17/09 Q1015 R26/CLRD70 NOSIG RMK QFE724/0965
UTDT 192030Z 00000MPS 9999 FEW166 18/14 Q1014 R35/////// RMK QFE721/0961
UTFF 191500Z 00000KT 9999 NSC 25/05 Q1017 R18/CLRD70
UTFN 192000Z 32006KT 9999 NSC 19/06 Q1016 R28/CLRD70 NOSIG
UTNN 192030Z 00000KT CAVOK 17/10 Q1017 R33/CLRD60 NOSIG
UTNU 192030Z 00000KT CAVOK 17/11 Q1016 R31/CLRD70 NOSIG
UTSA 192030Z 08004KT 9999 NSC 18/03 Q1015 R07/CLRD70 NOSIG
UTSB 192030Z 35008KT CAVOK 20/09 Q1014 R01/CLRD70 NOSIG
UTSK 192030Z 06002KT CAVOK 21/08 Q1013 R16/CLRD70
UTSS 192030Z 13008KT 6000 NSC 21/07 Q1016 R09/70D NOSIG
UTST 192030Z 05002KT CAVOK 19/07 Q1013 R88/CLRD70 NOSIG
UTTT 192030Z 07006KT CAVOK 19/06 Q1016 R08R/CLRD70 NOSIG
UUBC 192000Z AUTO 29001MPS 9000 // NSC 03/02 Q1013 RMK QFE742/0990
UUBP 191500Z 24002MPS 9999 SCT033 10/06 Q1013 R34/CLRD70 NOSIG RMK QFE742/0990
UUBW 192030Z 33003MPS 9999 SCT033 07/05 Q1012 R30/010060 NOSIG
UUDD 192030Z 31003MPS 270V330 9999 -SHRA BKN028CB 08/04 Q1012 R88/70D NOSIG
UUDL 192030Z 33002MPS CAVOK 05/03 Q1011 R23/010060 NOSIG RMK QFE750
UUEE 192030Z 31003MPS CAVOK 06/05 Q1012 R88/290051 NOSIG
UUMO 192030Z 31002MPS 9999 -RA OVC033 07/07 Q1012 R26/290050 NOSIG RMK QFE743/0991
UUOB 192030Z 26003MPS CAVOK 07/04 Q1016 R29/010060 NOSIG
UUOK 191900Z 27003MPS 9999 SCT033 08/05 Q1015 R30/CLRD65 NOSIG RMK QFE743/0990
UUOL 192030Z 23003MPS CAVOK 07/06 Q1013 R15/090060 NOSIG
UUOO 192030Z 24003MPS CAVOK 08/04 Q1014 R12/090070 NOSIG RMK QFE747
UUWW 192030Z 28003MPS CAVOK 06/04 Q1012 R24/290050 NOSIG
UUYY 192030Z 31002MPS 9999 FEW036 02/00 Q1004 R36/61D NOSIG RMK QFE744/0992
UWGG 192030Z VRB01MPS 9999 FEW020 06/06 Q1010 R36R/190060 NOSIG
UWKD 192030Z 30004MPS CAVOK 07/06 Q1007 R29/70D NOSIG RMK QFE744/0993
UWKE 192030Z 24005MPS 9999 SCT036CB 07/05 Q1006 R21/210370 NOSIG RMK QFE738/0984
UWKS 192030Z 32003MPS 9999 SCT011CB 06/06 Q1009 R24/290255 NOSIG RMK QFE742
UWLW 192000Z 27004MPS 8000 NSC 09/06 Q1009 R20/CLRD60 NOSIG RMK QFE751
UWOO 192030Z 22004MPS CAVOK 09/05 Q1013 R26/65D NOSIG RMK QFE749/0999 MOD TURB IAO 0M-3000M
UWOR 192000Z 27007MPS CAVOK 08/04 Q1013 R25/CLRD65 NOSIG RMK QFE736/0981
UWSG 192030Z 27003MPS 9999 BKN033 08/07 Q1014 R26/290060 NOSIG RMK QFE757/1010
UWUU 192030Z 19005MPS 9999 BKN030 09/06 Q1007 R32L/1///56 NOSIG
UWWW 192030Z VRB01MPS 9999 SCT033 08/06 Q1010 R33/190055 NOSIG RMK QFE747/0996
VAAH 192030Z 06005KT 4000 HZ FEW020 BKN080 27/25 Q1006 NOSIG
VAAU 191800Z 05002KT 3000 RA FEW012 SCT020 BKN080 24/23 Q1010 NOSIG
VABB 192030Z 11005KT 2500 HZ SCT018 FEW030CB BKN090 26/25 Q1005 NOSIG
VABO 191600Z 14008KT 6000 SCT020 27/25 Q1006 NOSIG
VABP 191800Z 05004KT 3000 SCT004 SCT020 FEW030CB OVC080 23/22 Q1011 NOSIG
VABV 191500Z 06007KT 4000 -TS HZ FEW025 FEW030CB SCT080 29/24 Q1006
VAID 191800Z 07006KT 4000 HZ SCT020 BKN100 24/23 Q1010 NO SIG
VANP 192000Z 06002KT 3000 HZ FEW020 SCT025 BKN100 25/24 Q1009 NOSIG
VASU 192030Z 13002KT 5000 HZ SCT020 BKN080 27/26 Q1005 NOSIG
VCBI 192010Z 13004KT 100V190 9000 SCT008 BKN015 25/25 Q1010 RESHRA NOSIG
VCRI 191810Z 24011KT 210V270 9000 -SHRA FEW017 FEW019TCU BKN080 25/25 Q1012 NOSIG SW
VDPP 192030Z VRB01KT 9000 SCT017 SCT040 26/25 Q1008
VDSR 192030Z 32002KT 8000 SCT015 SCT040 25/25 Q1008
VDSV 192030Z 00000KT 9000 SCT015 FEW017CB 24/24 Q1009 CB
VEBN 192030Z 08004KT 3000 HZ FEW025 SCT100 28/25 Q1008 NOSIG
VEBS 192030Z 00000KT 4000 HZ FEW018 27/26 Q1008 NOSIG
VECC 192030Z 00000KT 3500 HZ FEW020 28/26 Q1008 NOSIG
VEDG 192030Z 22006KT 2800 HZ NSC 26/24 Q1010 NOSIG
VEGT 192000Z 00000KT 3000 TS FEW018 FEW025CB SCT100 28/25 Q1009 NOSIG
VEGY 192000Z 07004KT 2500 HZ SCT018 BKN100 27/26 Q1009
VEJH 191630Z 00000KT 5000 TS SCT017 FEW030CB OVC080 26/25 Q1011
VEPT 192000Z 00000KT 3500 BR SCT018 BKN100 27/25 Q1008 NOSIG
VERC 191900Z 00000KT 3000 HZ SCT018 SCT100 24/24 Q1013 NOSIG
VERP 191800Z 07004KT 5000 TSHZ FEW020 FEW030 26/24 Q1010 NOSIG CB TO S
VGEG 191700Z 21005KT 4000 RA SCT008 FEW030CB OVC100 27/25 Q1010 NOSIG
VGHS 192030Z 00000KT 3500 HZ SCT100 29/25 Q1008 NOSIG
VHHH 192030Z 17003KT 140V230 CAVOK 26/22 Q1009 NOSIG
VIAR 192030Z 00000KT 2000 BR FEW035 SCT090 25/22 Q1011 NOSIG
VIDN 191500Z 00000KT 2500 BR SCT025 SCT060 24/23 Q1013
VIDP 192030Z 00000KT 4000 BR FEW100 27/23 Q1009 NOSIG
VIJP 192030Z 00000KT 2500 HZ SCT030 25/24 Q1009 NOSIG
VILK 192030Z VRB02KT 2500 BR SCT020 SCT025 BKN100 24/23 Q1009 NOSIG
VLVT 191600Z 34002KT 3000 BR BKN040 27/26 Q1011 NOSIG
VMMC 192030Z 25003KT 9999 FEW020 27/24 Q1009 NOSIG
VNKT 191950Z 07003KT 7000 FEW010 BKN100 18/18 Q1019 NOSIG
VOBG 191800Z 27008KT 6000 SCT012 FEW025CB SCT080 24/21 Q1014 NOSIG
VOBL 192030Z 27008KT 6000 SCT010 BKN080 21/21 Q1013 NOSIG
VOBZ 191800Z 00000KT 3500 HZ FEW020 BKN080 27/26 Q1008 NOSIG
VOCB 192000Z 22012KT 5000 BR SCT012 BKN080 25/22 Q1010 NOSIG
VOCI 192030Z 10003KT 4000 BR FEW008 SCT012 BKN080 26/24 Q1009 TEMPO 3000 BR
VOCL 192030Z 22002KT 3000 BR SCT002 SCT012 BKN080 26/25 Q1008 NOSIG
VOGO 191900Z 14005KT 6000 FEW010 SCT014 BKN080 24/24 Q1008 TEMPO 4000 RA
VOHS 192030Z 20004KT 5000 -RA SCT015 FEW030CB BKN100 24/23 Q1010 NOSIG
VOHY 191600Z 00000KT 5000 -DZ SCT015 FEW030CB BKN080 25/24 Q1012 NOSIG
VOKN 192030Z VRB01KT 3000 BR FEW004 SCT012 BKN080 24/24 Q1009 NOSIG
VOMD 191800Z 06002KT 4000 BR FEW018 BKN100 25/24 Q1010 NOSIG
VOML 192030Z 00000KT 3000 BR FEW012 SCT080 25/24 Q1009 NOSIG
VOMM 192030Z 00000KT 5000 BR FEW020 SCT100 28/26 Q1007 NOSIG
VOMY 191500Z 26010KT 6000 FEW015 24/22 Q1014
VOND 191530Z 11003KT 3000 HZ BKN018 OVC080 27/25 Q1009 NOSIG
VORY 191500Z 10004KT 5000 HZ SCT018 FEW030CB BKN090 28/27 Q1008 NOSIG
VOTP 191600Z 00000KT 5000 -DZ SCT015 FEW025CB BKN080 28/25 Q1008
VOTR 192030Z 23003KT 5000 BR SCT016 BKN080 25/25 Q1007 NOSIG
VOTV 192030Z VRB02KT 4000 HZ SCT015 BKN080 27/24 Q1009 TEMPO 3000 BR
VOVZ 191800Z VRB02KT 6000 FEW018 SCT080 27/26 Q1009 NOSIG
VRMM 192000Z 28008KT 9999 FEW018TCU BKN270 29/24 Q1010 NOSIG
VTBD 192030Z 00000KT 7000 FEW010 SCT040 25/25 Q1009 NOSIG
VTBS 192030Z VRB01KT 9999 FEW020 25/24 Q1008 NOSIG
VTBU 192030Z 02002KT 7000 -RA FEW018CB SCT100 25/23 Q1008 NOSIG
VTCC 192030Z 36004KT 340V050 9999 BKN035 24/23 Q1012 NOSIG
VTCT 192000Z 00000KT 7000 SCT007 24/24 Q1011 NOSIG
VTSB 191500Z 16004KT 8000 SCT020 OVC100 25/24 Q1011
VTSC 191500Z VRB01KT 5000 BR FEW020 BKN100 25/25 Q1011 NOSIG
VTSG 192000Z VRB02KT 5000 BR FEW020 BKN100 24/24 Q1010 NOSIG
VTSM 191500Z 31003KT 9999 FEW020 28/24 Q1012 NOSIG
VTSP 192030Z 33004KT 300V030 9000 SCT020 26/23 Q1011 NOSIG
VTSR 191800Z 00000KT 9999 SCT020 25/25 Q1011 NOSIG
VTSS 192030Z 07002KT 5000 BR FEW020 SCT100 24/24 Q1009 NOSIG
VTST 191800Z 00000KT 6500 FEW020 25/24 Q1010 NOSIG
VTUD 191500Z 12002KT 9000 NSC 26/26 Q1011 NOSIG
VTUI 191500Z VRB01KT 8000 SCT025 BKN100 26/26 Q1011 NOSIG
VTUK 192000Z 05005KT 7000 FEW030 BKN100 26/24 Q1009 NOSIG
VTUU 192000Z 00000KT 9999 SCT007 BKN012 OVC025 25/24 Q1009 NOSIG
VVCI 192030Z 35003KT 5000 BR NSC 26/26 Q1010 NOSIG
VVCR 192030Z 29002KT 9999 SCT013 BKN050 27/26 Q1010 NOSIG
VVCT 192030Z 13002KT 8000 FEW013 SCT040 25/25 Q1009 NOSIG
VVDN 192030Z 00000KT 8000 FEW015 SCT060 25/25 Q1010 NOSIG
VVNB 192030Z VRB03KT 6000 NSC 25/24 Q1011 NOSIG
VVPB 192030Z 21002KT 3000 BR FEW010 SCT070 25/25 Q1010 NOSIG
VVPQ 191730Z 22003KT 8000 FEW017 SCT040 25/24 Q1011 NOSIG
VVTS 192030Z 04001KT 9999 FEW017 SCT050 25/24 Q1009 NOSIG
VYMD 191830Z 12004KT 6000 BKN0018 FEW020CB 27/25 Q1010
VYYY 192030Z 33008KT 4000 TSRA BKN015 FEW018CB OVC100 25/25 Q1008
WAAA 192030Z 14003KT 8000 FEW020 25/20 Q1011 NOSIG
WABB 191700Z 04003KT 9999 SCT018 BKN100 26/24 Q1010 NOSIG
WADD 192030Z 13005KT 9999 SCT016 25/24 Q1013 NOSIG
WADL 191600Z 11009KT 7000 SCT016 24/22 Q1014 NOSIG
WAHS 191530Z 07002KT 6000 FEW014 27/21 Q1012 NOSIG
WAJJ 192030Z 28006KT 5000 -RA FEW010 23/22 Q1011 BECMG NSW
WAMM 192030Z VRB02KT 9999 FEW023 23/21 Q1011 NOSIG
WAPP 192030Z VRB02KT 9999 FEW019 24/23 Q1011 NOSIG
WAQQ 191600Z 03002KT 3000 FEW015 26/25 Q1011
WATT 191700Z AUTO 10005KT 070V130 9999 NCD 21/19 Q1013
WBGB 192000Z VRB03KT 2500 HZ FEW005 SCT016 BKN150 25/24 Q1010
WBGG 192030Z VRB01KT 0400 HZ VV/// 26/25 Q1010 NOSIG
WBGR 192000Z VRB02KT 7000 FEW016 BKN150 24/24 Q1010
WBGS 192000Z 00000KT 1200 BR SCT001 BKN150 25/24 Q1010
WBGY 192000Z AUTO 00000KT //// // 24/23 Q1010
WBKK 192030Z 10005KT 6000 FEW015 SCT140 BKN270 24/22 Q1010 NOSIG
WBKL 192000Z 00000KT 6000 FEW012 SCT140 BKN290 27/25 Q1010
WBKS 192000Z VRB02KT 6000 FEW016 BKN280 25/24 Q1010
WBKT 192000Z VRB02KT 4000 HZ FEW013 BKN270 24/24 Q1010
WBKW 192000Z 00000KT 6000 FEW017 SCT140 BKN270 24/24 Q1010
WBSB 192030Z 20002KT 3000 HZ FEW015 SCT140 BKN280 26/24 Q1010 NOSIG
WIDD 192030Z AUTO 11004KT 9000NDV FEW023 BKN029 BKN036 26/24 Q1011
WIHH 191500Z 06007KT 6000 FEW020 28/24 Q1012 NOSIG
WIII 192030Z 12006KT 080V150 6000 FEW020 27/22 Q1010 NOSIG
WMAU 192000Z AUTO VRB02KT //// // 24/23 Q//// QFF1010
WMBA 192000Z VRB05KT 3000 HZ FEW032 SCT150 BKN270 27/24 Q1009
WMKA 192000Z 00000KT 2000 HZ FEW028 SCT140 BKN270 26/25 Q1009
WMKB 192000Z 04004KT 010V070 2000 HZ FEW024 SCT140 BKN280 26/25 Q1009 NOSIG
WMKC 192000Z VRB01KT 4000 HZ FEW020 BKN280 26/24 Q1009
WMKD 192000Z 00000KT 6000 FEW025 BKN280 26/24 Q1010 NOSIG
WMKE 192000Z AUTO 00000KT //// // 24/24 Q1009
WMKI 192000Z 02004KT 1800 HZ SCT030 SCT140 BKN280 26/23 Q1009
WMKJ 192000Z 00000KT 6000 FEW010 BKN280 24/23 Q1009
WMKK 192030Z 15003KT 110V190 6000 FEW017CB SCT140 BKN280 26/22 Q1009 NOSIG
WMKL 192000Z 00000KT 4000 HZ FEW026 SCT140 BKN270 27/25 Q1009
WMKM 192000Z VRB02KT 9000 FEW030 SCT140 BKN280 26/23 Q1010
WMKN 192000Z 17004KT 100V220 3000 TS HZ FEW017CB SCT150 BKN300 26/24 Q1010
WMKP 192030Z 03004KT 350V070 3000 TS HZ FEW017CB SCT140 BKN270 27/25 Q1009 NOSIG
WMSA 192000Z VRB03KT 2500 HZ FEW017CB BKN270 26/24 Q1010
WSAP 192000Z 13004KT 9999 FEW018 BKN300 28/24 Q1010
WSSL 192000Z 12004KT 9999 FEW018 BKN300 27/23 Q1010
WSSS 192030Z 14008KT 9999 FEW016 BKN300 27/24 Q1010 NOSIG
YABA 192000Z AUTO 32006KT 9999 // SCT037 BKN054 07/06 Q1024
YAMB 192030Z 11003KT 9999 BKN019 13/12 Q1025
YARG 192000Z AUTO 29005KT 9999 // NCD 28/15 Q1013
YAYE 192000Z AUTO 19016KT 9999 // NCD 18/08 Q1010
YAYT 191700Z 06006KT CAVOK 35/M02 Q1012
YBAS 192030Z AUTO 35014KT 9999 // NCD 24/M09 Q1011 RF00.0////./
YBBN 192030Z 21005KT 9999 FEW017 FEW015TCU 15/13 Q1025 FM2130 14006KT 9999 SCT025
YBCG 192030Z AUTO 19003KT 9999 // NCD 14/13 Q1025 RF00.0/000.0
YBCS 192030Z AUTO 17008KT 9999 // SCT051 21/16 Q1017 RF00.0/000.0 NOSIG
YBCV 192000Z AUTO 03006KT 9999 // NCD 16/05 Q1019
YBDV 192000Z AUTO 04009KT //// // ////// 13/M07 Q1012
YBHI 192000Z AUTO 05014KT 9999 // NCD 17/M01 Q1014
YBHM 192030Z AUTO 12016KT 9999 // NCD 22/18 Q1020 RF00.0/000.0
YBLN 192000Z AUTO 00000KT //// // ////// 03/02 Q1027
YBMA 192030Z AUTO 33004G14KT 230V030 9999 // NCD 12/M08 Q1015
YBMK 192000Z AUTO 10011KT 9999 // SCT020 BKN028 21/17 Q1021
YBNA 192000Z AUTO 00000KT 9999 // NCD 10/10 Q1025
YBOK 192000Z AUTO 09006KT 9999 // BKN024 14/13 Q1025
YBPN 192000Z AUTO 17006KT //// // SCT021 18/17 Q1020
YBRK 192030Z AUTO 12005KT 9999 // NCD 18/16 Q1022 RF00.0/000.0
YBRM 192030Z AUTO 34005KT 9999 // NCD 20/19 Q1013 RF00.0/000.0
YBTL 192030Z 14007KT 9999 FEW020 20/17 Q1019 NOSIG
YBUD 192000Z AUTO 16006KT 8000 // NCD 15/15 Q1023
YBWP 192000Z AUTO 10005KT 9999 // NCD 22/19 Q1014
YBWX 192000Z AUTO 18023KT //// // ////// 22/13 Q1015
YCAR 192000Z AUTO 15016KT 9999 // NCD 13/05 Q1022
YCAS 192000Z AUTO 30004KT //// // ////// 13/12 Q1026
YCBA 192000Z AUTO 05007KT 9999 // NCD 15/05 Q1019
YCBB 192000Z AUTO 05010KT 9999 // NCD 12/09 Q1024
YCBP 192000Z AUTO 20026KT 9999 // NCD 15/08 Q1011
YCCY 192000Z AUTO 25001KT 9999 // NCD 11/M11 Q1015
YCDU 192000Z AUTO 01006KT 9999 // OVC083 11/10 Q1013
YCFS 192030Z AUTO 00000KT 9999 // BKN021 OVC027 OVC039 17/16 Q1026
YCIN 192030Z AUTO 01005KT 9999 // NCD 18/17 Q1012 RF00.0/000.0
YCNM 192000Z AUTO 07009KT //// // ////// 15/09 Q1022
YCOM 192000Z AUTO 03011KT 9999 // OVC018 09/09 Q1025
YDBY 192000Z AUTO 32004KT 9999 // NCD 21/18 Q1012
YEML 192000Z AUTO 09006KT 9999 // OVC019 OVC025 17/15 Q1022
YESP 192030Z AUTO 24012KT 200V290 2500 // SCT020 SCT029 BKN037 06/05 Q1023
YFRT 192030Z AUTO /////KT 9999 // NCD 05/02 Q1019 RF00.0/000.0
YGEL 192030Z AUTO 11009KT 9999 // SCT050 08/04 Q1026 RF00.0/000.2
YGFN 192030Z AUTO 00000KT 9999 // BKN005 OVC047 15/14 Q1026
YGLA 192030Z AUTO 17004KT 9999 // NCD 19/15 Q1023 RF00.0/000.0
YGTE 192000Z AUTO 09003KT 9999 // ////// 16/15 Q1014
YGTH 192030Z AUTO 04016G26KT 9999 // NCD 17/10 Q1020
YHID 192030Z AUTO 13009KT 9999 // SCT012 SCT024 OVC032 24/22 Q1013
YHUG 192000Z AUTO 07006KT 9999 // NCD 18/10 Q1017
YKRY 192030Z AUTO 08004KT //// // BKN010 BKN014 OVC034 16/14 Q1025
YLEC 192000Z AUTO 01018KT //// // ////// 23/M09 Q1010
YLHI 192030Z AUTO 07017KT 9999 // SCT022 BKN052 BKN081 18/14 Q1029
YLIS 192030Z AUTO 36005KT 9999 // SCT009 BKN013 OVC051 12/12 Q1026
YLRE 192000Z AUTO 04010KT 9999 // NCD 20/10 Q1018
YMAV 192030Z AUTO 02015KT 9999 // NCD 20/10 Q1016 RF00.0/000.0
YMAY 192000Z AUTO 03002KT 9999 // NCD 09/08 Q1022
YMDG 192000Z AUTO 16005KT 9999 // NCD 11/11 Q1025
YMEK 192000Z AUTO 14009KT 9999 // NCD 09/M03 Q1023
YMEN 192030Z AUTO 02018G31KT 9999 // NCD 19/10 Q1016
YMER 192000Z AUTO 01005KT 9999 // NCD 15/12 Q1024
YMHB 192030Z 27004KT 210V350 9999 FEW020 SCT140 BKN250 13/10 Q1017
YMIA 192000Z AUTO 02015KT 9999 // NCD 20/04 Q1013
YMLT 192030Z AUTO 27004KT 9999 // NCD 11/10 Q1019 RF00.0/000.0
YMML 192030Z 36037G49KT CAVOK 17/10 Q1015 FM2030 SEV TURB BLW 5000FT
YMOR 192000Z AUTO 07014KT 9999 // NCD 17/09 Q1024
YNAR 192000Z AUTO 08008KT 9999 // NCD 13/09 Q1021
YNBR 192000Z AUTO 16004KT 090V180 9999 // NCD 11/06 Q1023
YNTN 192000Z AUTO 07005KT 9999 // NCD 18/16 Q1015
YNWN 192000Z AUTO 16014KT 9999 // NCD 14/M01 Q1019
YOLD 192000Z AUTO 22011KT 9999 // ////// 19/08 Q1010
YPAD 192030Z 16001KT CAVOK 14/11 Q1013 FM2200 23010KT 9999 SCT015
YPBO 192000Z AUTO 15012KT 9999 // NCD 16/M01 Q1018
YPCC 192030Z AUTO 10013KT 9999 // BKN023 BKN035 25/21 Q1014
YPDN 192030Z 27002KT 9999 FEW009 21/19 Q1014 NOSIG
YPEA 192030Z AUTO 26002KT 9999 // NCD 03/01 Q1027
YPGV 192030Z AUTO 00000KT 9999 // NCD 20/18 Q1015 RF00.0/000.0
YPJT 192030Z AUTO 00000KT 9999 // NCD 04/04 Q1027 RF00.0/000.2
YPKG 192030Z AUTO 23007KT 9999 // NCD 03/M00 Q1024 RF00.0/000.2
YPKU 192030Z AUTO 11003KT 9999 // NCD 19/14 Q1013 RF00.0/000.0
YPLM 192030Z AUTO 19010KT 9999 // NCD 14/07 Q1018 RF00.0/000.0
YPPD 192030Z AUTO 17006KT 9999 // NCD 16/11 Q1014 RF00.0/000.0
YPPH 192030Z 00000KT CAVOK 03/02 Q1027 NOSIG
YPTN 192030Z AUTO 00000KT 9999 // NCD 17/13 Q1014
YPWR 192030Z AUTO 18018KT 9999 // NCD 18/08 Q1010 RF00.0/000.0
YPXM 192030Z AUTO 12016KT //// // BKN017 BKN025 BKN038 23/19 Q1014
YRMD 192000Z AUTO 08006KT //// // NCD 16/04 Q1016
YSCB 192030Z AUTO 34004KT 9999 // NCD 06/06 Q1026 RF00.0/000.0 NOSIG
YSDU 192030Z AUTO 09011KT 9999 // NCD 14/12 Q1024 RF00.0/000.0
YSNF 192032Z AUTO 10014KT 6000 DZ SCT009 BKN017 BKN030 15/13 Q1028
YSNW 192000Z AUTO 00000KT 9999 // NCD 10/10 Q1025
YSRI 192030Z AUTO 00000KT 9999 // ////// 14/14 Q1026 RF00.0/000.8
YSSY 192030Z 04004KT 9999 FEW015 SCT025 17/16 Q1026 NOSIG
YSTW 192030Z AUTO 15008KT 9999 // NCD 14/10 Q1025 RF00.0/000.0
YSWG 192000Z AUTO 07011KT 9999 // NCD 14/10 Q1022
YTEF 192011Z AUTO 16020KT 7000 // NCD 20/04 Q1016
YTNK 192000Z AUTO 36011KT 9999 // NCD 24/04 Q1014
YTRE 192000Z AUTO 00000KT //// // SCT030 BKN056 13/13 Q1026
YWGT 192000Z AUTO 00000KT 9999 // NCD 08/08 Q1022
YWHA 192000Z AUTO 17007KT 130V190 9999 // ////// 15/13 Q1012
YWLM 192030Z AUTO 08007KT 9999 // NCD 15/15 Q1026
ZBAA 192030Z 00000MPS CAVOK 14/13 Q1016 NOSIG
ZBAD 192030Z 16001MPS CAVOK 14/12 Q1016 NOSIG
ZBHH 192000Z 08002MPS 5000 -RA BR SCT040 12/11 Q1022 NOSIG
ZBSJ 192000Z 17001MPS CAVOK 14/14 Q1016 NOSIG
ZBTJ 192030Z 17001MPS CAVOK 15/11 Q1016 NOSIG
ZBYN 192030Z VRB01MPS 6000 NSC 13/11 Q1020 NOSIG
ZGGG 192030Z 33004MPS CAVOK 25/18 Q1010 NOSIG
ZGHA 192000Z 36003MPS 7000 NSC 21/19 Q1015 NOSIG
ZGKL 192000Z 35002MPS 290V360 CAVOK 21/19 Q1014 NOSIG
ZGNN 192000Z 00000MPS 6000 NSC 24/23 Q1012 NOSIG
ZGOW 192000Z 00000MPS CAVOK 22/21 Q1009 NOSIG
ZGSZ 192000Z 04003MPS CAVOK 27/17 Q1009 NOSIG
ZHCC 192000Z VRB01MPS 6000 OVC040 18/17 Q1018 NOSIG
ZHHH 192000Z 02002MPS 350V070 CAVOK 21/12 Q1015 NOSIG
ZJHK 192000Z VRB01MPS 7000 NSC 24/24 Q1010 NOSIG
ZJSY 192000Z 34002MPS CAVOK 26/22 Q1009 NOSIG
ZLLL 192000Z 34002MPS 5000 BR NSC 07/07 Q1030 NOSIG
ZLXY 192000Z 22002MPS 2500 BR NSC 15/15 Q1022 NOSIG
ZMUB 192030Z VRB01MPS CAVOK M00/M02 Q1025 NOSIG RMK QFE660.7 86
ZPPP 192000Z 22003MPS 9999 SCT040 16/15 Q1024 NOSIG
ZSAM 192000Z 03003MPS 350V050 CAVOK 24/18 Q1009 NOSIG
ZSFZ 192000Z 35003MPS 310V020 9999 FEW033 23/13 Q1010 NOSIG
ZSHC 192030Z 36003MPS 330V040 9999 SCT033 21/16 Q1015 NOSIG
ZSNB 192000Z 33005MPS CAVOK 21/16 Q1013 NOSIG
ZSNJ 192000Z 03002MPS CAVOK 18/15 Q1016 NOSIG
ZSOF 192000Z 03001MPS CAVOK 16/14 Q1016 NOSIG
ZSPD 192030Z 36006MPS 9999 SCT030 22/17 Q1014 NOSIG
ZSQD 192000Z 35002MPS CAVOK 18/12 Q1017 NOSIG
ZSSS 192030Z 36003MPS 9999 FEW033 20/16 Q1014 NOSIG
ZUCK 192000Z 31003MPS 5000 -RA BR FEW004 SCT007 OVC040 19/19 Q1019 NOSIG
ZUGY 192000Z 04003MPS 9999 FEW010 BKN015 OVC033 17/15 Q1020 NOSIG
ZUUU 192000Z 00000MPS 6000 FEW050 19/17 Q1021 NOSIG
ZWSH 192000Z 32004MPS CAVOK 17/04 Q1024 NOSIG
ZWWW 192030Z 19004MPS CAVOK 19/05 Q1020 NOSIG
ZYCC 192000Z 17002MPS 150V210 CAVOK 10/06 Q1016 NOSIG
ZYHB 192000Z 16002MPS CAVOK 06/03 Q1017 NOSIG
ZYTL 192030Z 08002MPS CAVOK 19/13 Q1017 NOSIG
ZYTX 192030Z 14003MPS CAVOK 13/11 Q1016 NOSIG
